{"name":"Le Baron Restaurang & Pizzeria","url":"http://restauranglebaron.com/meny/","street":"Skånegatan 39","postalCode":"412 52","city":"GÖTEBORG"}
{"name":"Pizzeria Casablanca","url":"http://www.casablancapizza.se","street":"Lillhagsparken 17C","postalCode":"422 50","city":"HISINGS BACKA"}
{"name":"Pizzabageriet","url":"http://www.pizzabagerietmunkeback.se/meny","street":"Munkebäcksgatan 14","postalCode":"416 53","city":"GÖTEBORG"}
{"name":"Grimmereds Pizzeria","url":"http://www.grimmeredskrog.se","street":"Grimmeredsvägen 99","postalCode":"426 69","city":"VÄSTRA FRÖLUNDA"}
{"name":"Pizzeria Etna","street":"Nordostpassagen 47, ","postalCode":"413 11","city":"GÖTEBORG"}
{"name":"La cantina Pizza","street":"Ejderg. 10 E, ","postalCode":"416 68","city":"GÖTEBORG"}
{"name":"Hamnens Pizzeria & Grillbar","street":"Björnhuvudsv. 9, ","postalCode":"475 31","city":"ÖCKERÖ"}
{"name":"Leonardo Tapas och Lounge","url":"http://www.leonardogbg.se","street":"Redbergsv. 9, ","postalCode":"416 65","city":"GÖTEBORG"}
{"name":"Harrys Gatukök & Pizzabutik","street":"G. Björlandav. 147, ","postalCode":"417 28","city":"GÖTEBORG"}
{"name":"La Venezia Pizzeria Restaurang","street":"Danska v. 87, ","postalCode":"416 59","city":"GÖTEBORG"}
{"name":"Pizzeria Class","url":"http://www.pizzeriaclass.se","street":"Ångaren indias gata, ","postalCode":"417 60","city":"GÖTEBORG"}
{"name":"Januari Pizzeria","url":"https://www.facebook.com/pages/Komettorget-Pizzeria/157381460974724","street":"Komettorget 1, ","postalCode":"415 20","city":"GÖTEBORG"}
{"name":"Montazer Mehdi","url":"https://www.facebook.com/Ilonas-pizzeria-194591490874339/","street":"Hjuviks Bryggv. 18, ","postalCode":"423 40","city":"TORSLANDA"}
{"name":"Primavera Pizzeria","street":"Friskväderstorget 6, ","postalCode":"418 38","city":"GÖTEBORG"}
{"name":"Sannegårdens Pizzeria","url":"http://www.sannegardenspizzeria.se","street":"Ö. Eriksbergsg. 24, ","postalCode":"417 63","city":"GÖTEBORG"}
{"name":"Rohat Pizzeria HB","street":"Silvermyntsg. 1, ","postalCode":"414 79","city":"GÖTEBORG"}
{"name":"Stars and stripes","url":"http://www.starsnstripes.se","street":"Klangfärgsg. 3, ","postalCode":"426 52","city":"VÄSTRA FRÖLUNDA"}
{"name":"Restaurang och Pizzeria Safir","street":"Jonseredsv. 21, ","postalCode":"433 75","city":"JONSERED"}
{"name":"Gamlastaden Matstuga i Göteborg","url":"http://www.matstugaigamlestaden.se/","street":"Nylöseg. 10, ","postalCode":"415 03","city":"GÖTEBORG"}
{"name":"Pizza Roma Sanatoriegatan","url":"http://www.romapizza.nu","street":"Sanatorieg. 15 B, ","postalCode":"416 53","city":"GÖTEBORG"}
{"name":"Montazer Mehdi","url":"https://www.facebook.com/Ilonas-pizzeria-194591490874339/","street":"Hjuviks Bryggv. 18, ","postalCode":"423 40","city":"TORSLANDA"}
{"name":"Pizzeria Tampico","street":"Smörg. 2, ","postalCode":"412 76","city":"GÖTEBORG"}
{"name":"Pizzabutiken Torpa","street":"Nedre Furuskogsv. 2, ","postalCode":"433 35","city":"PARTILLE"}
{"name":"Olympia Taverna och Pizzeria","street":"Långedragsv. 30, ","postalCode":"426 71","city":"VÄSTRA FRÖLUNDA"}
{"name":"Grimmereds Pizzeria","street":"Norra Breviksvägen 21, ","postalCode":"421 67","city":"VÄSTRA FRÖLUNDA"}
{"name":"Henkes Pizzeria","street":"Haguddsv. 7, ","postalCode":"435 39","city":"MÖLNLYCKE"}
{"name":"Juventus Pizzeria 2","url":"https://www.facebook.com/JuventusPizzeria2","street":"Saffransg. 27, ","postalCode":"424 42","city":"ANGERED"}
{"name":"Eat and Drink","url":"http://eatanddrink.se","street":"Södra v. 77, ","postalCode":"412 53","city":"GÖTEBORG"}
{"name":"Harvest Gatukök och Pizzeria","street":"Viktor Rydbergsg. 71, ","postalCode":"412 61","city":"GÖTEBORG"}
{"name":"Potenza Restaurang Pizzeria Bar","street":"Rävlanda Stationsv. 8, ","postalCode":"438 51","city":"RÄVLANDA"}
{"name":"Ferrari Pizza och Grill","street":"Kaveldunsv. 1, ","postalCode":"435 40","city":"MÖLNLYCKE"}
{"name":"Palermo Pizzeria","street":"Jättestensgatan 9, ","postalCode":"418 72","city":"GÖTEBORG"}
{"name":"Pizzeria Favenzia i Skintebo","url":"http://favenzia.com/","street":"L. Skintebov. 4, ","postalCode":"427 34","city":"BILLDAL"}
{"name":"Sannegårdens Pizzeria","url":"http://www.sannegardens.se","street":"Gibraltarg. 52, ","postalCode":"412 58","city":"GÖTEBORG"}
{"name":"Antonio Livs & Pizza","street":"Nedre Kvarnbergsgatan 16, ","postalCode":"411 05","city":"GÖTEBORG"}
{"name":"Pizzeria Livia","url":"https://www.facebook.com/pages/Pizzeria-Livia/204386126241477","street":"Ostindiefararen 43, ","postalCode":"417 65","city":"GÖTEBORG"}
{"name":"Pizzabutiken Torpa","street":"Nedre Furuskogsv. 2, ","postalCode":"433 35","city":"PARTILLE"}
{"name":"Pizzeria Papillon","street":"Doktor Forselius Backe 46, ","postalCode":"413 26","city":"GÖTEBORG"}
{"name":"Laneko Allservice","street":"G. Riksv. 54, ","postalCode":"428 30","city":"KÅLLERED"}
{"name":"Smaskens Pizza Grill","url":"https://www.facebook.com/pages/Smaskens-Pizza-Grill/163647510346866","street":"Stenungsundsg. 2, ","postalCode":"416 74","city":"GÖTEBORG"}
{"name":"Pizzeria Sanremo","url":"http://www.sanremo.se","street":"Nordhagsv. 28, ","postalCode":"423 34","city":"TORSLANDA"}
{"name":"Bekal Pizzeria","street":"Artillerig. 8 A, ","postalCode":"415 03","city":"GÖTEBORG"}
{"name":"Pizzeria Pärla","street":"Lisa Sass g. 18, ","postalCode":"422 53","city":"HISINGS BACKA"}
{"name":"Pizzeria Victoria","url":"http://www.pizzaviktoria.com","street":"S. Viktoriag. 46, ","postalCode":"411 30","city":"GÖTEBORG"}
{"name":"Marmaris Pizza Kebab och Sallad","street":"Krokslätts Torg 4, ","postalCode":"431 37","city":"MÖLNDAL"}
{"name":"Pizza Pronto","street":"Lantmätareg. 12 D, ","postalCode":"417 06","city":"GÖTEBORG"}
{"name":"Restaurang & Pizzeria Timjan","url":"http://www.restaurangtimjan.se","street":"Brunnegårdsv. 11, ","postalCode":"433 32","city":"PARTILLE"}
{"name":"Old Town","url":"http://www.oldtown.se/","street":"Linnég. 38, ","postalCode":"413 04","city":"GÖTEBORG"}
{"name":"Rucola Restaurang Bar & Pizzeria","street":"Frejag. 9, ","postalCode":"431 44","city":"MÖLNDAL"}
{"name":"Bamjan Place","street":"Gibraltarg. 14, ","postalCode":"411 32","city":"GÖTEBORG"}
{"name":"Sörgårdens Bageri-Konditori-Pizzeria","street":"Södra v. 97, ","postalCode":"412 63","city":"GÖTEBORG"}
{"name":"Pizzeria Sera","url":"http://www.pizzeriasera.se/","street":"Nansensg. 1, ","postalCode":"417 19","city":"GÖTEBORG"}
{"name":"Gamlastaden Matstuga i Göteborg","url":"http://www.matstugaigamlestaden.se/","street":"Nylöseg. 10, ","postalCode":"415 03","city":"GÖTEBORG"}
{"name":"Pizzabutiken Torpa","street":"Nedre Furuskogsv. 2, ","postalCode":"433 35","city":"PARTILLE"}
{"name":"Sb Taxi I Göteborg","street":"Halvardsg. 2, ","postalCode":"417 28","city":"GÖTEBORG"}
{"name":"Pizzeria Victoria","url":"http://www.pizzaviktoria.com","street":"S. Viktoriag. 46, ","postalCode":"411 30","city":"GÖTEBORG"}
{"name":"Juventus Pizzeria 2","url":"https://www.facebook.com/JuventusPizzeria2","street":"Saffransg. 27, ","postalCode":"424 42","city":"ANGERED"}
{"name":"Guldhedens Pizzeria","street":"Vildapelsg. 3 A, ","postalCode":"413 20","city":"GÖTEBORG"}
{"name":"Restaurang Sofra","url":"http://www.restaurangsofra.com","street":"Danska v. 79, ","postalCode":"416 59","city":"GÖTEBORG"}
{"name":"Contro Pizzeria","street":"Köpenhamnsgatan 5, ","postalCode":"418 77","city":"GÖTEBORG"}
{"name":"La Venezia Pizza Restaurang","street":"Danska v. 97, ","postalCode":"416 59","city":"GÖTEBORG"}
{"name":"Leonardo Tapas och Lounge","url":"http://www.leonardogbg.se","street":"Redbergsv. 9, ","postalCode":"416 65","city":"GÖTEBORG"}
{"name":"E.C.A Pizzeria EF","street":"Rimfrostg. 47, ","postalCode":"418 40","city":"GÖTEBORG"}
{"name":"Pad Thai Restaurang","street":"Björlanda Kile, ","postalCode":"423 61","city":"TORSLANDA"}
{"name":"Pizzeria Pärla","street":"Lisa Sass g. 18, ","postalCode":"422 53","city":"HISINGS BACKA"}
{"name":"Stabbe Pizzeria","url":"http://www.stabbepizzeria.se","street":"Stabbetorget 4, ","postalCode":"416 80","city":"GÖTEBORG"}
{"name":"Brooklyn Local Restaurang och Bar","url":"http://www.chalmerskonferens.se/restauranger/johanneberg/brooklynlocal/","street":"Gibraltarg. 80, ","postalCode":"412 79","city":"GÖTEBORG"}
{"name":"Januari Pizzeria","url":"https://www.facebook.com/pages/Komettorget-Pizzeria/157381460974724","street":"Komettorget 1, ","postalCode":"415 20","city":"GÖTEBORG"}
{"name":"Systrarna Olssons Våffelbageri","url":"http://www.liseberg.se","street":"Örgrytev. 5, ","postalCode":"412 51","city":"GÖTEBORG"}
{"name":"Dian Pizza Butik","street":"Chalmersg. 29, ","postalCode":"411 35","city":"GÖTEBORG"}
{"name":"C & L Pizzeria","street":"Väderilsg. 46, ","postalCode":"418 36","city":"GÖTEBORG"}
{"name":"Restaurang & Pizzeria Iran","url":"https://www.facebook.com/pages/Restaurang-och-Pizzeria-Iran/132998006759316","street":"Stigbergsliden 3, ","postalCode":"414 63","city":"GÖTEBORG"}
{"name":"Primavera Pizzeria","street":"Friskväderstorget 6, ","postalCode":"418 38","city":"GÖTEBORG"}
{"name":"Pizzeria Mervana","street":"Väderbodarna 1, ","postalCode":"418 35","city":"GÖTEBORG"}
{"name":"Hjallbo Sinibads Kebab","street":"Bergsgårdsgärdet 80, ","postalCode":"424 32","city":"ANGERED"}
{"name":"Pizzeria Roma Kebab","street":"Lexbyvägen 19, ","postalCode":"433 31","city":"PARTILLE"}
{"name":"Picasso Restaurang och Bar","url":"http://restaurangguiden.segbg/centrum/picasso/","street":"Kristinelundsg. 13, ","postalCode":"411 37","city":"GÖTEBORG"}
{"name":"Café & Pizzeria i Sannegården","street":"Artillerig. 8 D, ","postalCode":"415 03","city":"GÖTEBORG"}
{"name":"Pizzeria Sanremo","url":"http://www.sanremo.se","street":"Nordhagsv. 28, ","postalCode":"423 34","city":"TORSLANDA"}
{"name":"Antonio Livs & Pizza","street":"Nedre Kvarnbergsgatan 16, ","postalCode":"411 05","city":"GÖTEBORG"}
{"name":"Marmaris Pizza Kebab och Sallad","street":"Krokslätts Torg 4, ","postalCode":"431 37","city":"MÖLNDAL"}
{"name":"Matbiten Citykrogen","street":"Mellbyv. 68, ","postalCode":"433 30","city":"PARTILLE"}
{"name":"Storfors Grill o. Pizzeria","street":"Göteborgsv. 121 B, ","postalCode":"433 63","city":"SÄVEDALEN"}
{"name":"Pizzeria Navona","street":"Danag. 6, ","postalCode":"418 76","city":"GÖTEBORG"}
{"name":"Harvest Gatukök och Pizzeria","street":"Viktor Rydbergsg. 71, ","postalCode":"412 61","city":"GÖTEBORG"}
{"name":"Sb Taxi I Göteborg","street":"Halvardsg. 2, ","postalCode":"417 28","city":"GÖTEBORG"}
{"name":"Marmaris Pizza Kebab och Sallad","street":"Krokslätts Torg 4, ","postalCode":"431 37","city":"MÖLNDAL"}
{"name":"Capri Pizzeria","street":"Januarig. 2, ","postalCode":"415 15","city":"GÖTEBORG"}
{"name":"Pizzeria, Dinos","url":"https://www.facebook.com/Dinos-Pizzeria-L%C3%A4nsmanstorget-2-800094473338122/?rf=186748711352192","street":"Länsmanstorget 2, ","postalCode":"418 40","city":"GÖTEBORG"}
{"name":"Marmaris Pizza Kebab och Sallad","street":"Krokslätts Torg 4, ","postalCode":"431 37","city":"MÖLNDAL"}
{"name":"Pizzabutik Pärlan","street":"Vintervädersg. 1, ","postalCode":"418 36","city":"GÖTEBORG"}
{"name":"Venus","url":"http://venuspizzeria.se","street":"Sixten Camps g. 4, ","postalCode":"416 48","city":"GÖTEBORG"}
{"name":"Pizzabutiken Bruno Franco","street":"Olivedalsg. 12, ","postalCode":"413 10","city":"GÖTEBORG"}
{"name":"Cafe Pomerans Pizzeria & Restaurang","url":"https://sv-se.facebook.com/CafePomerns","street":"Blåsvädersg. 12, ","postalCode":"418 32","city":"GÖTEBORG"}
{"name":"Pizzabutik Kärnan","street":"Bällsrog. 24, ","postalCode":"422 44","city":"HISINGS BACKA"}
{"name":"Restaurang Alanya´s","url":"http://www.alanyas.se","street":"Braheg. 6, ","postalCode":"415 01","city":"GÖTEBORG"}
{"name":"Januari Pizzeria","url":"https://www.facebook.com/pages/Komettorget-Pizzeria/157381460974724","street":"Komettorget 1, ","postalCode":"415 20","city":"GÖTEBORG"}
{"name":"Roma Restaurang och Pizzeria","url":"http://romarestaurang.com","street":"Ringög. 16, ","postalCode":"417 07","city":"GÖTEBORG"}
{"name":"Pizzeria Mervana","street":"Väderbodarna 1, ","postalCode":"418 35","city":"GÖTEBORG"}
{"name":"Restaurang Alanya´s","url":"http://www.alanyas.se","street":"Braheg. 6, ","postalCode":"415 01","city":"GÖTEBORG"}
{"name":"Sannegårdens Pizzeria","url":"http://www.sannegardens.se","street":"Gibraltarg. 52, ","postalCode":"412 58","city":"GÖTEBORG"}
{"name":"Restaurang Moravia","url":"http://www.moravia.se","street":"Kyrkåsg. 13, ","postalCode":"416 56","city":"GÖTEBORG"}
{"name":"Gambero Pizzabutik","url":"http://www.pizzabutikgambero.se","street":"Övre Husarg. 5, ","postalCode":"411 22","city":"GÖTEBORG"}
{"name":"Tynnereds Pizzeria","url":"https://sv-se.facebook.com/Tynnered-Pizzeria-452366971456628/","street":"L. Grevegårdsv. 1, ","postalCode":"426 55","city":"VÄSTRA FRÖLUNDA"}
{"name":"Stefans Bar & Kök","street":"Järnbrotts Prästv. 7 D, ","postalCode":"421 47","city":"VÄSTRA FRÖLUNDA"}
{"name":"Da Mario Pizzabutik","street":"Frölunda torg, ","postalCode":"421 44","city":"VÄSTRA FRÖLUNDA"}
{"name":"La Piazza","url":"http://www.lapiazzapizzeria.se","street":"Distansg. 23 A, ","postalCode":"421 73","city":"VÄSTRA FRÖLUNDA"}
{"name":"Old Town","url":"http://www.oldtown.se/","street":"Linnég. 38, ","postalCode":"413 04","city":"GÖTEBORG"}
{"name":"Knippla Pizzeria","street":"Källöv. 3, ","postalCode":"475 51","city":"KÄLLÖ-KNIPPLA"}
{"name":"Alberts Pizzeria","street":"Orustg. 2 A, ","postalCode":"414 74","city":"GÖTEBORG"}
{"name":"OKQ8 Landvetter - Bensinstation, Butik & Café","url":"http://www.okq8.se","street":"Flygplatsvägen 10, ","postalCode":"438 70","city":"LANDVETTER"}
{"name":"Harvest Gatukök och Pizzeria","street":"Viktor Rydbergsg. 71, ","postalCode":"412 61","city":"GÖTEBORG"}
{"name":"Da Mario Pizzabutik","street":"Frölunda torg, ","postalCode":"421 44","city":"VÄSTRA FRÖLUNDA"}
{"name":"Hamnens Pizzeria & Grillbar","street":"Björnhuvudsv. 9, ","postalCode":"475 31","city":"ÖCKERÖ"}
{"name":"Pizzeria Sanremo","url":"http://www.sanremo.se","street":"Nordhagsv. 28, ","postalCode":"423 34","city":"TORSLANDA"}
{"name":"Nisses Pizzeria AB","street":"Kållareds Centrum, ","postalCode":"428 32","city":"KÅLLERED"}
{"name":"Pizzeria Capriccosiosa","street":"Lars Kaggsg. 45 B, ","postalCode":"415 04","city":"GÖTEBORG"}
{"name":"Pizzeria 13","street":"Chalmersg. 13, ","postalCode":"411 35","city":"GÖTEBORG"}
{"name":"Pizzeria Sera","url":"http://www.pizzeriasera.se/","street":"Nansensg. 1, ","postalCode":"417 19","city":"GÖTEBORG"}
{"name":"Pizzeria Sanremo","url":"http://www.sanremo.se","street":"Nordhagsv. 28, ","postalCode":"423 34","city":"TORSLANDA"}
{"name":"Nobel Pizzeria","street":"Nobelg. 29, ","postalCode":"416 57","city":"GÖTEBORG"}
{"name":"Pizzeria Restaur. Mantovani","street":"Månadsg. 28, ","postalCode":"415 08","city":"GÖTEBORG"}
{"name":"Hermans Kök & Bar","url":"http://www.hermanskokobar.se/","street":"Radiotorget 5, ","postalCode":"421 33","city":"VÄSTRA FRÖLUNDA"}
{"name":"Hermans Kök & Bar","url":"http://www.hermanskokobar.se/","street":"Radiotorget 5, ","postalCode":"421 33","city":"VÄSTRA FRÖLUNDA"}
{"name":"Pizza 4 You","street":"S:t Sigfridsg. 146 B, ","postalCode":"412 67","city":"GÖTEBORG"}
{"name":"Cafe Pomerans Pizzeria & Restaurang","url":"https://sv-se.facebook.com/CafePomerns","street":"Blåsvädersg. 12, ","postalCode":"418 32","city":"GÖTEBORG"}
{"name":"Restaurang Moravia","url":"http://www.moravia.se","street":"Kyrkåsg. 13, ","postalCode":"416 56","city":"GÖTEBORG"}
{"name":"Pizzeria Il Vagabondo","street":"Förstamajg. 5, ","postalCode":"415 10","city":"GÖTEBORG"}
{"name":"Leonardo Tapas och Lounge","url":"http://www.leonardogbg.se","street":"Redbergsv. 9, ","postalCode":"416 65","city":"GÖTEBORG"}
{"name":"Pizzeria Libiza","street":"Artillerig. 12 B, ","postalCode":"415 03","city":"GÖTEBORG"}
{"name":"Pizzeria Mervana","street":"Väderbodarna 1, ","postalCode":"418 35","city":"GÖTEBORG"}
{"name":"Sävedalens Pizzahouse","street":"Göteborgsvägen 91, ","postalCode":"433 63","city":"SÄVEDALEN"}
{"name":"Hempizza","url":"http://www.hempizza.gastrogate.com/","street":"Konditoriv. 1, ","postalCode":"437 33","city":"LINDOME"}
{"name":"Hjallbo Sinibads Kebab","street":"Bergsgårdsgärdet 80, ","postalCode":"424 32","city":"ANGERED"}
{"name":"Januari Pizzeria","url":"https://www.facebook.com/pages/Komettorget-Pizzeria/157381460974724","street":"Komettorget 1, ","postalCode":"415 20","city":"GÖTEBORG"}
{"name":"Galliano Kök & Bar","street":"Masthuggstorget 3, ","postalCode":"413 27","city":"GÖTEBORG"}
{"name":"Pizzeria Villagio","url":"http://www.pizzeriavillagio.se","street":"Harald Hjärnesg. 15, ","postalCode":"417 20","city":"GÖTEBORG"}
{"name":"Ninas Pizzeria","street":"Tuvev. 33, ","postalCode":"417 05","city":"GÖTEBORG"}
{"name":"Matbiten Citykrogen","street":"Mellbyv. 68, ","postalCode":"433 30","city":"PARTILLE"}
{"name":"Pizzeria Campus","street":"Gibraltarg. 54, ","postalCode":"412 58","city":"GÖTEBORG"}
{"name":"Primavera Pizzeria","street":"Friskväderstorget 6, ","postalCode":"418 38","city":"GÖTEBORG"}
{"name":"Hamnens Pizzeria & Grillbar","street":"Björnhuvudsv. 9, ","postalCode":"475 31","city":"ÖCKERÖ"}
{"name":"Sidad Pizzeria","street":"Halvsekelsg. 21, ","postalCode":"415 08","city":"GÖTEBORG"}
{"name":"Dannes Pizzeria och Grill","url":"http://www.dannespizzeria.se/","street":"Jörlandav. 2 B, ","postalCode":"442 60","city":"KODE"}
{"name":"La Venezia Pizzeria Restaurang","street":"Danska v. 97, ","postalCode":"416 59","city":"GÖTEBORG"}
{"name":"Stig Centers Gatukök","url":"http://www.sibyllastigcenter.se","street":"Importg. 2, ","postalCode":"422 46","city":"HISINGS BACKA"}
{"name":"Hjallbo Sinibads Kebab","street":"Bergsgårdsgärdet 80, ","postalCode":"424 32","city":"ANGERED"}
{"name":"Pizzabutiken Torpa","street":"Nedre Furuskogsv. 2, ","postalCode":"433 35","city":"PARTILLE"}
{"name":"Pad Thai Restaurang","street":"Björlanda Kile, ","postalCode":"423 61","city":"TORSLANDA"}
{"name":"Antonio Livs & Pizza","street":"Nedre Kvarnbergsgatan 16, ","postalCode":"411 05","city":"GÖTEBORG"}
{"name":"Pizzeria Kerkira","street":"Mackliersg. 2, ","postalCode":"412 59","city":"GÖTEBORG"}
{"name":"Tano´s Restaurang","street":"Prästgårdsängen 1, ","postalCode":"412 71","city":"GÖTEBORG"}
{"name":"Tano´s Restaurang","street":"Prästgårdsängen 1, ","postalCode":"412 71","city":"GÖTEBORG"}
{"name":"Pizzeria 13","street":"Chalmersg. 13, ","postalCode":"411 35","city":"GÖTEBORG"}
{"name":"Potenza Restaurang Pizzeria Bar","street":"Rävlanda Stationsv. 8, ","postalCode":"438 51","city":"RÄVLANDA"}
{"name":"Mizgin Pizzeria","street":"Västergårdsv. 3, ","postalCode":"438 52","city":"RÄVLANDA"}
{"name":"Landvetter Pizzeria","street":"Brattåsv. 14, ","postalCode":"438 32","city":"LANDVETTER"}
{"name":"Åby Krog","street":"Katrinebergsg. 6, ","postalCode":"431 61","city":"MÖLNDAL"}
{"name":"Il Vagabondo Pizzeria","street":"Förstamajgatan 5, ","postalCode":"415 10","city":"GÖTEBORG"}
{"name":"Pizzabutik Italia","url":"http://pizzaitalia.se/","street":"Stobéeg. 6, ","postalCode":"416 53","city":"GÖTEBORG"}
{"name":"Pizzeria Platån","url":"https://sv-se.facebook.com/pizzeriaplatan","street":"Rönnerdahls gata 1, ","postalCode":"417 67","city":"GÖTEBORG"}
{"name":"Åby Krog","street":"Katrinebergsg. 6, ","postalCode":"431 61","city":"MÖLNDAL"}
{"name":"Alberts Pizzeria","street":"Orustg. 2 A, ","postalCode":"414 74","city":"GÖTEBORG"}
{"name":"Pizzeria Milano","street":"Artillerig. 8 D, ","postalCode":"415 03","city":"GÖTEBORG"}
{"name":"Pizzeria Sanremo","url":"http://www.sanremo.se","street":"Nordhagsv. 28, ","postalCode":"423 34","city":"TORSLANDA"}
{"name":"Gubbero PizzaBar","url":"http://www.pizzabar.se","street":"N. Gubberog. 16, ","postalCode":"416 63","city":"GÖTEBORG"}
{"name":"Roma Pizza","street":"S:t Paulig. 18, ","postalCode":"416 60","city":"GÖTEBORG"}
{"name":"Noretti pizzeria & restaurang","url":"http://www.norettipizzeria.n.nu","street":"Donsö Hamnv. 25, ","postalCode":"430 82","city":"DONSÖ"}
{"name":"Solsidan Restaurang & Bistro","street":"Metodv. 2 A, ","postalCode":"435 33","city":"MÖLNLYCKE"}
{"name":"Pizzabutiken Torpa","street":"Nedre Furuskogsv. 2, ","postalCode":"433 35","city":"PARTILLE"}
{"name":"Picasso Restaurang och Bar","url":"http://restaurangguiden.segbg/centrum/picasso/","street":"Kristinelundsg. 13, ","postalCode":"411 37","city":"GÖTEBORG"}
{"name":"Pizzeria Roma Kebab","street":"Paradisv. 2, ","postalCode":"433 31","city":"PARTILLE"}
{"name":"Knippla Pizzeria","street":"Källöv. 3, ","postalCode":"475 51","city":"KÄLLÖ-KNIPPLA"}
{"name":"Pizzeria Vallentin i Kungsbacka","url":"http://www.pizzeriavalentin.se","street":"Grinnekulleg. 227, ","postalCode":"417 42","city":"GÖTEBORG"}
{"name":"Odin's Pizzeria HB","street":"Odinsg. 23, ","postalCode":"411 03","city":"GÖTEBORG"}
{"name":"Grand Pizzeria I Göteborg","street":"Södra vårvindsgatan 6, ","postalCode":"418 77","city":"GÖTEBORG"}
{"name":"Pizzeria Papillon","street":"Doktor Forselius Backe 46, ","postalCode":"413 26","city":"GÖTEBORG"}
{"name":"S:t Pauli Pizzeria","url":"http://www.stpaulipizzeria.se","street":"Karlag. 19 B, ","postalCode":"416 61","city":"GÖTEBORG"}
{"name":"Pizzeria Örn 2","url":"http://www.ornpizzeria.se","street":"Akkas g. 1, ","postalCode":"422 48","city":"HISINGS BACKA"}
{"name":"S:t Pauli Pizzeria","url":"http://www.stpaulipizzeria.se","street":"Karlag. 19 B, ","postalCode":"416 61","city":"GÖTEBORG"}
{"name":"Pizzeria Kibar","street":"Bärnstensg., ","postalCode":"426 52","city":"VÄSTRA FRÖLUNDA"}
{"name":"Corpus pizzeria","url":"http://www.corpuspizzeria.se","street":"Kvarnbyg. 45, ","postalCode":"431 34","city":"MÖLNDAL"}
{"name":"Freja Pizzeria","url":"http://www.frejapizzeria.se","street":"Frejaplan, ","postalCode":"433 62","city":"SÄVEDALEN"}
{"name":"Alberts Pizzeria","street":"Orustg. 2 A, ","postalCode":"414 74","city":"GÖTEBORG"}
{"name":"Restaurang Nimra","street":"J Sigfrid Edströms g. 10, ","postalCode":"416 48","city":"GÖTEBORG"}
{"name":"Hermans Kök & Bar","url":"http://www.hermanskokobar.se/","street":"Radiotorget 5, ","postalCode":"421 33","city":"VÄSTRA FRÖLUNDA"}
{"name":"Canaria Pizzeria","street":"Hjällbogärdet 3, ","postalCode":"424 34","city":"ANGERED"}
{"name":"Restaurang och Pizzeria Safir","street":"Jonseredsv. 21, ","postalCode":"433 75","city":"JONSERED"}
{"name":"Henkes Pizzeria","street":"Haguddsv. 7, ","postalCode":"435 39","city":"MÖLNLYCKE"}
{"name":"Eriksberg Pizzeria","url":"http://www.eriksbergspizzeria.se/","street":"Ö. Eriksbergsg. 72, ","postalCode":"417 63","city":"GÖTEBORG"}
{"name":"Stefans Bar & Kök","street":"Järnbrotts Prästv. 7 D, ","postalCode":"421 47","city":"VÄSTRA FRÖLUNDA"}
{"name":"Kungsgatan 19","url":"http://www.kungsgatan19.se/","street":"Kungsg. 19, ","postalCode":"411 19","city":"GÖTEBORG"}
{"name":"Juventus Pizzeria 2","url":"https://www.facebook.com/JuventusPizzeria2","street":"Saffransg. 27, ","postalCode":"424 42","city":"ANGERED"}
{"name":"Pizzeria Etna","street":"Nordostpassagen 47, ","postalCode":"413 11","city":"GÖTEBORG"}
{"name":"Rohat Pizzeria HB","street":"Silvermyntsg. 1, ","postalCode":"414 79","city":"GÖTEBORG"}
{"name":"Pizzeria Kibar","street":"Bärnstensg., ","postalCode":"426 52","city":"VÄSTRA FRÖLUNDA"}
{"name":"Danilo Restaurang","url":"http://www.danilorestaurang.se","street":"Skåneg. 16, ","postalCode":"411 40","city":"GÖTEBORG"}
{"name":"Da Marco Pizzeria Ristorante","url":"http://www.damarco.se","street":"Ärleg. 2, ","postalCode":"414 57","city":"GÖTEBORG"}
{"name":"Pizza Pronto","street":"Lantmätareg. 12 D, ","postalCode":"417 06","city":"GÖTEBORG"}
{"name":"Pizzeria Sera","url":"http://www.pizzeriasera.se/","street":"Nansensg. 1, ","postalCode":"417 19","city":"GÖTEBORG"}
{"name":"Stig Centers Gatukök","url":"http://www.sibyllastigcenter.se","street":"Importg. 2, ","postalCode":"422 46","city":"HISINGS BACKA"}
{"name":"Pizzeria Mamma Rosa","url":"http://www.pizzeriamammarosa.se/","street":"Lillhagsv. 39, ","postalCode":"422 43","city":"HISINGS BACKA"}
{"name":"Restaurang Nimra","street":"J Sigfrid Edströms g. 10, ","postalCode":"416 48","city":"GÖTEBORG"}
{"name":"Sävedalens Pizzahouse","street":"Göteborgsvägen 91, ","postalCode":"433 63","city":"SÄVEDALEN"}
{"name":"Ferrari Pizza och Grill","street":"Kaveldunsv. 1, ","postalCode":"435 40","city":"MÖLNLYCKE"}
{"name":"E.C.A Pizzeria EF","street":"Rimfrostg. 47, ","postalCode":"418 40","city":"GÖTEBORG"}
{"name":"Pizzabutik Pärlan","street":"Vintervädersg. 1, ","postalCode":"418 36","city":"GÖTEBORG"}
{"name":"Göteborgs Kött och Pizzagrossist AB","street":"Slakthusgatan, ","postalCode":"415 02","city":"GÖTEBORG"}
{"name":"Restaurang Leonardo","url":"http://leonardogbg.se/","street":"Redbergsv. 9 A, ","postalCode":"416 65","city":"GÖTEBORG"}
{"name":"Pizzeria Lepanto","url":"http://www.lepanto.se","street":"Marklandsg. 1, ","postalCode":"414 77","city":"GÖTEBORG"}
{"name":"EL Figaro Pizzeria","url":"http://www.onneredspizzeria.se","street":"Klåveskärsg. 2 A, ","postalCode":"421 59","city":"VÄSTRA FRÖLUNDA"}
{"name":"Gatsby Pizzeria","street":"Långlyckev. 12, ","postalCode":"436 43","city":"ASKIM"}
{"name":"Dorado Pizza, Kebab och Sallader","url":"http://www.doradopizzeria.se","street":"Fridkullag. 20 A, ","postalCode":"412 62","city":"GÖTEBORG"}
{"name":"Pizza Provencale","street":"Viktoriagatan 10, ","postalCode":"411 25","city":"GÖTEBORG"}
{"name":"Pizzeria Class","url":"http://www.pizzeriaclass.se","street":"Ångaren indias gata, ","postalCode":"417 60","city":"GÖTEBORG"}
{"name":"Lrj I Torslanda AB","street":"Nordhagsv. 28, ","postalCode":"423 34","city":"TORSLANDA"}
{"name":"Sorelle Bistro","url":"http://www.sorellebistro.se","street":"Hovås Allé 12, ","postalCode":"436 53","city":"HOVÅS"}
{"name":"Sicilus Pizza","street":"Statareg. 2 E, ","postalCode":"417 15","city":"GÖTEBORG"}
{"name":"Restaurang Hemma Hos - Café Kök Bar","street":"Hökabergsvägen 1, ","postalCode":"438 34","city":"LANDVETTER"}
{"name":"Brooklyn Local Restaurang och Bar","url":"http://www.chalmerskonferens.se/restauranger/johanneberg/brooklynlocal/","street":"Gibraltarg. 80, ","postalCode":"412 79","city":"GÖTEBORG"}
{"name":"Flintston","url":"http://www.flintston.se","street":"Swedenborgsg. 1, ","postalCode":"417 05","city":"GÖTEBORG"}
{"name":"I Love pizza - Allum","street":"Kyrktorget 19, ","postalCode":"433 33","city":"PARTILLE"}
{"name":"Pizza House","street":"Alingsåsvägen","postalCode":["443","35"],"city":"Lerum"}
{"name":"Godisbana","url":"http://www.godisbana.se","street":"Ledetvägen 40","postalCode":["449","51"],"city":"Alafors"}
