{"name":"Vikings Kök Bar & Pizzeria","url":"http://www.vikingkokobar.nu","street":"Axel dahlströms torg 2","postalCode":"414 80","city":"GÖTEBORG","legalName":"Vikings Kök Bar & Pizzeria Handelsbolag","organisationNumber":"9697397280"}
{"name":"Jungfruplatsens Pizza & Kebab","url":"http://www.jungfruplatsenspizzeria.se/","street":"Jungfruplatsen 2","postalCode":"431 48","city":"MÖLNDAL","legalName":"Jungfruplatsens Pizzeria AB","organisationNumber":"5569264186"}
{"name":"Kållered Pizzeria","url":"http://www.kalleredpizzeria.se","street":"Gamla Riksvägen 38","postalCode":"428 32","city":"KÅLLERED","legalName":"Metman Pizzeria Handelsbolag","organisationNumber":"9697225770"}
{"name":"Restaurang Frati","url":"http://www.restaurangfrati.se/","street":"Barnhusgatan 1","postalCode":"411 02","city":"GÖTEBORG","legalName":"FRATI DELIKATESSER KOMMANDITBOLAG","organisationNumber":"9696812016"}
{"name":"Hard Rock Cafe","url":"http://www.hardrock.se","street":"Kungsportsavenyen 10","postalCode":"411 36","city":"GÖTEBORG","legalName":"Got Rock AB","organisationNumber":"5562289974"}
{"name":"Torslanda Pizzeria","street":"Gamla flygplatsvägen 1, ","postalCode":"423 37","city":"TORSLANDA","legalName":"Tirvan pizzeria handelsbolag","organisationNumber":"9697729201"}
{"name":"Vita Huset Pizzeria & Salladsbar","url":"http://vitahusetpizzeria.se","street":"Katrinebergsgatan 6","postalCode":"431 61","city":"MÖLNDAL","legalName":"Vita huset pizzeria & salladsbar Handelsbolag","organisationNumber":"9697626498"}
{"name":"BOV - Bröd & Ved","street":"Gibraltargatan 20","postalCode":"411 32","city":"GÖTEBORG","legalName":"Naal Handelsbolag","organisationNumber":"9697518356"}
{"name":"Pasta Etc","url":"http://www.pasta-etc.se/forratter.aspx","street":"Mölndalsvägen 15","postalCode":"412 63","city":"GÖTEBORG","legalName":"Ekonomiska föreningen Consortes","organisationNumber":"7696216030"}
{"name":"Slottsskogens Pizzeria","url":"http://www.slottsskogenspizzeria.com","street":"Rosengatan 13","postalCode":"413 10","city":"GÖTEBORG","legalName":"Slottsskogens Pizza Göteborg Handelsbolag","organisationNumber":"9697633684"}
{"name":"Cyrano Vasa","url":"http://www.cyrano.se/meny/cyrano-vasa","street":"Viktoriagatan 26","postalCode":"411 25","city":"GÖTEBORG","legalName":"Aykania Handelsbolag","organisationNumber":"9697053156"}
{"name":"Pizzeria Pinan","url":"http://www.pinanpizzeria.se","street":"Göteborgsvägen 3","postalCode":"475 40","city":"HÖNÖ","legalName":"Bröderna Elias och Jakob Handelsbolag","organisationNumber":"9697260462"}
{"name":"Enzo Pizzeria","street":"Kaveldunsvägen 1","postalCode":"435 40","city":"MÖLNLYCKE","legalName":"Mölnlycke Pizzeria Kommanditbolag","organisationNumber":"9697356419"}
{"name":"Favenzia Pizzeria","url":"http://www.favenzia.com/Meny.html","street":"Lilla Skintebovägen 4","postalCode":"427 34","city":"BILLDAL","legalName":"Favenzia Pizzeria AB","organisationNumber":"5569531899"}
{"name":"Cyrano Kungsten","url":"http://www.cyrano.se/meny/cyrano-kungssten","street":"Långedragsvägen 23","postalCode":"426 71","city":"VÄSTRA FRÖLUNDA","legalName":"Ivonarys Handelsbolag","organisationNumber":"9697503358"}
{"name":"Hjällbo Pizza & Kebab AB","url":"http://hjallbopizzeria.se/expanded-menu/","street":"Bergsgårdsgärdet 80","postalCode":"424 32","city":"ANGERED","organisationNumber":"5569617318"}
{"name":"Cyrano Eriksberg","url":"http://www.cyrano.se/meny/cyrano-eriksberg","street":"Danagatan 1","postalCode":"418 76","city":"GÖTEBORG","legalName":"Arnesa Handelsbolag","organisationNumber":"9697579739"}
{"name":"Smycketorgets Pizza & Kebab","url":"https://www.facebook.com/Smycketorgets-Pizzeria-1154249577924059/?rf=126684864063030","street":"Smyckeg. 1, ","postalCode":"426 50","city":"VÄSTRA FRÖLUNDA","legalName":"MARILA AB","organisationNumber":"5590006176"}
{"name":"Cyrano Majorna","url":"http://www.cyrano.se/meny/cyrano-majorna","street":"Karl johansgatan 6","postalCode":"414 59","city":"GÖTEBORG","legalName":"Denpama AB","organisationNumber":"5590837919"}
{"name":"Restaurang Cyrano","url":"http://www.cyrano.se/meny/cyrano-sodravagen","street":"Södra vägen 69","postalCode":"412 54","city":"GÖTEBORG","legalName":"Pollmad AB","organisationNumber":"5569472698"}
{"name":"Selos Pizzeria","street":"Hindås Stationsv. 2, ","postalCode":"438 53","city":"HINDÅS","legalName":"Selos Pizzeria Handelsbolag","organisationNumber":"9697471622"}
{"name":"Restaurang Marsala","url":"http://www.marsala.kvartersmenyn.se","street":"Chapmans Torg 2, ","postalCode":"414 54","city":"GÖTEBORG","legalName":"Ristorante Marsala AB","organisationNumber":"5565690616"}
{"name":"Divan","url":"http://www.restaurangdivan.se","street":"Nordanvindsg. 2 B, ","postalCode":"417 17","city":"GÖTEBORG","legalName":"Cicek restaurang AB","organisationNumber":"5568238777"}
{"name":"Åby Pizzeria & Kebab","url":"http://www.abypizzeria.se","street":"Frölundag. 35, ","postalCode":"431 44","city":"MÖLNDAL","legalName":"Anns Pizzeria AB","organisationNumber":"5568945074"}
{"name":"Restaurang Stensjön AB","url":"http://www.restaurangstensjon.se","street":"Tallkottegatan 1","postalCode":"431 36","city":"MÖLNDAL","legalName":"Stensjön Restaurang AB","organisationNumber":"5569748618"}
{"name":"Abbes Gatukök/Sibylla/Crepes och Waffles","url":"http://www.sibylla.se/","street":"Järntorget 7","postalCode":"413 04","city":"GÖTEBORG","legalName":"Erciyes Pizza 2 AB","organisationNumber":"5566010988"}
{"name":"Majornas Krog","url":"http://www.kvartersmeny.com","street":"Karl Johansg. 72, ","postalCode":"414 55","city":"GÖTEBORG","legalName":"RESTAURANG IBOS HANDELSBOLAG","organisationNumber":"9696718619"}
{"name":"Mossens Pizzeria","url":"http://www.mossenspizzeria.se","street":"Gibraltarg. 37, ","postalCode":"412 79","city":"GÖTEBORG","legalName":"Ezdara Pizzeria Handelsbolag","organisationNumber":"9697325737"}
{"name":"Perlan Restaurang Bar och Pizza","url":"http://www.restaurangperla.se","street":"G. Riksv. 54, ","postalCode":"428 30","city":"KÅLLERED","legalName":"Royal White European I.N.C. AB","organisationNumber":"5566004676"}
{"name":"Edas pizzeria","url":"http://edaspizzeria.se","street":"Katrinerovägen 2A, ","postalCode":"417 49","city":"GÖTEBORG","legalName":"Alcom AB","organisationNumber":"5569370124"}
{"name":"Leila's Kök Och Bar AB","url":"http://www.leilasbar.com/","street":"Elementv. 1, ","postalCode":"437 36","city":"LINDOME","legalName":"Leila´s Kök och Bar AB","organisationNumber":"5566328133"}
{"name":"Vickies Restaurang och Bar","street":"Aschebergsg. 40, ","postalCode":"411 33","city":"GÖTEBORG","legalName":"VICKIS RESTAURANG HANDELSBOLAG","organisationNumber":"9696673798"}
{"name":"Ravekärr Pizza Dor AB","url":"http://www.pizzador.se","street":"Fågelbergsg. 2 A, ","postalCode":"431 33","city":"MÖLNDAL","legalName":"Rävekärr Pizza Dor AB","organisationNumber":"5568077647"}
{"name":"Dorado Pizza, Kebab och Sallader","url":"http://www.doradopizzeria.se","street":"Fridkullag. 20 A, ","postalCode":"412 62","city":"GÖTEBORG","legalName":"Alsamano Handelsbolag","organisationNumber":"9697398478"}
{"name":"Björkö Pizzeria","url":"http://www.bjorko-pizzeria.se/meny.php","street":"Skarviksvägen 10","postalCode":"475 37","city":"BOHUS-BJÖRKÖ","legalName":"Björkö Pizzeria Handelsbolag","organisationNumber":"9697419712"}
{"name":"Melli Pizzeria","url":"https://www.facebook.com/pages/Melli-Pizzeria/193160670706122","street":"Älvsborgsg. 29, ","postalCode":"414 72","city":"GÖTEBORG","legalName":"TUGBA PIZZERIA Handelsbolag","organisationNumber":"9697365246"}
{"name":"Cyrano Olskroken","url":"http://www.cyrano.se/meny/cyrano-olskroken","street":"Kobbarnas väg 10","postalCode":"416 47","city":"GÖTEBORG","legalName":"Blanje Handelsbolag","organisationNumber":"9697304039"}
{"name":"Druvan Pizzeria","street":"Almåsgången 1, ","postalCode":"437 30","city":"LINDOME","legalName":"Druvan Pizzeria Kommanditbolag","organisationNumber":"9697343292"}
{"name":"Just Florida Pizzeria","street":"Väderlekstorget 7, ","postalCode":"418 32","city":"GÖTEBORG","legalName":"Just Florida Pizzeria Handelsbolag","organisationNumber":"9697713668"}
{"name":"Restaurang Romas","url":"http://www.romas.se","street":"Landvetter Torg, ","postalCode":"438 21","city":"LANDVETTER","legalName":"Temiz pizzeria Kommanditbolag","organisationNumber":"9697386895"}
{"name":"Homan Pizzeria","street":"Torslanda torg, ","postalCode":"423 32","city":"TORSLANDA","legalName":"Homan Pizzeria Handelsbolag","organisationNumber":"9697655984"}
{"name":"Sannegårdens pizzeria","street":"Långängen 13, ","postalCode":"417 06","city":"GÖTEBORG","legalName":"MURAT och Shenol Handelsbolag","organisationNumber":"9697451723"}
{"name":"Grillhouse","street":"Basarg. 10, ","postalCode":"411 10","city":"GÖTEBORG","legalName":"Mixit Salladsbar Göteborg AB","organisationNumber":"5567998918"}
{"name":"Hisingens Pizzagrossist","street":"","postalCode":"411 04","city":"GÖTEBORG","legalName":"Hisingens Pizzagrossist Aktiebolag","organisationNumber":"5565624946"}
{"name":"Alissa Pizzeria","street":"Wieselgrensgatan 7, ","postalCode":"417 17","city":"GÖTEBORG","legalName":"Alissa AB","organisationNumber":"5569545782"}
{"name":"Restaurang Hemma Hos - Café Kök Bar","street":"Hökabergsvägen 1, ","postalCode":"438 34","city":"LANDVETTER","legalName":"Hemma hos ... i Landvetter Kommanditbolag","organisationNumber":"9697638139"}
{"name":"Restaurang Tio Pepe","url":"http://www.tio-pepe.se","street":"Klarbärsvägen 2A","postalCode":"426 55","city":"VÄSTRA FRÖLUNDA","legalName":"Restaurang L.S AB","organisationNumber":"5591275424"}
{"name":"Sokrates Taverna","url":"http://www.sokratestaverna.se","street":"Krokslätts Parkg. 71, ","postalCode":"431 68","city":"MÖLNDAL","legalName":"Sokrates AB","organisationNumber":"5567068118"}
{"name":"Pizzeria Juventus","street":"Vaniljg. 1, ","postalCode":"424 45","city":"ANGERED","legalName":"Henry Pizza Handelsbolag","organisationNumber":"9697546118"}
{"name":"Eklanda Krog och Pizzeria","url":"http://eklandakrog.se","street":"Eklanda Gård 2, ","postalCode":"431 59","city":"MÖLNDAL","legalName":"Eklanda Restaurang AB","organisationNumber":"5568008196"}
{"name":"Sejdeln Pub","url":"http://www.sejdelnpub.webs.com","street":"Andra långgatan 28","postalCode":"413 27","city":"GÖTEBORG","legalName":"Sejdeln Pub Handelsbolag","organisationNumber":"9697029271"}
{"name":"Pizzeria Del Piero","url":"https://www.facebook.com/pages/Pizzeria-Del-Piero/163687853675415","street":"Jaegerdorffsplatsen 1 D, ","postalCode":"414 51","city":"GÖTEBORG","legalName":"Restaurang E.A.S. AB","organisationNumber":"5566781547"}
{"name":"Pizzeria Panther Ljungsbro","street":"Långavallsg. 4 A, ","postalCode":"424 57","city":"GUNNILSE","legalName":"BörjesHusbil & Bilcenter AB","organisationNumber":"5569619124"}
{"name":"Lollos Restaurang Och Pizzeria","url":"http://www.lollos.se","street":"Brunnsbotorget 8, ","postalCode":"422 42","city":"HISINGS BACKA","legalName":"Brunnsbo GrillHouse AB","organisationNumber":"5569690059"}
{"name":"Vitaby Gatukök och pizzeria","street":"Hälleflundreg. 12, ","postalCode":"426 58","city":"VÄSTRA FRÖLUNDA","legalName":"Smart Energy Sweden Vitaby AB","organisationNumber":"5563557213"}
{"name":"Backa Pizza Plus","street":"Prologg. 14, ","postalCode":"422 41","city":"HISINGS BACKA","legalName":"Backa Pizza Plus Handelsbolag","organisationNumber":"9697636406"}
{"name":"Marcos Restaurang & Pizzeria","url":"http://marcosrestaurang.com","street":"L. Björn 6 A, ","postalCode":"415 16","city":"GÖTEBORG","legalName":"Jamins RestaInvest i Gbg AB","organisationNumber":"5566679386"}
{"name":"Foxes Sportsbar & Restaurant","url":"http://www.foxes.se","street":"Gibraltarg. 8, ","postalCode":"411 32","city":"GÖTEBORG","legalName":"Mycke i Göteborg AB","organisationNumber":"5565628103"}
{"name":"Grimmereds Pizzeria","street":"Grimmeredsvägen 99, ","postalCode":"426 69","city":"VÄSTRA FRÖLUNDA","legalName":"Grimmereds Livs Kommanditbolag","organisationNumber":"9697520774"}
{"name":"Smörslotts Pizzeria","url":"http://xn--smrslottspizzeria-0zb.se/","street":"Smörslottsg. 64, ","postalCode":"416 78","city":"GÖTEBORG","legalName":"Pizzeria Deli Pezhman Bahadoran Handelsbolag","organisationNumber":"9697712801"}
{"name":"Viva La Focaccia AB","street":"Magasinsg. 3, ","postalCode":"411 18","city":"GÖTEBORG","organisationNumber":"5568018369"}
{"name":"Raffes Bar & Restaurang","url":"http://www.raffes.com","street":"Tövädersg. 7, ","postalCode":"418 31","city":"GÖTEBORG","legalName":"YAPI-CAN AB","organisationNumber":"5567675946"}
{"name":"Lasse Majas Krog","url":"http://www.lassemajaskrog.se","street":"Skårsg. 8, ","postalCode":"412 69","city":"GÖTEBORG","legalName":"Musselbunken AB","organisationNumber":"5566092887"}
{"name":"Pizzeria Voanew KB","street":"L. Regementsv. 16, ","postalCode":"415 27","city":"GÖTEBORG","legalName":"Pizzeria VOANEW Handelsbolag","organisationNumber":"9697015254"}
{"name":"Lilla Rancho Restaurang och Pizzeria","street":"Kaggeledstorget 1, ","postalCode":"416 74","city":"GÖTEBORG","legalName":"Handelsbolaget Claudios Tex-Mex","organisationNumber":"9697043413"}
{"name":"Restaurang Tigris Kolgrill","url":"http://www.tigriskolgrill.se","street":"Lergöksg. 4, ","postalCode":"421 50","city":"VÄSTRA FRÖLUNDA","legalName":"Elsar AB","organisationNumber":"5567382386"}
{"name":"Henkes Bar och Kök","url":"http://www.creato.se/","street":"Hängpilsg. 6, ","postalCode":"426 77","city":"VÄSTRA FRÖLUNDA","legalName":"Badklippan Invest AB","organisationNumber":"5569372799"}
{"name":"Kungspizza","url":"http://www.kungspizza.com","street":"Långedragsv. 102, ","postalCode":"426 74","city":"VÄSTRA FRÖLUNDA","legalName":"H & Z Pizzeria AB","organisationNumber":"5590791371"}
{"name":"Helin Restaurang & Pizzeria HB","street":"Göteborgsv. 23, ","postalCode":"431 30","city":"MÖLNDAL","legalName":"Helin Restaurang & Pizzeria Handelsbolag","organisationNumber":"9697640911"}
{"name":"Mitt Kök Restaurang & Pizzeria","url":"http://www.mittkok.nu","street":"Kortedala Torg 9, ","postalCode":"415 10","city":"GÖTEBORG","legalName":"Jemils Kök & Restaurang Kommanditbolag","organisationNumber":"9697243898"}
{"name":"Rg Göteborg HB","url":"http://www.pizzabutikgambero.se/","street":"Övre Husarg. 5, ","postalCode":"411 22","city":"GÖTEBORG","legalName":"RG Göteborg Handelsbolag","organisationNumber":"9697139476"}
{"name":"Pizzeria La Strada","url":"http://www.pizzerialastrada.se","street":"Almv. 1, ","postalCode":"437 40","city":"LINDOME","legalName":"Pizzeria La Strada Handelsbolag","organisationNumber":"9697006733"}
{"name":"Selmas Café, Restaurang & Pizzeria","street":"","postalCode":"422 48","city":"HISINGS BACKA","legalName":"SELMA PIZZERIA HB","organisationNumber":"9168408244"}
{"name":"Pizzeria Lásultana","url":"http://lasultana.se/","street":"Eklandag. 8, ","postalCode":"412 55","city":"GÖTEBORG","legalName":"Restaurang La Sultana Handelsbolag","organisationNumber":"9696477893"}
{"name":"Dr. Fries Pizzeria","street":"Doktor fries torg, ","postalCode":"413 23","city":"GÖTEBORG","legalName":"Dogan Pizzeria Handelsbolag","organisationNumber":"9697676998"}
{"name":"Porten's Pizza","url":"http://www.portenspizza.se","street":"Göteborgsv. 1, ","postalCode":"431 30","city":"MÖLNDAL","legalName":"Mehdi&Hadi Handelsbolag","organisationNumber":"9696937045"}
{"name":"Restaurang Afamia","street":"Reutersg. 2, ","postalCode":"413 20","city":"GÖTEBORG","legalName":"AFAMIA Handelsbolag","organisationNumber":"9697047562"}
{"name":"Pizzeria Barolo","street":"St. Badhusg. 30, ","postalCode":"411 21","city":"GÖTEBORG","legalName":"Badhusgatan Resturang Kommanditbolag","organisationNumber":"9697060441"}
{"name":"Furulunds Kvartersrestaurang Pizzeria Salladsbar","street":"Furulund Centrum, ","postalCode":"433 47","city":"PARTILLE","legalName":"Furulund Restaurang & Pizzeria Handelsbolag","organisationNumber":"9697506773"}
{"name":"Haga Pizzeria","url":"http://www.hagapizzeria.com","street":"S. Allég. 2 B, ","postalCode":"413 01","city":"GÖTEBORG","legalName":"Haga Pizzeria Handelsbolag","organisationNumber":"9697667419"}
{"name":"Hönö Pizzeria","url":"http://www.honopizzeria.se","street":"Öckeröv. 3, ","postalCode":"475 42","city":"HÖNÖ","legalName":"KEF Pizzeria Handelsbolag","organisationNumber":"9697735034"}
{"name":"Pizzeria Pomodoro","url":"http://www.pomodoro.se/","street":"Bjurslätts Torg 1, ","postalCode":"417 26","city":"GÖTEBORG","legalName":"Arif Pizzeria Kommanditbolag","organisationNumber":"9697067628"}
{"name":"La Terrazza","url":"http://www.laterrazza.se","street":"Sten Stureg. 19, ","postalCode":"412 52","city":"GÖTEBORG","legalName":"La Terrazza Aktiebolag","organisationNumber":"5564585312"}
{"name":"Erciyes Pizza II AB Linnés Kök & Bar","street":"Linnégatan 38A, ","postalCode":"413 04","city":"GÖTEBORG","legalName":"Bistro Bellman AB","organisationNumber":"5568421316"}
{"name":"Old Corner Pub & Restaurang","url":"http://www.oldcorner.net/","street":"Fjärde Långg. 1, ","postalCode":"413 05","city":"GÖTEBORG","legalName":"Barcelona Vegan AB","organisationNumber":"5569517468"}
{"name":"La Gondola, Ristorante Pizzeria","url":"http://gondola.se","street":"Kungsportsavenyen 4, ","postalCode":"411 36","city":"GÖTEBORG","legalName":"Gondoliere AB","organisationNumber":"5562047182"}
{"name":"Villa Aslan AB","url":"http://www.cafevillan.com/","street":"Rubing. 32, ","postalCode":"421 53","city":"VÄSTRA FRÖLUNDA","organisationNumber":"5566265400"}
{"name":"Pizzeria Milano","street":"Brattåskärrsv. 55 A, ","postalCode":"433 64","city":"SÄVEDALEN","legalName":"ORIENTEN KOMMANDITBOLAG","organisationNumber":"9168443282"}
{"name":"Pizza Hut","url":"http://www.pizzahut.se","street":"Kungsg. 25, ","postalCode":"411 19","city":"GÖTEBORG","legalName":"NRG Pizza AB","organisationNumber":"5564659893"}
{"name":"Jamin Pizzeria","street":"Drakegatan 8, ","postalCode":"412 50","city":"GÖTEBORG","legalName":"L.Y.P. Era AB","organisationNumber":"5566891692"}
{"name":"Pizza Etc","url":"http://www.pizzaetc.se/","street":"Vassg. 3, ","postalCode":"415 02","city":"GÖTEBORG","legalName":"Yakobs Handel AB","organisationNumber":"5568511462"}
{"name":"Cesar Pizzeria","url":"http://www.cesarpizzeria.se","street":"Bergsätersg. 1, ","postalCode":"421 66","city":"VÄSTRA FRÖLUNDA","legalName":"Matay´s Pizzeria Handelsbolag","organisationNumber":"9697268994"}
{"name":"Lillebygrillen","url":"http://www.lillebygrillen.se","street":"Kråketegen 29, ","postalCode":"423 51","city":"TORSLANDA","legalName":"Lilleby Fastighets AB","organisationNumber":"5567113757"}
{"name":"La Beban Vedugnsköket","url":"http://www.labeban.com","street":"Bögatan 47, ","postalCode":"412 72","city":"GÖTEBORG","legalName":"BMC Group AB","organisationNumber":"5569449886"}
{"name":"Pizzeria Al Forno","street":"Oluff Nilssons v. 3, ","postalCode":"433 36","city":"PARTILLE","legalName":"bes tälla handelsbolag","organisationNumber":"9696418582"}
{"name":"Galileis Pizzeria","url":"https://www.facebook.com/galileispizzeria/","street":"Gärdsås Torg 5, ","postalCode":"415 17","city":"GÖTEBORG","legalName":"TAS PIZZERIA HANDELSBOLAG","organisationNumber":"9168357144"}
{"name":"Singhsol HB","url":"http://www.pizzeria-vivaldi.net","street":"G. Säröv. 88, ","postalCode":"436 40","city":"ASKIM","legalName":"Singhsol Kommanditbolag","organisationNumber":"9697472224"}
{"name":"Slice Pizzeria","url":"http://slicepizzeria.se","street":"Artillerig. 12, ","postalCode":"415 03","city":"GÖTEBORG","legalName":"Norder Slice AB","organisationNumber":"5569447468"}
{"name":"Importgruvan AB","street":"Härryda Centrum 1, ","postalCode":"438 92","city":"HÄRRYDA","organisationNumber":"5566790266"}
{"name":"Pizzeria Kibar","street":"Bärnstensg. 69, ","postalCode":"426 52","city":"VÄSTRA FRÖLUNDA","legalName":"Pizzeria Kibar Kommanditbolag","organisationNumber":"9696616326"}
{"name":"Pizzahuset","street":"Kattedammen 1, ","postalCode":"423 59","city":"TORSLANDA","legalName":"Pizza Huset Björlanda Handelsbolag","organisationNumber":"9696677591"}
{"name":"Old Corner Pub & Restaurang","url":"http://www.oldcorner.se","street":"","postalCode":"402 59","city":"GÖTEBORG","legalName":"Old Corner Handelsbolag","organisationNumber":"9697074129"}
{"name":"Sannegården Pizzeria","street":"Skanstorget 2, ","postalCode":"411 22","city":"GÖTEBORG","legalName":"Robin Mila PIZZERIA Handelsbolag","organisationNumber":"9697785393"}
{"name":"Dantes Pizzeria","url":"http://www.dantespizzeria.se","street":"Värmlandsg. 20, ","postalCode":"413 28","city":"GÖTEBORG","legalName":"Pizzeria Montana Handelsbolag","organisationNumber":"9697745793"}
{"name":"Portofino Mat & Dryck","url":"http://www.portofino.se","street":"Lodjursv. 4, ","postalCode":"433 50","city":"ÖJERSJÖ","legalName":"CAMS AB","organisationNumber":"5565202768"}
{"name":"Restaurang Ånäsgrillen","street":"Storkg. 11, ","postalCode":"416 69","city":"GÖTEBORG","legalName":"Restaurang Ånäsgrillen AB","organisationNumber":"5565971388"}
{"name":"Pizzabageriet","street":"Prinsg. 4, ","postalCode":"413 05","city":"GÖTEBORG","legalName":"Pizzabageriet Prinsgatan Handelsbolag","organisationNumber":"9697739564"}
{"name":"I Love pizza - Allum","street":"Kyrktorget 19, ","postalCode":"433 33","city":"PARTILLE","legalName":"I Love Pizza Allum AB","organisationNumber":"5590019807"}
{"name":"Nikolinas Bar, (Ryans Grillbar)","street":"Wieselgrensplatsen 9, ","postalCode":"417 17","city":"GÖTEBORG","legalName":"Nikolinas Grill o bar Handelsbolag","organisationNumber":"9697515667"}
{"name":"I Love Pizza - Utby","street":"Österlyckan 1, ","postalCode":"415 07","city":"GÖTEBORG","legalName":"Utbys Pizzeria AB","organisationNumber":"5568241680"}
{"name":"Old Persian","url":"http://www.oldpersian.se/","street":"Torgg. 4, ","postalCode":"411 05","city":"GÖTEBORG","legalName":"OLD PERSIEN AB","organisationNumber":"5569927238"}
{"name":"Pizzeria Victoria","url":"http://www.pizzeria-viktoria.se","street":"Stationsv. 1, ","postalCode":"435 37","city":"MÖLNLYCKE","legalName":"NIELA PIZZERIA HANDELSBOLAG","organisationNumber":"9696650242"}
{"name":"I Love Pizza - Frigga","street":"Friggag. 14 D, ","postalCode":"411 01","city":"GÖTEBORG","legalName":"I love Pizza i Göteborg AB","organisationNumber":"5567927628"}
{"name":"Sancero Pizzeria","url":"http://www.sanceropizzeria.se/","street":"Flygfältsg. 33, ","postalCode":"423 37","city":"TORSLANDA","legalName":"Handelsbolag Sancero pizzeria i Torslanda","organisationNumber":"9697344696"}
{"name":"Restaurang Mektagonen","url":"http://restaurangmektagonen.se","street":"Falkenbergsg. 3, ","postalCode":"412 85","city":"GÖTEBORG","legalName":"Walter & Wictors Förvaltning AB","organisationNumber":"5565846598"}
{"name":"Cyrano Majorna","url":"http://www.cyrano.se/restaurang/cyrano-majorna","street":"Karl Johansg. 61, ","postalCode":"414 55","city":"GÖTEBORG","legalName":"Madrok Göteborg AB","organisationNumber":"5568466725"}
{"name":"Pizzeria Villagio","url":"http://www.pizzeriavillagio.se","street":"Gibraltarg. 36, ","postalCode":"412 58","city":"GÖTEBORG","legalName":"Pizzeria Ramon Handelsbolag","organisationNumber":"9697401355"}
{"name":"Gibraltar Pizzeria KB","url":"http://pizzeriagibraltar.com/","street":"Gibraltarg. 36, ","postalCode":"412 58","city":"GÖTEBORG","legalName":"Gibraltar Pizzeria Kommanditbolag","organisationNumber":"9697793371"}
{"name":"Ellis Pizzeria KB","street":"Göteborgsv. 45, ","postalCode":"433 60","city":"SÄVEDALEN","legalName":"Ellis Pizzeria Kommanditbolag","organisationNumber":"9696676080"}
{"name":"Happy City AB","street":"Angeredsvinkeln 5, ","postalCode":"424 67","city":"ANGERED","organisationNumber":"5590560362"}
{"name":"Götas Pizzabutik AB","street":"Älvsborgsg. 39, ","postalCode":"414 72","city":"GÖTEBORG","organisationNumber":"5569537292"}
{"name":"Piccolo Gondoliere AB","url":"http://www.elcorazon.se","street":"St. Saluhallen, ","postalCode":"411 17","city":"GÖTEBORG","organisationNumber":"5565966727"}
{"name":"Vapiano","url":"https://www.facebook.com/vapiano.kungsport","street":"Ö. Hamng. 35, ","postalCode":"411 10","city":"GÖTEBORG","legalName":"GLR Östra Hamngatan Aktiebolag","organisationNumber":"5569601049"}
{"name":"Kios Pizzeria AB","street":"Byv. 6, ","postalCode":"438 36","city":"LANDVETTER","organisationNumber":"5590917398"}
{"name":"Chopstix","url":"http://www.chopstixsushibar.se/","street":"Olivedalsg. 23, ","postalCode":"413 10","city":"GÖTEBORG","legalName":"CHOPSFIX CATERING HANDELSBOLAG","organisationNumber":"9696872853"}
{"name":"Vivaldi Restaurang & Bar","url":"http://www.restaurangvivaldi.com","street":"Berzeliigatan 19, ","postalCode":"412 53","city":"GÖTEBORG","legalName":"PIZZERIA VIVALDI HANDELSBOLAG","organisationNumber":"9168523646"}
{"name":"Papa Joe's Pizza & Pasta","street":"Sten Stureg. 28, ","postalCode":"411 39","city":"GÖTEBORG","legalName":"Papa Joe´s Pizza & Pasta i Göteborg Aktiebolag","organisationNumber":"5567488480"}
{"name":"Pizzeria Restaurang Lepanto AB","street":"Marklandsgatan 1, ","postalCode":"414 77","city":"GÖTEBORG","organisationNumber":"5591691943"}
{"name":"Restaurang Da Salvatore","url":"https://sv-se.facebook.com/Restaurante-Da-Salvatore-171839716171630/","street":"Korgbollsv. 1, ","postalCode":"424 33","city":"ANGERED","legalName":"SSI Restaurang AB","organisationNumber":"5565150967"}
{"name":"Pizza Hemkört","street":"Doktor Bex g. 4, ","postalCode":"413 24","city":"GÖTEBORG","legalName":"Gunsav Handelsbolag","organisationNumber":"9697585009"}
{"name":"Capricciosa Pizzeria HB","street":"Lars Kaggsg. 45 B, ","postalCode":"415 04","city":"GÖTEBORG","legalName":"Capricciosa Pizzeria Handelsbolag","organisationNumber":"9697762145"}
{"name":"La Vera Pizzeria","street":"Centralv. 13, ","postalCode":"435 30","city":"MÖLNLYCKE","legalName":"Aso 3 AB","organisationNumber":"5590101100"}
{"name":"Zagros Pizzeria & Gatukök","street":"Vaniljg. 1, ","postalCode":"424 45","city":"ANGERED","legalName":"Juventus pizzeria och Gatukök Handelsbolag","organisationNumber":"9696882829"}
{"name":"Kullaviks Restaurang och Pizzeria","street":"Molnvädersg. 28, ","postalCode":"418 35","city":"GÖTEBORG","legalName":"Tonis och Söner Kommanditbolag","organisationNumber":"9697669076"}
{"name":"Old Persian","url":"http://www.oldpersian.se/","street":"Torggatan 4","postalCode":["411","05"],"city":"Göteborg","organisationNumber":"556992-7238"}
{"name":"Aladdin Mixed Food","street":"Hisingsgatan 19","postalCode":["417","03"],"city":"Göteborg","organisationNumber":"556928-4242"}
{"name":"Joe Farellis, Restaurang","url":"http://www.joefarelli.com","street":"Kungsportsavenyen 12","postalCode":["411","36"],"city":"Göteborg","organisationNumber":"556319-5493"}
{"name":"Ruffino Pizza & Kebab","street":"Allmänna Vägen 15A","postalCode":["414","60"],"city":"Göteborg","organisationNumber":"969695-3190"}
{"name":"Arzoo indian restaurang","url":"http://www.arzoo.se","street":"Lantmannagatan 4","postalCode":["417","15"],"city":"Göteborg","organisationNumber":"969783-6931"}
{"name":"I Love Pizza - Utby","url":"http://www.ilovepizza.se","street":"Österlyckan 1","postalCode":["415","07"],"city":"Göteborg","organisationNumber":"556824-1680"}
{"name":"Sibylla Abbes Gatukök","url":"http://www.abbes.nu","street":"Järntorget 7","postalCode":["413","04"],"city":"Göteborg","organisationNumber":"556601-0988"}
{"name":"Pizzeria Påvelund","street":"Traneredsvägen 39","postalCode":["426","77"],"city":"Västra Frölunda","organisationNumber":"556809-3719"}
{"name":"Öjersjö Pizzeria","street":"Ekeblads Väg 1","postalCode":["433","51"],"city":"Öjersjö","organisationNumber":"969723-3816"}
{"name":"Dr. Fries Pizzeria","street":"Doktor Fries Torg 3-5","postalCode":["413","23"],"city":"Göteborg","organisationNumber":"969767-6998"}
{"name":"Kalles Gatukök i Surte AB","organisationNumber":"556919-1728"}
{"name":"Armanj Pizzeria HB","street":"Deltavägen 6","postalCode":["417","05"],"city":"Göteborg","organisationNumber":"969771-8550"}
{"name":"Kungs pizzeria","url":"http://www.kungspizza.com","street":"Långedragsvägen 102","postalCode":["426","74"],"city":"Västra Frölunda","organisationNumber":"969700-4639"}
{"name":"Pizzeria Amore","street":"Nytorget 1","postalCode":["442","32"],"city":"Kungälv","organisationNumber":"556584-0872"}
{"name":"Pizza Hut","url":"http://www.pizzahut.se","street":"Postgatan 47","postalCode":["411","06"],"city":"Göteborg","organisationNumber":"556465-9893"}
{"name":"Campino Pizzeria","street":"Sandalavägen 2","postalCode":["443","43"],"city":"Gråbo","organisationNumber":"969702-1054"}
{"name":"Råda Pizzeria & Gatukök","street":"Metallvägen 1","postalCode":["435","33"],"city":"Mölnlycke","organisationNumber":"969661-6326"}
{"name":"I Love Pizza - Frigga","url":"http://www.ilovepizza.se","street":"Friggagatan 14D","postalCode":["411","01"],"city":"Göteborg","organisationNumber":"556792-7628"}
{"name":"Pizzeria Hawaii","street":"Stålhandskegatan 12","postalCode":["418","76"],"city":"Göteborg","organisationNumber":"969732-1470"}
{"name":"Romas Restaurang o Pizzeria","street":"Brattåsvägen 7","postalCode":["438","32"],"city":"Landvetter","organisationNumber":"969738-6895"}
{"name":"Porten - Billdals Kvarterskrog","url":"http://www.portenibilldal.se","street":"Kungsporten 1E","postalCode":["427","50"],"city":"Billdal","organisationNumber":"556972-7059"}
{"name":"Restaurang Cyrano","url":"http://www.cyrano.se","street":"Långedragsvägen 23","postalCode":["426","71"],"city":"Västra Frölunda","organisationNumber":"969653-2366"}
{"name":"I Love Pizza - Allum","url":"http://www.ilovepizza.se","street":"Kyrktorget 19","postalCode":["433","33"],"city":"Partille","organisationNumber":"559001-9807"}
{"name":"Ataf's Mat & Prat","url":"http://atafsmatoprat.se","street":"Långströmsgatan 26","postalCode":["418","70"],"city":"Göteborg","organisationNumber":"559131-7853"}
{"name":"Furulund Pizzeria","street":"Furulund Centrum","postalCode":["433","47"],"city":"Partille","organisationNumber":"969750-6773"}
{"name":"Restaurang & Pizzeria Da Mario","url":"http://www.damario.nu","street":"Frölunda Torg 1","postalCode":["421","42"],"city":"Västra Frölunda","organisationNumber":"969708-7600"}
{"name":"Maxi Grillen & Pizzeria","street":"Morängatan 7","postalCode":["416","71"],"city":"Göteborg","organisationNumber":"969747-1945"}
{"name":"Jungfruplatsens Pizzeria","url":"http://www.jungfruplatsenspizzeria.se","street":"Jungfruplatsen 2","postalCode":["431","48"],"city":"Mölndal","organisationNumber":"556926-4186"}
{"name":"Kef Pizzeria HB","street":"Öckerövägen 3","postalCode":["475","42"],"city":"Hönö","organisationNumber":"969773-5034"}
{"name":"Piccolo Pub","street":"Göteborgsvägen 80","postalCode":["433","63"],"city":"Sävedalen","organisationNumber":"556793-6413"}
{"name":"Pizzeria Bella Mia AB","street":"Ale Torg 10","postalCode":["449","31"],"city":"Nödinge","organisationNumber":"556872-4982"}
{"name":"Pizzeria Sanremo","url":"http://www.sanremo.se","street":"Nordhagsvägen 28","postalCode":["423","34"],"city":"Torslanda","organisationNumber":"556772-5808"}
{"name":"Restaurang Pizzeria Da Salvatore","street":"Korgbollsvägen 1A","postalCode":["424","33"],"city":"Angered","organisationNumber":"556515-0967"}
{"name":"Da Vinci","street":"Nordenskiöldsgatan 23","postalCode":["413","09"],"city":"Göteborg","organisationNumber":"969726-1965"}
{"name":"La Gondola Trattoria","url":"http://www.lagondola.se","street":"Kungsportsavenyen 4","postalCode":["411","36"],"city":"Göteborg","organisationNumber":"556204-7182"}
{"name":"Pizza For You","street":"Sankt Sigfridsgatan 146","postalCode":["412","67"],"city":"Göteborg","organisationNumber":"969764-9623"}
{"name":"Pizzeria Capri","url":"http://www.pizzacaprilerum.se","street":"Gamla Allén 19","postalCode":["443","31"],"city":"Lerum","organisationNumber":"969769-1526"}
{"name":"Pizzeria Peperoni","url":"http://pizzeriapeperoni.se","street":"Rosensköldsgatan 1","postalCode":["412","58"],"city":"Göteborg","organisationNumber":"969691-3533"}
{"name":"Pizzeria Pomodoro","street":"Bjurslätts Torg 3","postalCode":["417","26"],"city":"Göteborg","organisationNumber":"969706-7628"}
{"name":"Papa Joes Pizza & Pasta","street":"Sten Sturegatan 28","postalCode":["411","39"],"city":"Göteborg","organisationNumber":"556748-8480"}
{"name":"Pinans Pizzeria","url":"http://pinanpizzeria.se","street":"Göteborgsvägen 3","postalCode":["475","40"],"city":"Hönö","organisationNumber":"969726-0462"}
{"name":"Restaurang & Pizzeria Selmas Cafe","street":"Selma Lagerlöfs Torg","postalCode":["422","48"],"city":"Hisings Backa","organisationNumber":"916840-8244"}
{"name":"Trattoria da Pasquale","url":"http://www.trattoriadapasquale.se","street":"Sten Sturegatan 17","postalCode":["412","52"],"city":"Göteborg","organisationNumber":"556456-9415"}
{"name":"Björkö Pizzeria HB","street":"Skarviksvägen 10","postalCode":["475","37"],"city":"Bohus-Björkö","organisationNumber":"969741-9712"}
{"name":"Druvan Pizzeria KB","organisationNumber":"969734-3292","street":"Almåsgången 1","postalCode":["437","30"],"city":"Lindome"}
{"name":"Gambero Pizzabutik","url":"http://www.pizzeriagambero.se","street":"Övre Husargatan 5","postalCode":["411","22"],"city":"Göteborg","organisationNumber":"969713-9476"}
{"name":"Pizzeria al Forno","street":"Oluff Nilssons Väg 3","postalCode":["433","36"],"city":"Partille","organisationNumber":"969641-8582"}
{"name":"Portens Pizza","url":"http://www.portenspizza.se","street":"Göteborgsvägen 1","postalCode":["431","30"],"city":"Mölndal","organisationNumber":"969693-7045"}
{"name":"Sonjas Restaurang och Pizzeria","street":"Kyrktorget 2","postalCode":["433","33"],"city":"Partille","organisationNumber":"969654-3819"}
{"name":"Grand Pizza","street":"Fredåsgatan 22","postalCode":["431","67"],"city":"Mölndal","organisationNumber":"969764-0911"}
{"name":"Majornas Krog","url":"http://www.majornaskrog.kvartersmenyn.se","street":"Karl Johansgatan 72","postalCode":["414","55"],"city":"Göteborg","organisationNumber":"969671-8619"}
{"name":"Pizzahuset","street":"Kattedammen 1","postalCode":["423","59"],"city":"Torslanda","organisationNumber":"969667-7591"}
{"name":"I Love Pizza - Övre Husar","url":"http://www.ilovepizza.se","street":"Övre Husargatan 13","postalCode":["413","14"],"city":"Göteborg","organisationNumber":"559043-2240"}
{"name":"Kvarterskrog Florens","street":"Eketrägatan 22A","postalCode":["418","73"],"city":"Göteborg","organisationNumber":"969624-3295"}
{"name":"Nisses Pizzeria AB","street":"Kilsgatan 5","postalCode":["411","04"],"city":"Göteborg","organisationNumber":"556671-9257"}
{"name":"Nya Lindome Pizzeria HB","street":"Gamla Riksvägen 204","postalCode":["437","40"],"city":"Lindome","organisationNumber":"969783-0777"}
{"name":"Gizel Pizzeria AB","street":"Smedmästaregatan 1","postalCode":["442","34"],"city":"Kungälv","organisationNumber":"556917-5556"}
{"name":"Kaverös pizzeria","url":"http://www.laforteza.se","street":"Soprangatan 2","postalCode":["421","38"],"city":"Västra Frölunda","organisationNumber":"969757-2940"}
{"name":"Pizza House","street":"Byvägen 6","postalCode":["438","36"],"city":"Landvetter","organisationNumber":"559091-7398"}
{"name":"Pizzeria Del Piero","street":"Jaegerdorffsplatsen 1D","postalCode":["414","51"],"city":"Göteborg","organisationNumber":"556678-1547"}
{"name":"Restaurang Cyrano","url":"http://www.cyrano.se","street":"Karl Johansgatan 61","postalCode":["414","55"],"city":"Göteborg","organisationNumber":"556846-6725"}
{"name":"Restaurang Cyrano","url":"http://www.cyrano.se","street":"Prinsgatan 7","postalCode":["413","05"],"city":"Göteborg","organisationNumber":"556902-2808"}
{"name":"Vår Krog & Bar","url":"http://www.varkrog.com","street":"Vårväderstorget 5","postalCode":["418","31"],"city":"Göteborg","organisationNumber":"556763-1964"}
{"name":"la Sultana","street":"Eklandagatan 8","postalCode":["412","55"],"city":"Göteborg","organisationNumber":"969647-7893"}
{"name":"Slottsskogens Pizzeria","street":"Rosengatan 13","postalCode":["413","10"],"city":"Göteborg","organisationNumber":"969763-3684"}
{"name":"Frati Restaurang Bar Pizzeria","url":"http://www.restaurangfrati.se","street":"Barnhusgatan 1","postalCode":["411","02"],"city":"Göteborg","organisationNumber":"969681-2016"}
{"name":"Pilens Pizzeria","organisationNumber":"969773-7063"}
{"name":"Pizzeria Hemkört","street":"Doktor Bex Gata 4","postalCode":["413","24"],"city":"Göteborg","organisationNumber":"969758-5009"}
{"name":"Pizzeria Montana HB","street":"Värmlandsgatan 20","postalCode":["413","28"],"city":"Göteborg","organisationNumber":"969774-5793"}
{"name":"Vita Huset Pizzeria och Salladsbar","street":"Katrinebergsgatan 6","postalCode":["431","61"],"city":"Mölndal","organisationNumber":"969762-6498"}
{"name":"Wieselgrens Pizzeria","street":"Nordanvindsgatan 2","postalCode":["417","17"],"city":"Göteborg","organisationNumber":"969667-6080"}
{"name":"Haga Pizzeria HB","url":"http://www.hagapizzeria.com","organisationNumber":"969766-7419"}
{"name":"Melly Pizzeria","street":"Älvsborgsgatan 29","postalCode":["414","72"],"city":"Göteborg","organisationNumber":"969736-5246"}
{"name":"Opaltorgets Pizza Restaurang","street":"Opalgatan","postalCode":["421","62"],"city":"Västra Frölunda","organisationNumber":"556838-2583"}
{"name":"Pizzeria Ma HB","street":"Triogatan 5","postalCode":["442","49"],"city":"Kungälv","organisationNumber":"969758-1230"}
{"name":"Raziki AB","street":"Friggagatan 1","postalCode":["411","01"],"city":"Göteborg","organisationNumber":"559011-8179"}
{"name":"Ezdara Pizzeria AB","street":"Gibraltargatan 37","postalCode":["412","79"],"city":"Göteborg","organisationNumber":"559081-0981"}
{"name":"Götas Pizzabutik AB","street":"Kungsportsavenyen 32","postalCode":["411","36"],"city":"Göteborg","organisationNumber":"556953-7292"}
{"name":"Hisingens Pizzagrossist AB","organisationNumber":"556562-4946"}
{"name":"N Pizzeria AB","street":"Björkhöjdsgatan 23","postalCode":["426","51"],"city":"Västra Frölunda","organisationNumber":"559086-1422"}
{"name":"Pizzeria Class","street":"Kungsgatan 10A","postalCode":["411","19"],"city":"Göteborg","organisationNumber":"969747-9559"}
{"name":"Robin Pizza Plus HB","url":"http://www.backapizza.com","street":"Prologgatan 14","postalCode":["422","41"],"city":"Hisings Backa","organisationNumber":"969763-6406"}
{"name":"Landvetter Pizzeria","street":"Skansgränd 9","postalCode":["438","32"],"city":"Landvetter","organisationNumber":"969777-3571"}
{"name":"Lilla Rancho Saloon","street":"Kaggeledstorget 1","postalCode":["416","74"],"city":"Göteborg","organisationNumber":"969704-3413"}
{"name":"Pizzeria Villagio","url":"http://onlinepizza.se/Goteborg/Pizzeria-Villagio","street":"Harald Hjärnesgatan 15","postalCode":["417","20"],"city":"Göteborg","organisationNumber":"969740-1355"}
{"name":"Primavera Pizzeria","street":"Friskväderstorget 6","postalCode":["418","38"],"city":"Göteborg","organisationNumber":"969729-7928"}
{"name":"Selos HB","street":"Hindås Stationsväg 2","postalCode":["438","53"],"city":"Hindås","organisationNumber":"969747-1622"}
{"name":"Sera Pizzeria","url":"http://www.pizzeriasera.se","street":"Nansensgatan 1","postalCode":["417","19"],"city":"Göteborg","organisationNumber":"969684-7848"}
{"name":"Tommys pizza","url":"http://www.tommyspizzeria.se","organisationNumber":"556903-6006"}
{"name":"Pizzeria Pomodoro","street":"Welandergatan 58","postalCode":["416","56"],"city":"Göteborg","organisationNumber":"969702-3357"}
{"name":"Galileis Pizzeria","street":"Galileis Gata 40","postalCode":["415","17"],"city":"Göteborg","organisationNumber":"916835-7144"}
{"name":"Gibraltar Pizzeria KB","street":"Gibraltargatan 36","postalCode":["412","58"],"city":"Göteborg","organisationNumber":"969779-3371"}
{"name":"Höjdens Pizzeria & Gatukök","organisationNumber":"556634-9329"}
{"name":"Johannebar","url":"http://www.johannebar.se","street":"Eklandagatan 65","postalCode":["412","61"],"city":"Göteborg","organisationNumber":"556678-4780"}
{"name":"Juventus Pizzer Ia och Gatukök HB","street":"Vaniljgatan 1","postalCode":["424","45"],"city":"Angered","organisationNumber":"969688-2829"}
{"name":"Pizzeria Gambero AB","street":"Storgatan 11","postalCode":["411","24"],"city":"Göteborg","organisationNumber":"556300-5015"}
{"name":"Sancero Pizzeria i Torsland HB","street":"Flygfältsgatan 33","postalCode":["423","37"],"city":"Torslanda","organisationNumber":"969734-4696"}
{"name":"Tynnered Pizzeria HB","street":"Grevegårdsvägen","postalCode":["421","63"],"city":"Västra Frölunda","organisationNumber":"969781-6594"}
{"name":"Metman Pizzeria HB","street":"Gamla Riksvägen 38","postalCode":["428","32"],"city":"Kållered","organisationNumber":"969722-5770"}
{"name":"Ristorante Marsala","url":"http://marsala.kvartersmenyn.se","street":"Chapmans Torg 2","postalCode":["414","54"],"city":"Göteborg","organisationNumber":"556569-0616"}
{"name":"Rävekärr Pizzador","url":"http://www.pizzador.se","street":"Fågelbergsgatan 2","postalCode":["431","33"],"city":"Mölndal","organisationNumber":"556807-7647"}
