{"name":"Cyrano Eriksberg","legalLink":"/f/cyrano-eriksberg:17238701","url":"http://www.cyrano.se/meny/cyrano-eriksberg","street":"Danagatan 1","postalCode":"418 76","city":"GÖTEBORG"}
{"name":"Cyrano Majorna","legalLink":"/f/cyrano-majorna:141636767","url":"http://www.cyrano.se/meny/cyrano-majorna","street":"Karl johansgatan 6","postalCode":"414 59","city":"GÖTEBORG"}
{"name":"Cyrano Vasa","legalLink":"/f/cyrano-vasa:14415730","url":"http://www.cyrano.se/meny/cyrano-vasa","street":"Viktoriagatan 26","postalCode":"411 25","city":"GÖTEBORG"}
{"name":"Cyrano Olskroken","legalLink":"/f/cyrano-olskroken:14663467","url":"http://www.cyrano.se/meny/cyrano-olskroken","street":"Kobbarnas väg 10","postalCode":"416 47","city":"GÖTEBORG"}
{"name":"Cyrano Kungsten","legalLink":"/f/cyrano-kungsten:14312199","url":"http://www.cyrano.se/meny/cyrano-kungssten","street":"Långedragsvägen 23","postalCode":"426 71","city":"VÄSTRA FRÖLUNDA"}
{"name":"Abbes Gatukök/Sibylla/Crepes och Waffles","legalLink":"/f/abbes-gatuköksibyllacrepes-och-waffles:12112164","url":"http://www.sibylla.se/","street":"Järntorget 7","postalCode":"413 04","city":"GÖTEBORG"}
{"name":"Restaurang Cyrano","legalLink":"/f/restaurang-cyrano:103799303","url":"http://www.cyrano.se/meny/cyrano-sodravagen","street":"Södra vägen 69","postalCode":"412 54","city":"GÖTEBORG"}
{"name":"Enzo Pizzeria","legalLink":"/f/enzo-pizzeria:14437324","street":"Kaveldunsvägen 1","postalCode":"435 40","city":"MÖLNLYCKE"}
{"name":"Pizzeria Casablanca","legalLink":"/f/pizzeria-casablanca:3912780","url":"http://www.casablancapizza.se","street":"Lillhagsparken 17C","postalCode":"422 50","city":"HISINGS BACKA"}
{"name":"Björkö Pizzeria","legalLink":"/f/björkö-pizzeria:12834176","url":"http://www.bjorko-pizzeria.se/meny.php","street":"Skarviksvägen 10","postalCode":"475 37","city":"BOHUS-BJÖRKÖ"}
{"name":"BOV - Bröd & Ved","legalLink":"/f/bov-bröd-ved:32705164","street":"Gibraltargatan 20","postalCode":"411 32","city":"GÖTEBORG"}
{"name":"Jungfruplatsens Pizza & Kebab","legalLink":"/f/jungfruplatsens-pizza-kebab:70376895","url":"http://www.jungfruplatsenspizzeria.se/","street":"Jungfruplatsen 2","postalCode":"431 48","city":"MÖLNDAL"}
{"name":"Hjällbo Pizza & Kebab AB","legalLink":"/f/hjällbo-pizza-kebab-ab:104608313","url":"http://hjallbopizzeria.se/expanded-menu/","street":"Bergsgårdsgärdet 80","postalCode":"424 32","city":"ANGERED"}
{"name":"Vita Huset Pizzeria & Salladsbar","legalLink":"/f/vita-huset-pizzeria-salladsbar:70038002","url":"http://vitahusetpizzeria.se","street":"Katrinebergsgatan 6","postalCode":"431 61","city":"MÖLNDAL"}
{"name":"Pasta Etc","legalLink":"/f/pasta-etc:14902988","url":"http://www.pasta-etc.se/forratter.aspx","street":"Mölndalsvägen 15","postalCode":"412 63","city":"GÖTEBORG"}
{"name":"Favenzia Pizzeria","legalLink":"/f/favenzia-pizzeria:104914984","url":"http://www.favenzia.com/Meny.html","street":"Lilla Skintebovägen 4","postalCode":"427 34","city":"BILLDAL"}
{"name":"Le Baron Restaurang & Pizzeria","legalLink":"/f/le-baron-restaurang-pizzeria:14940172","url":"http://restauranglebaron.com/meny/","street":"Skånegatan 39","postalCode":"412 52","city":"GÖTEBORG"}
{"name":"Pizzeria Pinan","legalLink":"/f/pizzeria-pinan:13245274","url":"http://www.pinanpizzeria.se","street":"Göteborgsvägen 3","postalCode":"475 40","city":"HÖNÖ"}
{"name":"Restaurang Frati","legalLink":"/f/restaurang-frati:7839919","url":"http://www.restaurangfrati.se/","street":"Barnhusgatan 1","postalCode":"411 02","city":"GÖTEBORG"}
{"name":"Restaurang Stensjön AB","legalLink":"/f/restaurang-stensjön-ab:131598515","url":"http://www.restaurangstensjon.se","street":"Tallkottegatan 1","postalCode":"431 36","city":"MÖLNDAL"}
{"name":"Grimmereds Pizzeria","legalLink":"/f/grimmereds-pizzeria:31409874","url":"http://www.grimmeredskrog.se","street":"Grimmeredsvägen 99","postalCode":"426 69","city":"VÄSTRA FRÖLUNDA"}
{"name":"Slottsskogens Pizzeria","legalLink":"/f/slottsskogens-pizzeria:14924269","url":"http://www.slottsskogenspizzeria.com","street":"Rosengatan 13","postalCode":"413 10","city":"GÖTEBORG"}
{"name":"Vikings Kök Bar & Pizzeria","legalLink":"/f/vikings-kök-bar-pizzeria:14571602","url":"http://www.vikingkokobar.nu","street":"Axel dahlströms torg 2","postalCode":"414 80","city":"GÖTEBORG"}
{"name":"Pizzabageriet","legalLink":"/f/pizzabageriet:17792005","url":"http://www.pizzabagerietmunkeback.se/meny","street":"Munkebäcksgatan 14","postalCode":"416 53","city":"GÖTEBORG"}
{"name":"Kållered Pizzeria","legalLink":"/f/kållered-pizzeria:14487032","url":"http://www.kalleredpizzeria.se","street":"Gamla Riksvägen 38","postalCode":"428 32","city":"KÅLLERED"}
{"name":"Vikings Kök Bar & Pizzeria","legalLink":"/f/vikings-kök-bar-pizzeria:14571602","url":"http://www.vikingkokobar.nu","street":"Axel dahlströms torg 2","postalCode":"414 80","city":"GÖTEBORG"}
{"name":"Hard Rock Cafe","legalLink":"/f/hard-rock-cafe:14897670","url":"http://www.hardrock.se","street":"Kungsportsavenyen 10","postalCode":"411 36","city":"GÖTEBORG"}
{"name":"Torslanda Pizzeria","legalLink":"/f/torslanda-pizzeria:112917771","street":"Gamla flygplatsvägen 1, ","postalCode":"423 37","city":"TORSLANDA"}
{"name":"Åby Pizzeria & Kebab","legalLink":"/f/åby-pizzeria-kebab:32793537","url":"http://www.abypizzeria.se","street":"Frölundag. 35, ","postalCode":"431 44","city":"MÖLNDAL"}
{"name":"Restaurang Tio Pepe","legalLink":"/f/restaurang-tio-pepe:140439170","url":"http://www.tio-pepe.se","street":"Klarbärsvägen 2A","postalCode":"426 55","city":"VÄSTRA FRÖLUNDA"}
{"name":"Pizzeria Lepanto","legalLink":"/f/pizzeria-lepanto:13614856","url":"http://www.lepanto.se","street":"Marklandsg. 1, ","postalCode":"414 77","city":"GÖTEBORG"}
{"name":"Sejdeln Pub","legalLink":"/f/sejdeln-pub:7840734","url":"http://www.sejdelnpub.webs.com","street":"Andra långgatan 28","postalCode":"413 27","city":"GÖTEBORG"}
{"name":"Restaurang Leonardo","legalLink":"/f/restaurang-leonardo:49227540","url":"http://leonardogbg.se/","street":"Redbergsv. 9 A, ","postalCode":"416 65","city":"GÖTEBORG"}
{"name":"Viva La Focaccia AB","legalLink":"/f/viva-la-focaccia-ab:14524112","street":"Magasinsg. 3, ","postalCode":"411 18","city":"GÖTEBORG"}
{"name":"Selmas Café, Restaurang & Pizzeria","legalLink":"/f/selmas-café-restaurang-pizzeria:8003892","street":"","postalCode":"422 48","city":"HISINGS BACKA"}
{"name":"Contro Pizzeria","legalLink":"/f/contro-pizzeria:34069222","street":"Köpenhamnsgatan 5, ","postalCode":"418 77","city":"GÖTEBORG"}
{"name":"Restaurang Marsala","legalLink":"/f/restaurang-marsala:14975237","url":"http://www.marsala.kvartersmenyn.se","street":"Chapmans Torg 2, ","postalCode":"414 54","city":"GÖTEBORG"}
{"name":"Divan","legalLink":"/f/divan:15647619","url":"http://www.restaurangdivan.se","street":"Nordanvindsg. 2 B, ","postalCode":"417 17","city":"GÖTEBORG"}
{"name":"Leonardo Tapas och Lounge","legalLink":"/f/leonardo-tapas-och-lounge:16552764","url":"http://www.leonardogbg.se","street":"Redbergsv. 9, ","postalCode":"416 65","city":"GÖTEBORG"}
{"name":"Montazer Mehdi","legalLink":"/f/montazer-mehdi:15181954","url":"https://www.facebook.com/Ilonas-pizzeria-194591490874339/","street":"Hjuviks Bryggv. 18, ","postalCode":"423 40","city":"TORSLANDA"}
{"name":"Sannegårdens pizzeria","legalLink":"/f/sannegårdens-pizzeria:39400156","street":"Långängen 13, ","postalCode":"417 06","city":"GÖTEBORG"}
{"name":"Harrys Gatukök & Pizzabutik","legalLink":"/f/harrys-gatukök-pizzabutik:17200973","street":"G. Björlandav. 147, ","postalCode":"417 28","city":"GÖTEBORG"}
{"name":"Edas pizzeria","legalLink":"/f/edas-pizzeria:101813035","url":"http://edaspizzeria.se","street":"Katrinerovägen 2A, ","postalCode":"417 49","city":"GÖTEBORG"}
{"name":"Hamnens Pizzeria & Grillbar","legalLink":"/f/hamnens-pizzeria-grillbar:124927593","street":"Björnhuvudsv. 9, ","postalCode":"475 31","city":"ÖCKERÖ"}
{"name":"Januari Pizzeria","legalLink":"/f/januari-pizzeria:14619249","url":"https://www.facebook.com/pages/Komettorget-Pizzeria/157381460974724","street":"Komettorget 1, ","postalCode":"415 20","city":"GÖTEBORG"}
{"name":"Smycketorgets Pizza & Kebab","legalLink":"/f/smycketorgets-pizza-kebab:122239161","url":"https://www.facebook.com/Smycketorgets-Pizzeria-1154249577924059/?rf=126684864063030","street":"Smyckeg. 1, ","postalCode":"426 50","city":"VÄSTRA FRÖLUNDA"}
{"name":"Juventus Pizzeria 2","legalLink":"/f/juventus-pizzeria-2:124927975","url":"https://www.facebook.com/JuventusPizzeria2","street":"Saffransg. 27, ","postalCode":"424 42","city":"ANGERED"}
{"name":"La Venezia Pizzeria Restaurang","legalLink":"/f/la-venezia-pizzeria-restaurang:17381526","street":"Danska v. 87, ","postalCode":"416 59","city":"GÖTEBORG"}
{"name":"La cantina Pizza","legalLink":"/f/la-cantina-pizza:124928378","street":"Ejderg. 10 E, ","postalCode":"416 68","city":"GÖTEBORG"}
{"name":"Pizzeria Etna","legalLink":"/f/pizzeria-etna:14404895","street":"Nordostpassagen 47, ","postalCode":"413 11","city":"GÖTEBORG"}
{"name":"Dorado Pizza, Kebab och Sallader","legalLink":"/f/dorado-pizza-kebab-och-sallader:13840020","url":"http://www.doradopizzeria.se","street":"Fridkullag. 20 A, ","postalCode":"412 62","city":"GÖTEBORG"}
{"name":"Selos Pizzeria","legalLink":"/f/selos-pizzeria:14292498","street":"Hindås Stationsv. 2, ","postalCode":"438 53","city":"HINDÅS"}
{"name":"Pizzeria Class","legalLink":"/f/pizzeria-class:49968210","url":"http://www.pizzeriaclass.se","street":"Ångaren indias gata, ","postalCode":"417 60","city":"GÖTEBORG"}
{"name":"Sannegårdens Pizzeria","legalLink":"/f/sannegårdens-pizzeria:117568876","url":"http://www.sannegardenspizzeria.se","street":"Ö. Eriksbergsg. 24, ","postalCode":"417 63","city":"GÖTEBORG"}
{"name":"Leila's Kök Och Bar AB","legalLink":"/f/leilas-kök-och-bar-ab:5253857","url":"http://www.leilasbar.com/","street":"Elementv. 1, ","postalCode":"437 36","city":"LINDOME"}
{"name":"Pizza Roma Sanatoriegatan","legalLink":"/f/pizza-roma-sanatoriegatan:17537864","url":"http://www.romapizza.nu","street":"Sanatorieg. 15 B, ","postalCode":"416 53","city":"GÖTEBORG"}
{"name":"Primavera Pizzeria","legalLink":"/f/primavera-pizzeria:124927371","street":"Friskväderstorget 6, ","postalCode":"418 38","city":"GÖTEBORG"}
{"name":"Stars and stripes","legalLink":"/f/stars-and-stripes:124133873","url":"http://www.starsnstripes.se","street":"Klangfärgsg. 3, ","postalCode":"426 52","city":"VÄSTRA FRÖLUNDA"}
{"name":"Majornas Krog","legalLink":"/f/majornas-krog:14296518","url":"http://www.kvartersmeny.com","street":"Karl Johansg. 72, ","postalCode":"414 55","city":"GÖTEBORG"}
{"name":"Systrarna Olssons Våffelbageri","legalLink":"/f/systrarna-olssons-våffelbageri:124952243","url":"http://www.liseberg.se","street":"Örgrytev. 5, ","postalCode":"412 51","city":"GÖTEBORG"}
{"name":"Sb Taxi I Göteborg","legalLink":"/f/sb-taxi-i-göteborg:14587121","street":"Halvardsg. 2, ","postalCode":"417 28","city":"GÖTEBORG"}
{"name":"Montazer Mehdi","legalLink":"/f/montazer-mehdi:15181954","url":"https://www.facebook.com/Ilonas-pizzeria-194591490874339/","street":"Hjuviks Bryggv. 18, ","postalCode":"423 40","city":"TORSLANDA"}
{"name":"Ferrari Pizza och Grill","legalLink":"/f/ferrari-pizza-och-grill:14849038","street":"Kaveldunsv. 1, ","postalCode":"435 40","city":"MÖLNLYCKE"}
{"name":"Rohat Pizzeria HB","legalLink":"/f/rohat-pizzeria-hb:14625489","street":"Silvermyntsg. 1, ","postalCode":"414 79","city":"GÖTEBORG"}
{"name":"Restaurang och Pizzeria Safir","legalLink":"/f/restaurang-och-pizzeria-safir:7865060","street":"Jonseredsv. 21, ","postalCode":"433 75","city":"JONSERED"}
{"name":"Marmaris Pizza Kebab och Sallad","legalLink":"/f/marmaris-pizza-kebab-och-sallad:124952530","street":"Krokslätts Torg 4, ","postalCode":"431 37","city":"MÖLNDAL"}
{"name":"Melli Pizzeria","legalLink":"/f/melli-pizzeria:14351645","url":"https://www.facebook.com/pages/Melli-Pizzeria/193160670706122","street":"Älvsborgsg. 29, ","postalCode":"414 72","city":"GÖTEBORG"}
{"name":"Pizzabutiken Torpa","legalLink":"/f/pizzabutiken-torpa:124928418","street":"Nedre Furuskogsv. 2, ","postalCode":"433 35","city":"PARTILLE"}
{"name":"Just Florida Pizzeria","legalLink":"/f/just-florida-pizzeria:127860796","street":"Väderlekstorget 7, ","postalCode":"418 32","city":"GÖTEBORG"}
{"name":"Gamlastaden Matstuga i Göteborg","legalLink":"/f/gamlastaden-matstuga-i-göteborg:4379092","url":"http://www.matstugaigamlestaden.se/","street":"Nylöseg. 10, ","postalCode":"415 03","city":"GÖTEBORG"}
{"name":"Mossens Pizzeria","legalLink":"/f/mossens-pizzeria:14540147","url":"http://www.mossenspizzeria.se","street":"Gibraltarg. 37, ","postalCode":"412 79","city":"GÖTEBORG"}
{"name":"Perlan Restaurang Bar och Pizza","legalLink":"/f/perlan-restaurang-bar-och-pizza:14994920","url":"http://www.restaurangperla.se","street":"G. Riksv. 54, ","postalCode":"428 30","city":"KÅLLERED"}
{"name":"Ravekärr Pizza Dor AB","legalLink":"/f/ravekärr-pizza-dor-ab:14475732","url":"http://www.pizzador.se","street":"Fågelbergsg. 2 A, ","postalCode":"431 33","city":"MÖLNDAL"}
{"name":"Druvan Pizzeria","legalLink":"/f/druvan-pizzeria:7842238","street":"Almåsgången 1, ","postalCode":"437 30","city":"LINDOME"}
{"name":"Vickies Restaurang och Bar","legalLink":"/f/vickies-restaurang-och-bar:7839528","street":"Aschebergsg. 40, ","postalCode":"411 33","city":"GÖTEBORG"}
{"name":"Henkes Pizzeria","legalLink":"/f/henkes-pizzeria:14290198","street":"Haguddsv. 7, ","postalCode":"435 39","city":"MÖLNLYCKE"}
{"name":"Pizzeria Lásultana","legalLink":"/f/pizzeria-lásultana:7839027","url":"http://lasultana.se/","street":"Eklandag. 8, ","postalCode":"412 55","city":"GÖTEBORG"}
{"name":"Sörgårdens Bageri-Konditori-Pizzeria","legalLink":"/f/sörgårdens-bageri-konditori-pizzeria:124928427","street":"Södra v. 97, ","postalCode":"412 63","city":"GÖTEBORG"}
{"name":"Restaurang Tigris Kolgrill","legalLink":"/f/restaurang-tigris-kolgrill:3909578","url":"http://www.tigriskolgrill.se","street":"Lergöksg. 4, ","postalCode":"421 50","city":"VÄSTRA FRÖLUNDA"}
{"name":"Antonio Livs & Pizza","legalLink":"/f/antonio-livs-pizza:120822994","street":"Nedre Kvarnbergsgatan 16, ","postalCode":"411 05","city":"GÖTEBORG"}
{"name":"Pizzeria Tampico","legalLink":"/f/pizzeria-tampico:16348378","street":"Smörg. 2, ","postalCode":"412 76","city":"GÖTEBORG"}
{"name":"Da Mario Pizzabutik","legalLink":"/f/da-mario-pizzabutik:124928286","street":"Frölunda torg, ","postalCode":"421 44","city":"VÄSTRA FRÖLUNDA"}
{"name":"Olympia Taverna och Pizzeria","legalLink":"/f/olympia-taverna-och-pizzeria:124927916","street":"Långedragsv. 30, ","postalCode":"426 71","city":"VÄSTRA FRÖLUNDA"}
{"name":"Pizzeria Sanremo","legalLink":"/f/pizzeria-sanremo:14886279","url":"http://www.sanremo.se","street":"Nordhagsv. 28, ","postalCode":"423 34","city":"TORSLANDA"}
{"name":"La Gondola, Ristorante Pizzeria","legalLink":"/f/la-gondola-ristorante-pizzeria:4525658","url":"http://gondola.se","street":"Kungsportsavenyen 4, ","postalCode":"411 36","city":"GÖTEBORG"}
{"name":"Sannegårdens Pizzeria","legalLink":"/f/sannegårdens-pizzeria:124928416","url":"http://www.sannegardens.se","street":"Gibraltarg. 52, ","postalCode":"412 58","city":"GÖTEBORG"}
{"name":"Gamlastaden Matstuga i Göteborg","legalLink":"/f/gamlastaden-matstuga-i-göteborg:4379092","url":"http://www.matstugaigamlestaden.se/","street":"Nylöseg. 10, ","postalCode":"415 03","city":"GÖTEBORG"}
{"name":"Sokrates Taverna","legalLink":"/f/sokrates-taverna:7824557","url":"http://www.sokratestaverna.se","street":"Krokslätts Parkg. 71, ","postalCode":"431 68","city":"MÖLNDAL"}
{"name":"Marcos Restaurang & Pizzeria","legalLink":"/f/marcos-restaurang-pizzeria:14560092","url":"http://marcosrestaurang.com","street":"L. Björn 6 A, ","postalCode":"415 16","city":"GÖTEBORG"}
{"name":"Restaurang & Pizzeria Timjan","legalLink":"/f/restaurang-pizzeria-timjan:15859417","url":"http://www.restaurangtimjan.se","street":"Brunnegårdsv. 11, ","postalCode":"433 32","city":"PARTILLE"}
{"name":"Hamnens Pizzeria & Grillbar","legalLink":"/f/hamnens-pizzeria-grillbar:124927593","street":"Björnhuvudsv. 9, ","postalCode":"475 31","city":"ÖCKERÖ"}
{"name":"Pizzeria Panther Ljungsbro","legalLink":"/f/pizzeria-panther-ljungsbro:105329085","street":"Långavallsg. 4 A, ","postalCode":"424 57","city":"GUNNILSE"}
{"name":"Sb Taxi I Göteborg","legalLink":"/f/sb-taxi-i-göteborg:14587121","street":"Halvardsg. 2, ","postalCode":"417 28","city":"GÖTEBORG"}
{"name":"Grillhouse","legalLink":"/f/grillhouse:16039730","street":"Basarg. 10, ","postalCode":"411 10","city":"GÖTEBORG"}
{"name":"Rg Göteborg HB","legalLink":"/f/rg-göteborg-hb:3910898","url":"http://www.pizzabutikgambero.se/","street":"Övre Husarg. 5, ","postalCode":"411 22","city":"GÖTEBORG"}
{"name":"Grimmereds Pizzeria","legalLink":"/f/grimmereds-pizzeria:102576845","street":"Norra Breviksvägen 21, ","postalCode":"421 67","city":"VÄSTRA FRÖLUNDA"}
{"name":"Pizzeria Juventus","legalLink":"/f/pizzeria-juventus:16316441","street":"Vaniljg. 1, ","postalCode":"424 45","city":"ANGERED"}
{"name":"Restaurang & Pizzeria Iran","legalLink":"/f/restaurang-pizzeria-iran:14514765","url":"https://www.facebook.com/pages/Restaurang-och-Pizzeria-Iran/132998006759316","street":"Stigbergsliden 3, ","postalCode":"414 63","city":"GÖTEBORG"}
{"name":"Laneko Allservice","legalLink":"/f/laneko-allservice:16299835","street":"G. Riksv. 54, ","postalCode":"428 30","city":"KÅLLERED"}
{"name":"Cafe Pomerans Pizzeria & Restaurang","legalLink":"/f/cafe-pomerans-pizzeria-restaurang:124927426","url":"https://sv-se.facebook.com/CafePomerns","street":"Blåsvädersg. 12, ","postalCode":"418 32","city":"GÖTEBORG"}
{"name":"Leila's Kök Och Bar AB","legalLink":"/f/leilas-kök-och-bar-ab:5253857","url":"http://www.leilasbar.com/","street":"Elementv. 1, ","postalCode":"437 36","city":"LINDOME"}
{"name":"Pizzeria Del Piero","legalLink":"/f/pizzeria-del-piero:7822925","url":"https://www.facebook.com/pages/Pizzeria-Del-Piero/163687853675415","street":"Jaegerdorffsplatsen 1 D, ","postalCode":"414 51","city":"GÖTEBORG"}
{"name":"Pizzeria Voanew KB","legalLink":"/f/pizzeria-voanew-kb:13303107","street":"L. Regementsv. 16, ","postalCode":"415 27","city":"GÖTEBORG"}
{"name":"Venus","legalLink":"/f/venus:16540504","url":"http://venuspizzeria.se","street":"Sixten Camps g. 4, ","postalCode":"416 48","city":"GÖTEBORG"}
{"name":"Rucola Restaurang Bar & Pizzeria","legalLink":"/f/rucola-restaurang-bar-pizzeria:7869470","street":"Frejag. 9, ","postalCode":"431 44","city":"MÖLNDAL"}
{"name":"Januari Pizzeria","legalLink":"/f/januari-pizzeria:14619249","url":"https://www.facebook.com/pages/Komettorget-Pizzeria/157381460974724","street":"Komettorget 1, ","postalCode":"415 20","city":"GÖTEBORG"}
{"name":"Helin Restaurang & Pizzeria HB","legalLink":"/f/helin-restaurang-pizzeria-hb:123829232","street":"Göteborgsv. 23, ","postalCode":"431 30","city":"MÖLNDAL"}
{"name":"Marmaris Pizza Kebab och Sallad","legalLink":"/f/marmaris-pizza-kebab-och-sallad:124952535","street":"Krokslätts Torg 4, ","postalCode":"431 37","city":"MÖLNDAL"}
{"name":"Pizzeria Milano","legalLink":"/f/pizzeria-milano:106256904","street":"Brattåskärrsv. 55 A, ","postalCode":"433 64","city":"SÄVEDALEN"}
{"name":"Pizzabutiken Bruno Franco","legalLink":"/f/pizzabutiken-bruno-franco:31581155","street":"Olivedalsg. 12, ","postalCode":"413 10","city":"GÖTEBORG"}
{"name":"Lasse Majas Krog","legalLink":"/f/lasse-majas-krog:14842119","url":"http://www.lassemajaskrog.se","street":"Skårsg. 8, ","postalCode":"412 69","city":"GÖTEBORG"}
{"name":"Hermans Kök & Bar","legalLink":"/f/hermans-kök-bar:124928257","url":"http://www.hermanskokobar.se/","street":"Radiotorget 5, ","postalCode":"421 33","city":"VÄSTRA FRÖLUNDA"}
{"name":"Viva La Focaccia AB","legalLink":"/f/viva-la-focaccia-ab:14524112","street":"Magasinsg. 3, ","postalCode":"411 18","city":"GÖTEBORG"}
{"name":"Marmaris Pizza Kebab och Sallad","legalLink":"/f/marmaris-pizza-kebab-och-sallad:124952530","street":"Krokslätts Torg 4, ","postalCode":"431 37","city":"MÖLNDAL"}
{"name":"Pizzabutik Kärnan","legalLink":"/f/pizzabutik-kärnan:17534873","street":"Bällsrog. 24, ","postalCode":"422 44","city":"HISINGS BACKA"}
{"name":"Pizzeria Papillon","legalLink":"/f/pizzeria-papillon:124928306","street":"Doktor Forselius Backe 46, ","postalCode":"413 26","city":"GÖTEBORG"}
{"name":"Potenza Restaurang Pizzeria Bar","legalLink":"/f/potenza-restaurang-pizzeria-bar:15710015","street":"Rävlanda Stationsv. 8, ","postalCode":"438 51","city":"RÄVLANDA"}
{"name":"Backa Pizza Plus","legalLink":"/f/backa-pizza-plus:51236491","street":"Prologg. 14, ","postalCode":"422 41","city":"HISINGS BACKA"}
{"name":"Alissa Pizzeria","legalLink":"/f/alissa-pizzeria:103290160","street":"Wieselgrensgatan 7, ","postalCode":"417 17","city":"GÖTEBORG"}
{"name":"Pizzeria Pärla","legalLink":"/f/pizzeria-pärla:124928019","street":"Lisa Sass g. 18, ","postalCode":"422 53","city":"HISINGS BACKA"}
{"name":"Pizzeria Libiza","legalLink":"/f/pizzeria-libiza:124928385","street":"Artillerig. 12 B, ","postalCode":"415 03","city":"GÖTEBORG"}
{"name":"Bekal Pizzeria","legalLink":"/f/bekal-pizzeria:124928361","street":"Artillerig. 8 A, ","postalCode":"415 03","city":"GÖTEBORG"}
{"name":"Old Town","legalLink":"/f/old-town:17239285","url":"http://www.oldtown.se/","street":"Linnég. 38, ","postalCode":"413 04","city":"GÖTEBORG"}
{"name":"Sävedalens Pizzahouse","legalLink":"/f/sävedalens-pizzahouse:124952540","street":"Göteborgsvägen 91, ","postalCode":"433 63","city":"SÄVEDALEN"}
{"name":"Gambero Pizzabutik","legalLink":"/f/gambero-pizzabutik:14986163","url":"http://www.pizzabutikgambero.se","street":"Övre Husarg. 5, ","postalCode":"411 22","city":"GÖTEBORG"}
{"name":"Pizzeria Livia","legalLink":"/f/pizzeria-livia:124927709","url":"https://www.facebook.com/pages/Pizzeria-Livia/204386126241477","street":"Ostindiefararen 43, ","postalCode":"417 65","city":"GÖTEBORG"}
{"name":"Picasso Restaurang och Bar","legalLink":"/f/picasso-restaurang-och-bar:124928304","url":"http://restaurangguiden.segbg/centrum/picasso/","street":"Kristinelundsg. 13, ","postalCode":"411 37","city":"GÖTEBORG"}
{"name":"Pizzeria Victoria","legalLink":"/f/pizzeria-victoria:16543175","url":"http://www.pizzaviktoria.com","street":"S. Viktoriag. 46, ","postalCode":"411 30","city":"GÖTEBORG"}
{"name":"Pizzeria Sanremo","legalLink":"/f/pizzeria-sanremo:14886279","url":"http://www.sanremo.se","street":"Nordhagsv. 28, ","postalCode":"423 34","city":"TORSLANDA"}
{"name":"Leila's Kök Och Bar AB","legalLink":"/f/leilas-kök-och-bar-ab:5253857","url":"http://www.leilasbar.com/","street":"Elementv. 1, ","postalCode":"437 36","city":"LINDOME"}
{"name":"Smaskens Pizza Grill","legalLink":"/f/smaskens-pizza-grill:13735437","url":"https://www.facebook.com/pages/Smaskens-Pizza-Grill/163647510346866","street":"Stenungsundsg. 2, ","postalCode":"416 74","city":"GÖTEBORG"}
{"name":"Lollos Restaurang Och Pizzeria","legalLink":"/f/lollos-restaurang-och-pizzeria:108300179","url":"http://www.lollos.se","street":"Brunnsbotorget 8, ","postalCode":"422 42","city":"HISINGS BACKA"}
{"name":"Hönö Pizzeria","legalLink":"/f/hönö-pizzeria:114800491","url":"http://www.honopizzeria.se","street":"Öckeröv. 3, ","postalCode":"475 42","city":"HÖNÖ"}
{"name":"Alberts Pizzeria","legalLink":"/f/alberts-pizzeria:15661696","street":"Orustg. 2 A, ","postalCode":"414 74","city":"GÖTEBORG"}
{"name":"Pizzeria Favenzia i Skintebo","legalLink":"/f/pizzeria-favenzia-i-skintebo:124928072","url":"http://favenzia.com/","street":"L. Skintebov. 4, ","postalCode":"427 34","city":"BILLDAL"}
{"name":"Eklanda Krog och Pizzeria","legalLink":"/f/eklanda-krog-och-pizzeria:14660372","url":"http://eklandakrog.se","street":"Eklanda Gård 2, ","postalCode":"431 59","city":"MÖLNDAL"}
{"name":"Torslanda Pizzeria","legalLink":"/f/torslanda-pizzeria:112917771","street":"Gamla flygplatsvägen 1, ","postalCode":"423 37","city":"TORSLANDA"}
{"name":"S:t Pauli Pizzeria","legalLink":"/f/st-pauli-pizzeria:115215939","url":"http://www.stpaulipizzeria.se","street":"Karlag. 19 B, ","postalCode":"416 61","city":"GÖTEBORG"}
{"name":"Pizzeria Barolo","legalLink":"/f/pizzeria-barolo:4375606","street":"St. Badhusg. 30, ","postalCode":"411 21","city":"GÖTEBORG"}
{"name":"Pizzeria Lásultana","legalLink":"/f/pizzeria-lásultana:7839027","url":"http://lasultana.se/","street":"Eklandag. 8, ","postalCode":"412 55","city":"GÖTEBORG"}
{"name":"Antonio Livs & Pizza","legalLink":"/f/antonio-livs-pizza:120822994","street":"Nedre Kvarnbergsgatan 16, ","postalCode":"411 05","city":"GÖTEBORG"}
{"name":"Restaurang Afamia","legalLink":"/f/restaurang-afamia:3910808","street":"Reutersg. 2, ","postalCode":"413 20","city":"GÖTEBORG"}
{"name":"Pizzeria Sera","legalLink":"/f/pizzeria-sera:14974646","url":"http://www.pizzeriasera.se/","street":"Nansensg. 1, ","postalCode":"417 19","city":"GÖTEBORG"}
{"name":"Foxes Sportsbar & Restaurant","legalLink":"/f/foxes-sportsbar-restaurant:40468447","url":"http://www.foxes.se","street":"Gibraltarg. 8, ","postalCode":"411 32","city":"GÖTEBORG"}
{"name":"Porten's Pizza","legalLink":"/f/portens-pizza:13747836","url":"http://www.portenspizza.se","street":"Göteborgsv. 1, ","postalCode":"431 30","city":"MÖLNDAL"}
{"name":"Vitaby Gatukök och pizzeria","legalLink":"/f/vitaby-gatukök-och-pizzeria:14524600","street":"Hälleflundreg. 12, ","postalCode":"426 58","city":"VÄSTRA FRÖLUNDA"}
{"name":"Pizzeria Voanew KB","legalLink":"/f/pizzeria-voanew-kb:13303107","street":"L. Regementsv. 16, ","postalCode":"415 27","city":"GÖTEBORG"}
{"name":"Restaurang Sofra","legalLink":"/f/restaurang-sofra:14970128","url":"http://www.restaurangsofra.com","street":"Danska v. 79, ","postalCode":"416 59","city":"GÖTEBORG"}
{"name":"Pizzabutiken Torpa","legalLink":"/f/pizzabutiken-torpa:124928418","street":"Nedre Furuskogsv. 2, ","postalCode":"433 35","city":"PARTILLE"}
{"name":"E.C.A Pizzeria EF","legalLink":"/f/eca-pizzeria-ef:14462588","street":"Rimfrostg. 47, ","postalCode":"418 40","city":"GÖTEBORG"}
{"name":"Sancero Pizzeria","legalLink":"/f/sancero-pizzeria:14563782","url":"http://www.sanceropizzeria.se/","street":"Flygfältsg. 33, ","postalCode":"423 37","city":"TORSLANDA"}
{"name":"Pizza Hut","legalLink":"/f/pizza-hut:7808199","url":"http://www.pizzahut.se","street":"Postg. 47, ","postalCode":"411 06","city":"GÖTEBORG"}
{"name":"Henkes Bar och Kök","legalLink":"/f/henkes-bar-och-kök:101315338","url":"http://www.creato.se/","street":"Hängpilsg. 6, ","postalCode":"426 77","city":"VÄSTRA FRÖLUNDA"}
{"name":"Dr. Fries Pizzeria","legalLink":"/f/dr-fries-pizzeria:98905981","street":"Doktor fries torg, ","postalCode":"413 23","city":"GÖTEBORG"}
{"name":"Pizzeria Il Vagabondo","legalLink":"/f/pizzeria-il-vagabondo:124952442","street":"Förstamajg. 5, ","postalCode":"415 10","city":"GÖTEBORG"}
{"name":"Restaurang Marsala","legalLink":"/f/restaurang-marsala:14975237","url":"http://www.marsala.kvartersmenyn.se","street":"Chapmans Torg 2, ","postalCode":"414 54","city":"GÖTEBORG"}
{"name":"Restaurang Alanya´s","legalLink":"/f/restaurang-alanya´s:124928393","url":"http://www.alanyas.se","street":"Braheg. 6, ","postalCode":"415 01","city":"GÖTEBORG"}
{"name":"Café & Pizzeria i Sannegården","legalLink":"/f/café-pizzeria-i-sannegården:124952479","street":"Artillerig. 8 D, ","postalCode":"415 03","city":"GÖTEBORG"}
{"name":"Restaurang Afamia","legalLink":"/f/restaurang-afamia:3910808","street":"Reutersg. 2, ","postalCode":"413 20","city":"GÖTEBORG"}
{"name":"EL Figaro Pizzeria","legalLink":"/f/el-figaro-pizzeria:32452668","url":"http://www.onneredspizzeria.se","street":"Klåveskärsg. 2 A, ","postalCode":"421 59","city":"VÄSTRA FRÖLUNDA"}
{"name":"Gatsby Pizzeria","legalLink":"/f/gatsby-pizzeria:116731362","street":"Långlyckev. 12, ","postalCode":"436 43","city":"ASKIM"}
{"name":"Lilla Rancho Restaurang och Pizzeria","legalLink":"/f/lilla-rancho-restaurang-och-pizzeria:14324169","street":"Kaggeledstorget 1, ","postalCode":"416 74","city":"GÖTEBORG"}
{"name":"Pizzeria Capriccosiosa","legalLink":"/f/pizzeria-capriccosiosa:15964585","street":"Lars Kaggsg. 45 B, ","postalCode":"415 04","city":"GÖTEBORG"}
{"name":"Smörslotts Pizzeria","legalLink":"/f/smörslotts-pizzeria:109024252","url":"http://xn--smrslottspizzeria-0zb.se/","street":"Smörslottsg. 64, ","postalCode":"416 78","city":"GÖTEBORG"}
{"name":"Restaurang Hemma Hos - Café Kök Bar","legalLink":"/f/restaurang-hemma-hos-café-kök-bar:103555928","street":"Hökabergsvägen 1, ","postalCode":"438 34","city":"LANDVETTER"}
{"name":"Pizza Pronto","legalLink":"/f/pizza-pronto:124927664","street":"Lantmätareg. 12 D, ","postalCode":"417 06","city":"GÖTEBORG"}
{"name":"Old Corner Pub & Restaurang","legalLink":"/f/old-corner-pub-restaurang:110889572","url":"http://www.oldcorner.net/","street":"Fjärde Långg. 1, ","postalCode":"413 05","city":"GÖTEBORG"}
{"name":"Kungspizza","legalLink":"/f/kungspizza:5254780","url":"http://www.kungspizza.com","street":"Långedragsv. 102, ","postalCode":"426 74","city":"VÄSTRA FRÖLUNDA"}
{"name":"Pizzabutik Pärlan","legalLink":"/f/pizzabutik-pärlan:124927350","street":"Vintervädersg. 1, ","postalCode":"418 36","city":"GÖTEBORG"}
{"name":"Pizzeria Kibar","legalLink":"/f/pizzeria-kibar:124927958","street":"Bärnstensg., ","postalCode":"426 52","city":"VÄSTRA FRÖLUNDA"}
{"name":"Just Florida Pizzeria","legalLink":"/f/just-florida-pizzeria:127860796","street":"Väderlekstorget 7, ","postalCode":"418 32","city":"GÖTEBORG"}
{"name":"Pizzeria 13","legalLink":"/f/pizzeria-13:13751545","street":"Chalmersg. 13, ","postalCode":"411 35","city":"GÖTEBORG"}
{"name":"Januari Pizzeria","legalLink":"/f/januari-pizzeria:14619249","url":"https://www.facebook.com/pages/Komettorget-Pizzeria/157381460974724","street":"Komettorget 1, ","postalCode":"415 20","city":"GÖTEBORG"}
{"name":"Pizzeria Victoria","legalLink":"/f/pizzeria-victoria:16543175","url":"http://www.pizzaviktoria.com","street":"S. Viktoriag. 46, ","postalCode":"411 30","city":"GÖTEBORG"}
{"name":"Hjallbo Sinibads Kebab","legalLink":"/f/hjallbo-sinibads-kebab:14957075","street":"Bergsgårdsgärdet 80, ","postalCode":"424 32","city":"ANGERED"}
{"name":"Erciyes Pizza II AB Linnés Kök & Bar","legalLink":"/f/erciyes-pizza-ii-ab-linnés-kök-bar:16026071","street":"Linnégatan 38A, ","postalCode":"413 04","city":"GÖTEBORG"}
{"name":"Pizza Pronto","legalLink":"/f/pizza-pronto:124927664","street":"Lantmätareg. 12 D, ","postalCode":"417 06","city":"GÖTEBORG"}
{"name":"Hjallbo Sinibads Kebab","legalLink":"/f/hjallbo-sinibads-kebab:14957075","street":"Bergsgårdsgärdet 80, ","postalCode":"424 32","city":"ANGERED"}
{"name":"Eat and Drink","legalLink":"/f/eat-and-drink:124952251","url":"http://eatanddrink.se","street":"Södra v. 77, ","postalCode":"412 53","city":"GÖTEBORG"}
{"name":"La Venezia Pizza Restaurang","legalLink":"/f/la-venezia-pizza-restaurang:125067472","street":"Danska v. 97, ","postalCode":"416 59","city":"GÖTEBORG"}
{"name":"Pizzeria Sanremo","legalLink":"/f/pizzeria-sanremo:14886279","url":"http://www.sanremo.se","street":"Nordhagsv. 28, ","postalCode":"423 34","city":"TORSLANDA"}
{"name":"Nobel Pizzeria","legalLink":"/f/nobel-pizzeria:124952505","street":"Nobelg. 29, ","postalCode":"416 57","city":"GÖTEBORG"}
{"name":"Pizzabutik Pärlan","legalLink":"/f/pizzabutik-pärlan:124927350","street":"Vintervädersg. 1, ","postalCode":"418 36","city":"GÖTEBORG"}
{"name":"Old Town","legalLink":"/f/old-town:17239285","url":"http://www.oldtown.se/","street":"Linnég. 38, ","postalCode":"413 04","city":"GÖTEBORG"}
{"name":"Pizzeria Pomodoro","legalLink":"/f/pizzeria-pomodoro:12734264","url":"http://www.pomodoro.se/","street":"Bjurslätts Torg 1, ","postalCode":"417 26","city":"GÖTEBORG"}
{"name":"Alissa Pizzeria","legalLink":"/f/alissa-pizzeria:103290160","street":"Wieselgrensgatan 7, ","postalCode":"417 17","city":"GÖTEBORG"}
{"name":"Pizzeria, Dinos","legalLink":"/f/pizzeria-dinos:5192300","url":"https://www.facebook.com/Dinos-Pizzeria-L%C3%A4nsmanstorget-2-800094473338122/?rf=186748711352192","street":"Länsmanstorget 2, ","postalCode":"418 40","city":"GÖTEBORG"}
{"name":"Restaurang Alanya´s","legalLink":"/f/restaurang-alanya´s:124928393","url":"http://www.alanyas.se","street":"Braheg. 6, ","postalCode":"415 01","city":"GÖTEBORG"}
{"name":"Restaurang Afamia","legalLink":"/f/restaurang-afamia:3910808","street":"Reutersg. 2, ","postalCode":"413 20","city":"GÖTEBORG"}
{"name":"Stefans Bar & Kök","legalLink":"/f/stefans-bar-kök:14456833","street":"Järnbrotts Prästv. 7 D, ","postalCode":"421 47","city":"VÄSTRA FRÖLUNDA"}
{"name":"Pizzeria Del Piero","legalLink":"/f/pizzeria-del-piero:7822925","url":"https://www.facebook.com/pages/Pizzeria-Del-Piero/163687853675415","street":"Jaegerdorffsplatsen 1 D, ","postalCode":"414 51","city":"GÖTEBORG"}
{"name":"Juventus Pizzeria 2","legalLink":"/f/juventus-pizzeria-2:124927975","url":"https://www.facebook.com/JuventusPizzeria2","street":"Saffransg. 27, ","postalCode":"424 42","city":"ANGERED"}
{"name":"Pizzabutiken Torpa","legalLink":"/f/pizzabutiken-torpa:124928418","street":"Nedre Furuskogsv. 2, ","postalCode":"433 35","city":"PARTILLE"}
{"name":"Galliano Kök & Bar","legalLink":"/f/galliano-kök-bar:16709033","street":"Masthuggstorget 3, ","postalCode":"413 27","city":"GÖTEBORG"}
{"name":"Pizza Etc","legalLink":"/f/pizza-etc:16682045","url":"http://www.pizzaetc.se/","street":"Vassg. 3, ","postalCode":"415 02","city":"GÖTEBORG"}
{"name":"Harvest Gatukök och Pizzeria","legalLink":"/f/harvest-gatukök-och-pizzeria:14485808","street":"Viktor Rydbergsg. 71, ","postalCode":"412 61","city":"GÖTEBORG"}
{"name":"Raffes Bar & Restaurang","legalLink":"/f/raffes-bar-restaurang:9675720","url":"http://www.raffes.com","street":"Tövädersg. 7, ","postalCode":"418 31","city":"GÖTEBORG"}
{"name":"Hempizza","legalLink":"/f/hempizza:14986040","url":"http://www.hempizza.gastrogate.com/","street":"Konditoriv. 1, ","postalCode":"437 33","city":"LINDOME"}
{"name":"Roma Restaurang och Pizzeria","legalLink":"/f/roma-restaurang-och-pizzeria:124928063","url":"http://romarestaurang.com","street":"Ringög. 16, ","postalCode":"417 07","city":"GÖTEBORG"}
{"name":"Sorelle Bistro","legalLink":"/f/sorelle-bistro:124727195","url":"http://www.sorellebistro.se","street":"Hovås Allé 12, ","postalCode":"436 53","city":"HOVÅS"}
{"name":"Pizzeria Roma Kebab","legalLink":"/f/pizzeria-roma-kebab:14199486","street":"Lexbyvägen 19, ","postalCode":"433 31","city":"PARTILLE"}
{"name":"Pizzeria Mervana","legalLink":"/f/pizzeria-mervana:16642869","street":"Väderbodarna 1, ","postalCode":"418 35","city":"GÖTEBORG"}
{"name":"Hjallbo Sinibads Kebab","legalLink":"/f/hjallbo-sinibads-kebab:14957075","street":"Bergsgårdsgärdet 80, ","postalCode":"424 32","city":"ANGERED"}
{"name":"Harvest Gatukök och Pizzeria","legalLink":"/f/harvest-gatukök-och-pizzeria:14485808","street":"Viktor Rydbergsg. 71, ","postalCode":"412 61","city":"GÖTEBORG"}
{"name":"Kullaviks Restaurang och Pizzeria","legalLink":"/f/kullaviks-restaurang-och-pizzeria:92362523","street":"Molnvädersg. 28, ","postalCode":"418 35","city":"GÖTEBORG"}
{"name":"Selmas Café, Restaurang & Pizzeria","legalLink":"/f/selmas-café-restaurang-pizzeria:8003892","street":"","postalCode":"422 48","city":"HISINGS BACKA"}
{"name":"Marmaris Pizza Kebab och Sallad","legalLink":"/f/marmaris-pizza-kebab-och-sallad:124952530","street":"Krokslätts Torg 4, ","postalCode":"431 37","city":"MÖLNDAL"}
{"name":"Selos Pizzeria","legalLink":"/f/selos-pizzeria:14292498","street":"Hindås Stationsv. 2, ","postalCode":"438 53","city":"HINDÅS"}
{"name":"Pizzeria Pärla","legalLink":"/f/pizzeria-pärla:124928019","street":"Lisa Sass g. 18, ","postalCode":"422 53","city":"HISINGS BACKA"}
{"name":"Backa Pizza Plus","legalLink":"/f/backa-pizza-plus:51236491","street":"Prologg. 14, ","postalCode":"422 41","city":"HISINGS BACKA"}
{"name":"Pizzeria Class","legalLink":"/f/pizzeria-class:49968210","url":"http://www.pizzeriaclass.se","street":"Ångaren indias gata, ","postalCode":"417 60","city":"GÖTEBORG"}
{"name":"Mitt Kök Restaurang & Pizzeria","legalLink":"/f/mitt-kök-restaurang-pizzeria:10279186","url":"http://www.mittkok.nu","street":"Kortedala Torg 9, ","postalCode":"415 10","city":"GÖTEBORG"}
{"name":"Tynnereds Pizzeria","legalLink":"/f/tynnereds-pizzeria:124928050","url":"https://sv-se.facebook.com/Tynnered-Pizzeria-452366971456628/","street":"L. Grevegårdsv. 1, ","postalCode":"426 55","city":"VÄSTRA FRÖLUNDA"}
{"name":"Melli Pizzeria","legalLink":"/f/melli-pizzeria:14351645","url":"https://www.facebook.com/pages/Melli-Pizzeria/193160670706122","street":"Älvsborgsg. 29, ","postalCode":"414 72","city":"GÖTEBORG"}
{"name":"Noretti pizzeria & restaurang","legalLink":"/f/noretti-pizzeria-restaurang:15664928","url":"http://www.norettipizzeria.n.nu","street":"Donsö Hamnv. 25, ","postalCode":"430 82","city":"DONSÖ"}
{"name":"Januari Pizzeria","legalLink":"/f/januari-pizzeria:14619249","url":"https://www.facebook.com/pages/Komettorget-Pizzeria/157381460974724","street":"Komettorget 1, ","postalCode":"415 20","city":"GÖTEBORG"}
{"name":"Ravekärr Pizza Dor AB","legalLink":"/f/ravekärr-pizza-dor-ab:14475732","url":"http://www.pizzador.se","street":"Fågelbergsg. 2 A, ","postalCode":"431 33","city":"MÖLNDAL"}
{"name":"Papa Joe's Pizza & Pasta","legalLink":"/f/papa-joes-pizza-pasta:13760172","street":"Sten Stureg. 28, ","postalCode":"411 39","city":"GÖTEBORG"}
{"name":"Primavera Pizzeria","legalLink":"/f/primavera-pizzeria:124927371","street":"Friskväderstorget 6, ","postalCode":"418 38","city":"GÖTEBORG"}
{"name":"Pizzeria Navona","legalLink":"/f/pizzeria-navona:124927643","street":"Danag. 6, ","postalCode":"418 76","city":"GÖTEBORG"}
{"name":"Pizza Provencale","legalLink":"/f/pizza-provencale:124952440","street":"Viktoriagatan 10, ","postalCode":"411 25","city":"GÖTEBORG"}
{"name":"Lilla Rancho Restaurang och Pizzeria","legalLink":"/f/lilla-rancho-restaurang-och-pizzeria:14324169","street":"Kaggeledstorget 1, ","postalCode":"416 74","city":"GÖTEBORG"}
{"name":"Lrj I Torslanda AB","legalLink":"/f/lrj-i-torslanda-ab:14346789","street":"Nordhagsv. 28, ","postalCode":"423 34","city":"TORSLANDA"}
{"name":"Henkes Pizzeria","legalLink":"/f/henkes-pizzeria:14290198","street":"Haguddsv. 7, ","postalCode":"435 39","city":"MÖLNLYCKE"}
{"name":"Stefans Bar & Kök","legalLink":"/f/stefans-bar-kök:14456833","street":"Järnbrotts Prästv. 7 D, ","postalCode":"421 47","city":"VÄSTRA FRÖLUNDA"}
{"name":"Storfors Grill o. Pizzeria","legalLink":"/f/storfors-grill-o-pizzeria:14328630","street":"Göteborgsv. 121 B, ","postalCode":"433 63","city":"SÄVEDALEN"}
{"name":"Restaurang Moravia","legalLink":"/f/restaurang-moravia:14899157","url":"http://www.moravia.se","street":"Kyrkåsg. 13, ","postalCode":"416 56","city":"GÖTEBORG"}
{"name":"Homan Pizzeria","legalLink":"/f/homan-pizzeria:71732281","street":"Torslanda torg, ","postalCode":"423 32","city":"TORSLANDA"}
{"name":"Bamjan Place","legalLink":"/f/bamjan-place:124952302","street":"Gibraltarg. 14, ","postalCode":"411 32","city":"GÖTEBORG"}
{"name":"C & L Pizzeria","legalLink":"/f/c-l-pizzeria:14345291","street":"Väderilsg. 46, ","postalCode":"418 36","city":"GÖTEBORG"}
{"name":"Stabbe Pizzeria","legalLink":"/f/stabbe-pizzeria:31327632","url":"http://www.stabbepizzeria.se","street":"Stabbetorget 4, ","postalCode":"416 80","city":"GÖTEBORG"}
{"name":"Dorado Pizza, Kebab och Sallader","legalLink":"/f/dorado-pizza-kebab-och-sallader:13840020","url":"http://www.doradopizzeria.se","street":"Fridkullag. 20 A, ","postalCode":"412 62","city":"GÖTEBORG"}
{"name":"Pizzahuset","legalLink":"/f/pizzahuset:8895272","street":"Kattedammen 1, ","postalCode":"423 59","city":"TORSLANDA"}
{"name":"Grillhouse","legalLink":"/f/grillhouse:16039730","street":"Basarg. 10, ","postalCode":"411 10","city":"GÖTEBORG"}
{"name":"Edas pizzeria","legalLink":"/f/edas-pizzeria:101813035","url":"http://edaspizzeria.se","street":"Katrinerovägen 2A, ","postalCode":"417 49","city":"GÖTEBORG"}
{"name":"Ravekärr Pizza Dor AB","legalLink":"/f/ravekärr-pizza-dor-ab:14475732","url":"http://www.pizzador.se","street":"Fågelbergsg. 2 A, ","postalCode":"431 33","city":"MÖLNDAL"}
{"name":"Restaurang Nimra","legalLink":"/f/restaurang-nimra:124928339","street":"J Sigfrid Edströms g. 10, ","postalCode":"416 48","city":"GÖTEBORG"}
{"name":"Pizzabageriet","legalLink":"/f/pizzabageriet:116748860","street":"Prinsg. 4, ","postalCode":"413 05","city":"GÖTEBORG"}
{"name":"Sidad Pizzeria","legalLink":"/f/sidad-pizzeria:124928440","street":"Halvsekelsg. 21, ","postalCode":"415 08","city":"GÖTEBORG"}
{"name":"La Piazza","legalLink":"/f/la-piazza:16039452","url":"http://www.lapiazzapizzeria.se","street":"Distansg. 23 A, ","postalCode":"421 73","city":"VÄSTRA FRÖLUNDA"}
{"name":"Göteborgs Kött och Pizzagrossist AB","legalLink":"/f/göteborgs-kött-och-pizzagrossist-ab:4532934","street":"Slakthusgatan, ","postalCode":"415 02","city":"GÖTEBORG"}
{"name":"Juventus Pizzeria 2","legalLink":"/f/juventus-pizzeria-2:124927975","url":"https://www.facebook.com/JuventusPizzeria2","street":"Saffransg. 27, ","postalCode":"424 42","city":"ANGERED"}
{"name":"Primavera Pizzeria","legalLink":"/f/primavera-pizzeria:124927371","street":"Friskväderstorget 6, ","postalCode":"418 38","city":"GÖTEBORG"}
{"name":"Palermo Pizzeria","legalLink":"/f/palermo-pizzeria:10960730","street":"Jättestensgatan 9, ","postalCode":"418 72","city":"GÖTEBORG"}
{"name":"Alberts Pizzeria","legalLink":"/f/alberts-pizzeria:15661696","street":"Orustg. 2 A, ","postalCode":"414 74","city":"GÖTEBORG"}
{"name":"Danilo Restaurang","legalLink":"/f/danilo-restaurang:14941798","url":"http://www.danilorestaurang.se","street":"Skåneg. 16, ","postalCode":"411 40","city":"GÖTEBORG"}
{"name":"Restaurang Romas","legalLink":"/f/restaurang-romas:12834167","url":"http://www.romas.se","street":"Landvetter Torg, ","postalCode":"438 21","city":"LANDVETTER"}
{"name":"La Terrazza","legalLink":"/f/la-terrazza:4366718","url":"http://www.laterrazza.se","street":"Sten Stureg. 19, ","postalCode":"412 52","city":"GÖTEBORG"}
{"name":"Sannegårdens Pizzeria","legalLink":"/f/sannegårdens-pizzeria:124928416","url":"http://www.sannegardens.se","street":"Gibraltarg. 52, ","postalCode":"412 58","city":"GÖTEBORG"}
{"name":"Pizzeria Sanremo","legalLink":"/f/pizzeria-sanremo:14886279","url":"http://www.sanremo.se","street":"Nordhagsv. 28, ","postalCode":"423 34","city":"TORSLANDA"}
{"name":"Furulunds Kvartersrestaurang Pizzeria Salladsbar","legalLink":"/f/furulunds-kvartersrestaurang-pizzeria-salladsbar:14390949","street":"Furulund Centrum, ","postalCode":"433 47","city":"PARTILLE"}
{"name":"Pad Thai Restaurang","legalLink":"/f/pad-thai-restaurang:124927328","street":"Björlanda Kile, ","postalCode":"423 61","city":"TORSLANDA"}
{"name":"Haga Pizzeria","legalLink":"/f/haga-pizzeria:93160681","url":"http://www.hagapizzeria.com","street":"S. Allég. 2 B, ","postalCode":"413 01","city":"GÖTEBORG"}
{"name":"Da Mario Pizzabutik","legalLink":"/f/da-mario-pizzabutik:124928286","street":"Frölunda torg, ","postalCode":"421 44","city":"VÄSTRA FRÖLUNDA"}
{"name":"Capri Pizzeria","legalLink":"/f/capri-pizzeria:124952429","street":"Januarig. 2, ","postalCode":"415 15","city":"GÖTEBORG"}
{"name":"Knippla Pizzeria","legalLink":"/f/knippla-pizzeria:14877632","street":"Källöv. 3, ","postalCode":"475 51","city":"KÄLLÖ-KNIPPLA"}
{"name":"Old Corner Pub & Restaurang","legalLink":"/f/old-corner-pub-restaurang:110889572","url":"http://www.oldcorner.net/","street":"Fjärde Långg. 1, ","postalCode":"413 05","city":"GÖTEBORG"}
{"name":"I Love pizza - Allum","legalLink":"/f/i-love-pizza-allum:117195936","street":"Kyrktorget 19, ","postalCode":"433 33","city":"PARTILLE"}
{"name":"Brooklyn Local Restaurang och Bar","legalLink":"/f/brooklyn-local-restaurang-och-bar:124928318","url":"http://www.chalmerskonferens.se/restauranger/johanneberg/brooklynlocal/","street":"Gibraltarg. 80, ","postalCode":"412 79","city":"GÖTEBORG"}
{"name":"Grimmereds Pizzeria","legalLink":"/f/grimmereds-pizzeria:14355996","street":"Grimmeredsvägen 99, ","postalCode":"426 69","city":"VÄSTRA FRÖLUNDA"}
{"name":"E.C.A Pizzeria EF","legalLink":"/f/eca-pizzeria-ef:14462588","street":"Rimfrostg. 47, ","postalCode":"418 40","city":"GÖTEBORG"}
{"name":"Dian Pizza Butik","legalLink":"/f/dian-pizza-butik:17654608","street":"Chalmersg. 29, ","postalCode":"411 35","city":"GÖTEBORG"}
{"name":"Götas Pizzabutik AB","legalLink":"/f/götas-pizzabutik-ab:105337740","street":"Älvsborgsg. 39, ","postalCode":"414 72","city":"GÖTEBORG"}
{"name":"Pizzeria Sera","legalLink":"/f/pizzeria-sera:14974646","url":"http://www.pizzeriasera.se/","street":"Nansensg. 1, ","postalCode":"417 19","city":"GÖTEBORG"}
{"name":"Leonardo Tapas och Lounge","legalLink":"/f/leonardo-tapas-och-lounge:16552764","url":"http://www.leonardogbg.se","street":"Redbergsv. 9, ","postalCode":"416 65","city":"GÖTEBORG"}
{"name":"Pizzeria La Strada","legalLink":"/f/pizzeria-la-strada:3910762","url":"http://www.pizzerialastrada.se","street":"Almv. 1, ","postalCode":"437 40","city":"LINDOME"}
{"name":"Jamin Pizzeria","legalLink":"/f/jamin-pizzeria:116777588","street":"Drakegatan 8, ","postalCode":"412 50","city":"GÖTEBORG"}
{"name":"Pizzeria Mamma Rosa","legalLink":"/f/pizzeria-mamma-rosa:13791848","url":"http://www.pizzeriamammarosa.se/","street":"Lillhagsv. 39, ","postalCode":"422 43","city":"HISINGS BACKA"}
{"name":"Lollos Restaurang Och Pizzeria","legalLink":"/f/lollos-restaurang-och-pizzeria:108300179","url":"http://www.lollos.se","street":"Brunnsbotorget 8, ","postalCode":"422 42","city":"HISINGS BACKA"}
{"name":"Pizzeria Mervana","legalLink":"/f/pizzeria-mervana:16642869","street":"Väderbodarna 1, ","postalCode":"418 35","city":"GÖTEBORG"}
{"name":"Guldhedens Pizzeria","legalLink":"/f/guldhedens-pizzeria:124928370","street":"Vildapelsg. 3 A, ","postalCode":"413 20","city":"GÖTEBORG"}
{"name":"Hisingens Pizzagrossist","legalLink":"/f/hisingens-pizzagrossist:5202967","street":"","postalCode":"411 04","city":"GÖTEBORG"}
{"name":"Pizzeria Barolo","legalLink":"/f/pizzeria-barolo:4375606","street":"St. Badhusg. 30, ","postalCode":"411 21","city":"GÖTEBORG"}
{"name":"Corpus pizzeria","legalLink":"/f/corpus-pizzeria:7870891","url":"http://www.corpuspizzeria.se","street":"Kvarnbyg. 45, ","postalCode":"431 34","city":"MÖLNDAL"}
{"name":"Pizzeria Villagio","legalLink":"/f/pizzeria-villagio:16787672","url":"http://www.pizzeriavillagio.se","street":"Harald Hjärnesg. 15, ","postalCode":"417 20","city":"GÖTEBORG"}
{"name":"Pizzeria Roma Kebab","legalLink":"/f/pizzeria-roma-kebab:124952754","street":"Paradisv. 2, ","postalCode":"433 31","city":"PARTILLE"}
{"name":"Pizzeria Restaur. Mantovani","legalLink":"/f/pizzeria-restaur-mantovani:124952346","street":"Månadsg. 28, ","postalCode":"415 08","city":"GÖTEBORG"}
{"name":"Brooklyn Local Restaurang och Bar","legalLink":"/f/brooklyn-local-restaurang-och-bar:124928318","url":"http://www.chalmerskonferens.se/restauranger/johanneberg/brooklynlocal/","street":"Gibraltarg. 80, ","postalCode":"412 79","city":"GÖTEBORG"}
{"name":"Gubbero PizzaBar","legalLink":"/f/gubbero-pizzabar:16691685","url":"http://www.pizzabar.se","street":"N. Gubberog. 16, ","postalCode":"416 63","city":"GÖTEBORG"}
{"name":"Tano´s Restaurang","legalLink":"/f/tano´s-restaurang:124952395","street":"Prästgårdsängen 1, ","postalCode":"412 71","city":"GÖTEBORG"}
{"name":"Picasso Restaurang och Bar","legalLink":"/f/picasso-restaurang-och-bar:124928304","url":"http://restaurangguiden.segbg/centrum/picasso/","street":"Kristinelundsg. 13, ","postalCode":"411 37","city":"GÖTEBORG"}
{"name":"Homan Pizzeria","legalLink":"/f/homan-pizzeria:71732281","street":"Torslanda torg, ","postalCode":"423 32","city":"TORSLANDA"}
{"name":"Restaurang Afamia","legalLink":"/f/restaurang-afamia:3910808","street":"Reutersg. 2, ","postalCode":"413 20","city":"GÖTEBORG"}
{"name":"Pizza Hut","legalLink":"/f/pizza-hut:7808199","url":"http://www.pizzahut.se","street":"Postg. 47, ","postalCode":"411 06","city":"GÖTEBORG"}
{"name":"Pizzeria Papillon","legalLink":"/f/pizzeria-papillon:124928306","street":"Doktor Forselius Backe 46, ","postalCode":"413 26","city":"GÖTEBORG"}
{"name":"Cafe Pomerans Pizzeria & Restaurang","legalLink":"/f/cafe-pomerans-pizzeria-restaurang:124927426","url":"https://sv-se.facebook.com/CafePomerns","street":"Blåsvädersg. 12, ","postalCode":"418 32","city":"GÖTEBORG"}
{"name":"Pizzeria Mervana","legalLink":"/f/pizzeria-mervana:16642869","street":"Väderbodarna 1, ","postalCode":"418 35","city":"GÖTEBORG"}
{"name":"Pizzeria Kibar","legalLink":"/f/pizzeria-kibar:4375110","street":"Bärnstensg. 69, ","postalCode":"426 52","city":"VÄSTRA FRÖLUNDA"}
{"name":"Harvest Gatukök och Pizzeria","legalLink":"/f/harvest-gatukök-och-pizzeria:14485808","street":"Viktor Rydbergsg. 71, ","postalCode":"412 61","city":"GÖTEBORG"}
{"name":"Cesar Pizzeria","legalLink":"/f/cesar-pizzeria:7841862","url":"http://www.cesarpizzeria.se","street":"Bergsätersg. 1, ","postalCode":"421 66","city":"VÄSTRA FRÖLUNDA"}
{"name":"Villa Aslan AB","legalLink":"/f/villa-aslan-ab:14622502","url":"http://www.cafevillan.com/","street":"Rubing. 32, ","postalCode":"421 53","city":"VÄSTRA FRÖLUNDA"}
{"name":"Portofino Mat & Dryck","legalLink":"/f/portofino-mat-dryck:14957049","url":"http://www.portofino.se","street":"Lodjursv. 4, ","postalCode":"433 50","city":"ÖJERSJÖ"}
{"name":"Hermans Kök & Bar","legalLink":"/f/hermans-kök-bar:124928257","url":"http://www.hermanskokobar.se/","street":"Radiotorget 5, ","postalCode":"421 33","city":"VÄSTRA FRÖLUNDA"}
{"name":"Importgruvan AB","legalLink":"/f/importgruvan-ab:117453933","street":"Härryda Centrum 1, ","postalCode":"438 92","city":"HÄRRYDA"}
{"name":"Sicilus Pizza","legalLink":"/f/sicilus-pizza:15394712","street":"Statareg. 2 E, ","postalCode":"417 15","city":"GÖTEBORG"}
{"name":"Mizgin Pizzeria","legalLink":"/f/mizgin-pizzeria:69925450","street":"Västergårdsv. 3, ","postalCode":"438 52","city":"RÄVLANDA"}
{"name":"Il Vagabondo Pizzeria","legalLink":"/f/il-vagabondo-pizzeria:16552370","street":"Förstamajgatan 5, ","postalCode":"415 10","city":"GÖTEBORG"}
{"name":"Dr. Fries Pizzeria","legalLink":"/f/dr-fries-pizzeria:98905981","street":"Doktor fries torg, ","postalCode":"413 23","city":"GÖTEBORG"}
{"name":"Matbiten Citykrogen","legalLink":"/f/matbiten-citykrogen:7869649","street":"Mellbyv. 68, ","postalCode":"433 30","city":"PARTILLE"}
{"name":"Lillebygrillen","legalLink":"/f/lillebygrillen:13557187","url":"http://www.lillebygrillen.se","street":"Kråketegen 29, ","postalCode":"423 51","city":"TORSLANDA"}
{"name":"Ellis Pizzeria KB","legalLink":"/f/ellis-pizzeria-kb:3918114","street":"Göteborgsv. 45, ","postalCode":"433 60","city":"SÄVEDALEN"}
{"name":"Flintston","legalLink":"/f/flintston:16871726","url":"http://www.flintston.se","street":"Swedenborgsg. 1, ","postalCode":"417 05","city":"GÖTEBORG"}
{"name":"Rg Göteborg HB","legalLink":"/f/rg-göteborg-hb:3910898","url":"http://www.pizzabutikgambero.se/","street":"Övre Husarg. 5, ","postalCode":"411 22","city":"GÖTEBORG"}
{"name":"Leonardo Tapas och Lounge","legalLink":"/f/leonardo-tapas-och-lounge:16552764","url":"http://www.leonardogbg.se","street":"Redbergsv. 9, ","postalCode":"416 65","city":"GÖTEBORG"}
{"name":"Pizzeria Al Forno","legalLink":"/f/pizzeria-al-forno:14474701","street":"Oluff Nilssons v. 3, ","postalCode":"433 36","city":"PARTILLE"}
{"name":"Restaurang Afamia","legalLink":"/f/restaurang-afamia:3910808","street":"Reutersg. 2, ","postalCode":"413 20","city":"GÖTEBORG"}
{"name":"Åby Pizzeria & Kebab","legalLink":"/f/åby-pizzeria-kebab:32793537","url":"http://www.abypizzeria.se","street":"Frölundag. 35, ","postalCode":"431 44","city":"MÖLNDAL"}
{"name":"Restaurang Moravia","legalLink":"/f/restaurang-moravia:14899157","url":"http://www.moravia.se","street":"Kyrkåsg. 13, ","postalCode":"416 56","city":"GÖTEBORG"}
{"name":"Pizza 4 You","legalLink":"/f/pizza-4-you:124928383","street":"S:t Sigfridsg. 146 B, ","postalCode":"412 67","city":"GÖTEBORG"}
{"name":"Pizzeria Platån","legalLink":"/f/pizzeria-platån:124927690","url":"https://sv-se.facebook.com/pizzeriaplatan","street":"Rönnerdahls gata 1, ","postalCode":"417 67","city":"GÖTEBORG"}
{"name":"Pizza Hut","legalLink":"/f/pizza-hut:7808204","url":"http://www.pizzahut.se","street":"Kungsg. 25, ","postalCode":"411 19","city":"GÖTEBORG"}
{"name":"Pizzabutiken Torpa","legalLink":"/f/pizzabutiken-torpa:124928418","street":"Nedre Furuskogsv. 2, ","postalCode":"433 35","city":"PARTILLE"}
{"name":"OKQ8 Landvetter - Bensinstation, Butik & Café","legalLink":"/f/okq8-landvetter-bensinstation-butik-café:124952465","url":"http://www.okq8.se","street":"Flygplatsvägen 10, ","postalCode":"438 70","city":"LANDVETTER"}
{"name":"Restaurang Hemma Hos - Café Kök Bar","legalLink":"/f/restaurang-hemma-hos-café-kök-bar:103555928","street":"Hökabergsvägen 1, ","postalCode":"438 34","city":"LANDVETTER"}
{"name":"La Venezia Pizzeria Restaurang","legalLink":"/f/la-venezia-pizzeria-restaurang:14984513","street":"Danska v. 97, ","postalCode":"416 59","city":"GÖTEBORG"}
{"name":"Knippla Pizzeria","legalLink":"/f/knippla-pizzeria:14877632","street":"Källöv. 3, ","postalCode":"475 51","city":"KÄLLÖ-KNIPPLA"}
{"name":"Pizzeria Sera","legalLink":"/f/pizzeria-sera:14974646","url":"http://www.pizzeriasera.se/","street":"Nansensg. 1, ","postalCode":"417 19","city":"GÖTEBORG"}
{"name":"S:t Pauli Pizzeria","legalLink":"/f/st-pauli-pizzeria:115215939","url":"http://www.stpaulipizzeria.se","street":"Karlag. 19 B, ","postalCode":"416 61","city":"GÖTEBORG"}
{"name":"Ferrari Pizza och Grill","legalLink":"/f/ferrari-pizza-och-grill:14849038","street":"Kaveldunsv. 1, ","postalCode":"435 40","city":"MÖLNLYCKE"}
{"name":"Pizza Hemkört","legalLink":"/f/pizza-hemkört:17238752","street":"Doktor Bex g. 4, ","postalCode":"413 24","city":"GÖTEBORG"}
{"name":"Hermans Kök & Bar","legalLink":"/f/hermans-kök-bar:124928257","url":"http://www.hermanskokobar.se/","street":"Radiotorget 5, ","postalCode":"421 33","city":"VÄSTRA FRÖLUNDA"}
{"name":"Old Corner Pub & Restaurang","legalLink":"/f/old-corner-pub-restaurang:3910841","url":"http://www.oldcorner.se","street":"","postalCode":"402 59","city":"GÖTEBORG"}
{"name":"I Love pizza - Allum","legalLink":"/f/i-love-pizza-allum:117195936","street":"Kyrktorget 19, ","postalCode":"433 33","city":"PARTILLE"}
{"name":"Antonio Livs & Pizza","legalLink":"/f/antonio-livs-pizza:120822994","street":"Nedre Kvarnbergsgatan 16, ","postalCode":"411 05","city":"GÖTEBORG"}
{"name":"Pizzeria Sanremo","legalLink":"/f/pizzeria-sanremo:14886279","url":"http://www.sanremo.se","street":"Nordhagsv. 28, ","postalCode":"423 34","city":"TORSLANDA"}
{"name":"Pizzeria Kibar","legalLink":"/f/pizzeria-kibar:124927958","street":"Bärnstensg., ","postalCode":"426 52","city":"VÄSTRA FRÖLUNDA"}
{"name":"Tano´s Restaurang","legalLink":"/f/tano´s-restaurang:124952395","street":"Prästgårdsängen 1, ","postalCode":"412 71","city":"GÖTEBORG"}
{"name":"Pizzeria 13","legalLink":"/f/pizzeria-13:13751545","street":"Chalmersg. 13, ","postalCode":"411 35","city":"GÖTEBORG"}
{"name":"Pizzeria Kerkira","legalLink":"/f/pizzeria-kerkira:3912006","street":"Mackliersg. 2, ","postalCode":"412 59","city":"GÖTEBORG"}
{"name":"Matbiten Citykrogen","legalLink":"/f/matbiten-citykrogen:7869649","street":"Mellbyv. 68, ","postalCode":"433 30","city":"PARTILLE"}
{"name":"Pizzeria Campus","legalLink":"/f/pizzeria-campus:116780712","street":"Gibraltarg. 54, ","postalCode":"412 58","city":"GÖTEBORG"}
{"name":"Roma Pizza","legalLink":"/f/roma-pizza:10008606","street":"S:t Paulig. 18, ","postalCode":"416 60","city":"GÖTEBORG"}
{"name":"Alberts Pizzeria","legalLink":"/f/alberts-pizzeria:15661696","street":"Orustg. 2 A, ","postalCode":"414 74","city":"GÖTEBORG"}
{"name":"Mossens Pizzeria","legalLink":"/f/mossens-pizzeria:14540147","url":"http://www.mossenspizzeria.se","street":"Gibraltarg. 37, ","postalCode":"412 79","city":"GÖTEBORG"}
{"name":"Pizzahuset","legalLink":"/f/pizzahuset:8895272","street":"Kattedammen 1, ","postalCode":"423 59","city":"TORSLANDA"}
{"name":"Homan Pizzeria","legalLink":"/f/homan-pizzeria:71732281","street":"Torslanda torg, ","postalCode":"423 32","city":"TORSLANDA"}
{"name":"Pizzeria Örn 2","legalLink":"/f/pizzeria-örn-2:13309233","url":"http://www.ornpizzeria.se","street":"Akkas g. 1, ","postalCode":"422 48","city":"HISINGS BACKA"}
{"name":"Åby Krog","legalLink":"/f/åby-krog:124928145","street":"Katrinebergsg. 6, ","postalCode":"431 61","city":"MÖLNDAL"}
{"name":"Freja Pizzeria","legalLink":"/f/freja-pizzeria:8125199","url":"http://www.frejapizzeria.se","street":"Frejaplan, ","postalCode":"433 62","city":"SÄVEDALEN"}
{"name":"Pizzeria Kibar","legalLink":"/f/pizzeria-kibar:4375110","street":"Bärnstensg. 69, ","postalCode":"426 52","city":"VÄSTRA FRÖLUNDA"}
{"name":"Pizzeria La Strada","legalLink":"/f/pizzeria-la-strada:3910762","url":"http://www.pizzerialastrada.se","street":"Almv. 1, ","postalCode":"437 40","city":"LINDOME"}
{"name":"Ninas Pizzeria","legalLink":"/f/ninas-pizzeria:13937301","street":"Tuvev. 33, ","postalCode":"417 05","city":"GÖTEBORG"}
{"name":"Pad Thai Restaurang","legalLink":"/f/pad-thai-restaurang:124927328","street":"Björlanda Kile, ","postalCode":"423 61","city":"TORSLANDA"}
{"name":"Henkes Bar och Kök","legalLink":"/f/henkes-bar-och-kök:101315338","url":"http://www.creato.se/","street":"Hängpilsg. 6, ","postalCode":"426 77","city":"VÄSTRA FRÖLUNDA"}
{"name":"Pizzeria Al Forno","legalLink":"/f/pizzeria-al-forno:14474701","street":"Oluff Nilssons v. 3, ","postalCode":"433 36","city":"PARTILLE"}
{"name":"Restaurang Afamia","legalLink":"/f/restaurang-afamia:3910808","street":"Reutersg. 2, ","postalCode":"413 20","city":"GÖTEBORG"}
{"name":"Landvetter Pizzeria","legalLink":"/f/landvetter-pizzeria:124928355","street":"Brattåsv. 14, ","postalCode":"438 32","city":"LANDVETTER"}
{"name":"Restaurang Ånäsgrillen","legalLink":"/f/restaurang-ånäsgrillen:7817109","street":"Storkg. 11, ","postalCode":"416 69","city":"GÖTEBORG"}
{"name":"Rohat Pizzeria HB","legalLink":"/f/rohat-pizzeria-hb:14625489","street":"Silvermyntsg. 1, ","postalCode":"414 79","city":"GÖTEBORG"}
{"name":"Odin's Pizzeria HB","legalLink":"/f/odins-pizzeria-hb:16285953","street":"Odinsg. 23, ","postalCode":"411 03","city":"GÖTEBORG"}
{"name":"Pizzabutik Italia","legalLink":"/f/pizzabutik-italia:16676866","url":"http://pizzaitalia.se/","street":"Stobéeg. 6, ","postalCode":"416 53","city":"GÖTEBORG"}
{"name":"Nisses Pizzeria AB","legalLink":"/f/nisses-pizzeria-ab:17211111","street":"Kållareds Centrum, ","postalCode":"428 32","city":"KÅLLERED"}
{"name":"Restaurang Nimra","legalLink":"/f/restaurang-nimra:124928339","street":"J Sigfrid Edströms g. 10, ","postalCode":"416 48","city":"GÖTEBORG"}
{"name":"Haga Pizzeria","legalLink":"/f/haga-pizzeria:93160681","url":"http://www.hagapizzeria.com","street":"S. Allég. 2 B, ","postalCode":"413 01","city":"GÖTEBORG"}
{"name":"Åby Krog","legalLink":"/f/åby-krog:124928145","street":"Katrinebergsg. 6, ","postalCode":"431 61","city":"MÖLNDAL"}
{"name":"Galileis Pizzeria","legalLink":"/f/galileis-pizzeria:8808817","url":"https://www.facebook.com/galileispizzeria/","street":"Gärdsås Torg 5, ","postalCode":"415 17","city":"GÖTEBORG"}
{"name":"Pizzeria Etna","legalLink":"/f/pizzeria-etna:14404895","street":"Nordostpassagen 47, ","postalCode":"413 11","city":"GÖTEBORG"}
{"name":"Eriksberg Pizzeria","legalLink":"/f/eriksberg-pizzeria:31329033","url":"http://www.eriksbergspizzeria.se/","street":"Ö. Eriksbergsg. 72, ","postalCode":"417 63","city":"GÖTEBORG"}
{"name":"Restaurang och Pizzeria Safir","legalLink":"/f/restaurang-och-pizzeria-safir:7865060","street":"Jonseredsv. 21, ","postalCode":"433 75","city":"JONSERED"}
{"name":"Restaurang Afamia","legalLink":"/f/restaurang-afamia:3910808","street":"Reutersg. 2, ","postalCode":"413 20","city":"GÖTEBORG"}
{"name":"Sävedalens Pizzahouse","legalLink":"/f/sävedalens-pizzahouse:124952540","street":"Göteborgsvägen 91, ","postalCode":"433 63","city":"SÄVEDALEN"}
{"name":"Restaurang Mektagonen","legalLink":"/f/restaurang-mektagonen:14554943","url":"http://restaurangmektagonen.se","street":"Falkenbergsg. 3, ","postalCode":"412 85","city":"GÖTEBORG"}
{"name":"Zagros Pizzeria & Gatukök","legalLink":"/f/zagros-pizzeria-gatukök:12558663","street":"Vaniljg. 1, ","postalCode":"424 45","city":"ANGERED"}
{"name":"Pizzabutiken Torpa","legalLink":"/f/pizzabutiken-torpa:124928418","street":"Nedre Furuskogsv. 2, ","postalCode":"433 35","city":"PARTILLE"}
{"name":"Pizzeria Milano","legalLink":"/f/pizzeria-milano:124928357","street":"Artillerig. 8 D, ","postalCode":"415 03","city":"GÖTEBORG"}
{"name":"Dantes Pizzeria","legalLink":"/f/dantes-pizzeria:117536449","url":"http://www.dantespizzeria.se","street":"Värmlandsg. 20, ","postalCode":"413 28","city":"GÖTEBORG"}
{"name":"Pizzeria Victoria","legalLink":"/f/pizzeria-victoria:7839461","url":"http://www.pizzeria-viktoria.se","street":"Stationsv. 1, ","postalCode":"435 37","city":"MÖLNLYCKE"}
{"name":"Cyrano Majorna","legalLink":"/f/cyrano-majorna:50709054","url":"http://www.cyrano.se/restaurang/cyrano-majorna","street":"Karl Johansg. 61, ","postalCode":"414 55","city":"GÖTEBORG"}
{"name":"Pizzeria Panther Ljungsbro","legalLink":"/f/pizzeria-panther-ljungsbro:105329085","street":"Långavallsg. 4 A, ","postalCode":"424 57","city":"GUNNILSE"}
{"name":"Pizzabageriet","legalLink":"/f/pizzabageriet:116748860","street":"Prinsg. 4, ","postalCode":"413 05","city":"GÖTEBORG"}
{"name":"Pizzahuset","legalLink":"/f/pizzahuset:8895272","street":"Kattedammen 1, ","postalCode":"423 59","city":"TORSLANDA"}
{"name":"Restaurang Da Salvatore","legalLink":"/f/restaurang-da-salvatore:14466500","url":"https://sv-se.facebook.com/Restaurante-Da-Salvatore-171839716171630/","street":"Korgbollsv. 1, ","postalCode":"424 33","city":"ANGERED"}
{"name":"Slice Pizzeria","legalLink":"/f/slice-pizzeria:101693046","url":"http://slicepizzeria.se","street":"Artillerig. 12, ","postalCode":"415 03","city":"GÖTEBORG"}
{"name":"Pizzeria Vallentin i Kungsbacka","legalLink":"/f/pizzeria-vallentin-i-kungsbacka:14303963","url":"http://www.pizzeriavalentin.se","street":"Grinnekulleg. 227, ","postalCode":"417 42","city":"GÖTEBORG"}
{"name":"Hamnens Pizzeria & Grillbar","legalLink":"/f/hamnens-pizzeria-grillbar:124927593","street":"Björnhuvudsv. 9, ","postalCode":"475 31","city":"ÖCKERÖ"}
{"name":"Kungsgatan 19","legalLink":"/f/kungsgatan-19:15694844","url":"http://www.kungsgatan19.se/","street":"Kungsg. 19, ","postalCode":"411 19","city":"GÖTEBORG"}
{"name":"Piccolo Gondoliere AB","legalLink":"/f/piccolo-gondoliere-ab:5189885","url":"http://www.elcorazon.se","street":"St. Saluhallen, ","postalCode":"411 17","city":"GÖTEBORG"}
{"name":"Potenza Restaurang Pizzeria Bar","legalLink":"/f/potenza-restaurang-pizzeria-bar:15710015","street":"Rävlanda Stationsv. 8, ","postalCode":"438 51","city":"RÄVLANDA"}
{"name":"Pizzeria Villagio","legalLink":"/f/pizzeria-villagio:13303109","url":"http://www.pizzeriavillagio.se","street":"Gibraltarg. 36, ","postalCode":"412 58","city":"GÖTEBORG"}
{"name":"Pizza Hemkört","legalLink":"/f/pizza-hemkört:17238752","street":"Doktor Bex g. 4, ","postalCode":"413 24","city":"GÖTEBORG"}
{"name":"Just Florida Pizzeria","legalLink":"/f/just-florida-pizzeria:127860796","street":"Väderlekstorget 7, ","postalCode":"418 32","city":"GÖTEBORG"}
{"name":"Old Persian","legalLink":"/f/old-persian:113992823","url":"http://www.oldpersian.se/","street":"Torgg. 4, ","postalCode":"411 05","city":"GÖTEBORG"}
{"name":"Nikolinas Bar, (Ryans Grillbar)","legalLink":"/f/nikolinas-bar-ryans-grillbar:14338792","street":"Wieselgrensplatsen 9, ","postalCode":"417 17","city":"GÖTEBORG"}
{"name":"I Love Pizza - Utby","legalLink":"/f/i-love-pizza-utby:5191033","street":"Österlyckan 1, ","postalCode":"415 07","city":"GÖTEBORG"}
{"name":"Sannegården Pizzeria","legalLink":"/f/sannegården-pizzeria:126272817","street":"Skanstorget 2, ","postalCode":"411 22","city":"GÖTEBORG"}
{"name":"Solsidan Restaurang & Bistro","legalLink":"/f/solsidan-restaurang-bistro:93574385","street":"Metodv. 2 A, ","postalCode":"435 33","city":"MÖLNLYCKE"}
{"name":"Canaria Pizzeria","legalLink":"/f/canaria-pizzeria:129547664","street":"Hjällbogärdet 3, ","postalCode":"424 34","city":"ANGERED"}
{"name":"Vapiano","legalLink":"/f/vapiano:107151458","url":"https://www.facebook.com/vapiano.kungsport","street":"Ö. Hamng. 35, ","postalCode":"411 10","city":"GÖTEBORG"}
{"name":"Kios Pizzeria AB","legalLink":"/f/kios-pizzeria-ab:133529311","street":"Byv. 6, ","postalCode":"438 36","city":"LANDVETTER"}
{"name":"Happy City AB","legalLink":"/f/happy-city-ab:128173771","street":"Angeredsvinkeln 5, ","postalCode":"424 67","city":"ANGERED"}
{"name":"Da Marco Pizzeria Ristorante","legalLink":"/f/da-marco-pizzeria-ristorante:13739012","url":"http://www.damarco.se","street":"Ärleg. 2, ","postalCode":"414 57","city":"GÖTEBORG"}
{"name":"Capricciosa Pizzeria HB","legalLink":"/f/capricciosa-pizzeria-hb:121904451","street":"Lars Kaggsg. 45 B, ","postalCode":"415 04","city":"GÖTEBORG"}
{"name":"La Beban Vedugnsköket","legalLink":"/f/la-beban-vedugnsköket:134914143","url":"http://www.labeban.com","street":"Bögatan 47, ","postalCode":"412 72","city":"GÖTEBORG"}
{"name":"Vivaldi Restaurang & Bar","legalLink":"/f/vivaldi-restaurang-bar:14941001","url":"http://www.restaurangvivaldi.com","street":"Berzeliigatan 19, ","postalCode":"412 53","city":"GÖTEBORG"}
{"name":"La Vera Pizzeria","legalLink":"/f/la-vera-pizzeria:117943092","street":"Centralv. 13, ","postalCode":"435 30","city":"MÖLNLYCKE"}
{"name":"Stig Centers Gatukök","legalLink":"/f/stig-centers-gatukök:14876203","url":"http://www.sibyllastigcenter.se","street":"Importg. 2, ","postalCode":"422 46","city":"HISINGS BACKA"}
{"name":"I Love Pizza - Frigga","legalLink":"/f/i-love-pizza-frigga:14991382","street":"Friggag. 14 D, ","postalCode":"411 01","city":"GÖTEBORG"}
{"name":"Gibraltar Pizzeria KB","legalLink":"/f/gibraltar-pizzeria-kb:129471010","url":"http://pizzeriagibraltar.com/","street":"Gibraltarg. 36, ","postalCode":"412 58","city":"GÖTEBORG"}
{"name":"Singhsol HB","legalLink":"/f/singhsol-hb:14323092","url":"http://www.pizzeria-vivaldi.net","street":"G. Säröv. 88, ","postalCode":"436 40","city":"ASKIM"}
{"name":"Chopstix","legalLink":"/f/chopstix:4375366","url":"http://www.chopstixsushibar.se/","street":"Olivedalsg. 23, ","postalCode":"413 10","city":"GÖTEBORG"}
{"name":"Pizzeria Restaurang Lepanto AB","legalLink":"/f/pizzeria-restaurang-lepanto-ab:146493470","street":"Marklandsgatan 1, ","postalCode":"414 77","city":"GÖTEBORG"}
{"name":"Stig Centers Gatukök","legalLink":"/f/stig-centers-gatukök:14876203","url":"http://www.sibyllastigcenter.se","street":"Importg. 2, ","postalCode":"422 46","city":"HISINGS BACKA"}
{"name":"Happy City AB","legalLink":"/f/happy-city-ab:128173771","street":"Angeredsvinkeln 5, ","postalCode":"424 67","city":"ANGERED"}
{"name":"Grand Pizzeria I Göteborg","legalLink":"/f/grand-pizzeria-i-göteborg:146392108","street":"Södra vårvindsgatan 6, ","postalCode":"418 77","city":"GÖTEBORG"}
{"name":"Dannes Pizzeria och Grill","legalLink":"/f/dannes-pizzeria-och-grill:10178687","url":"http://www.dannespizzeria.se/","street":"Jörlandav. 2 B, ","postalCode":"442 60","city":"KODE"}
{"name":"Sannegården Pizzeria","legalLink":"/f/sannegården-pizzeria:126272817","street":"Skanstorget 2, ","postalCode":"411 22","city":"GÖTEBORG"}
