{"name":"Cyrano Majorna","url":"http://www.cyrano.se/meny/cyrano-majorna","street":"Karl johansgatan 6","postalCode":"414 59","city":"GÖTEBORG","legalName":"Denpama AB","organisationNumber":"5590837919"}
{"name":"Kållered Pizzeria","url":"http://www.kalleredpizzeria.se","street":"Gamla Riksvägen 38","postalCode":"428 32","city":"KÅLLERED","legalName":"Metman Pizzeria Handelsbolag","organisationNumber":"9697225770"}
{"name":"Enzo Pizzeria","street":"Kaveldunsvägen 1","postalCode":"435 40","city":"MÖLNLYCKE","legalName":"Mölnlycke Pizzeria Kommanditbolag","organisationNumber":"9697356419"}
{"name":"Favenzia Pizzeria","url":"http://www.favenzia.com/Meny.html","street":"Lilla Skintebovägen 4","postalCode":"427 34","city":"BILLDAL","legalName":"Favenzia Pizzeria AB","organisationNumber":"5569531899"}
{"name":"Trattoria da Pasquale","url":"http://www.trattoriadapasquale.se","street":"Sten Sturegatan 17","postalCode":"412 52","city":"GÖTEBORG","legalName":"Ristorante Napoletano Aktiebolag","organisationNumber":"5564569415"}
{"name":"Le Baron Restaurang & Pizzeria","url":"http://restauranglebaron.com/meny/","street":"Skånegatan 39","postalCode":"412 52","city":"GÖTEBORG"}
{"name":"Restaurang Tio Pepe","url":"http://www.tio-pepe.se","street":"Klarbärsvägen 2A","postalCode":"426 55","city":"VÄSTRA FRÖLUNDA","legalName":"Restaurang L.S AB","organisationNumber":"5591275424"}
{"name":"Pizzabageriet","url":"http://www.pizzabagerietmunkeback.se/meny","street":"Munkebäcksgatan 14","postalCode":"416 53","city":"GÖTEBORG"}
{"name":"Pasta Etc","url":"http://www.pasta-etc.se/forratter.aspx","street":"Mölndalsvägen 15","postalCode":"412 63","city":"GÖTEBORG","legalName":"Ekonomiska föreningen Consortes","organisationNumber":"7696216030"}
{"name":"Sejdeln Pub","url":"http://www.sejdelnpub.webs.com","street":"Andra långgatan 28","postalCode":"413 27","city":"GÖTEBORG","legalName":"Sejdeln Pub Handelsbolag","organisationNumber":"9697029271"}
{"name":"Hjällbo Pizza & Kebab AB","url":"http://hjallbopizzeria.se/expanded-menu/","street":"Bergsgårdsgärdet 80","postalCode":"424 32","city":"ANGERED","organisationNumber":"5569617318"}
{"name":"Vikings Kök Bar & Pizzeria","url":"http://www.vikingkokobar.nu","street":"Axel dahlströms torg 2","postalCode":"414 80","city":"GÖTEBORG","legalName":"Vikings Kök Bar & Pizzeria Handelsbolag","organisationNumber":"9697397280"}
{"name":"Pizzeria Pinan","url":"http://www.pinanpizzeria.se","street":"Göteborgsvägen 3","postalCode":"475 40","city":"HÖNÖ","legalName":"Bröderna Elias och Jakob Handelsbolag","organisationNumber":"9697260462"}
{"name":"Restaurang Cyrano","url":"http://www.cyrano.se/meny/cyrano-sodravagen","street":"Södra vägen 69","postalCode":"412 54","city":"GÖTEBORG","legalName":"Pollmad AB","organisationNumber":"5569472698"}
{"name":"Odin's Pizzeria HB","street":"Odinsg. 23, ","postalCode":"411 03","city":"GÖTEBORG"}
{"name":"Portofino","street":"Starbåtsgatan 1, ","postalCode":"426 71","city":"VÄSTRA FRÖLUNDA"}
{"name":"Knippla Pizza","street":"Källöv. 3, ","postalCode":"475 51","city":"KÄLLÖ-KNIPPLA"}
{"name":"Pizzeria Favenzia i Skintebo","url":"http://favenzia.com/","street":"L. Skintebov. 4, ","postalCode":"427 34","city":"BILLDAL"}
{"name":"Grimmereds Pizzeria","street":"Grimmeredsvägen 99, ","postalCode":"426 69","city":"VÄSTRA FRÖLUNDA","legalName":"Grimmereds Livs Kommanditbolag","organisationNumber":"9697520774"}
{"name":"Lilla Restaurangen","url":"http://www.lillarestaurangen.se","street":"Redbergsv. 8, ","postalCode":"416 65","city":"GÖTEBORG"}
{"name":"Cyrano Olskroken","url":"http://www.cyrano.se/meny/cyrano-olskroken","street":"Kobbarnas väg 10","postalCode":"416 47","city":"GÖTEBORG","legalName":"Blanje Handelsbolag","organisationNumber":"9697304039"}
{"name":"Vallhamra Pizzeria o. Restaurang","street":"Vallhamra Torg 2, ","postalCode":"433 65","city":"SÄVEDALEN"}
{"name":"Pizzabutiken Torpa","street":"Nedre Furuskogsv. 2, ","postalCode":"433 35","city":"PARTILLE"}
{"name":"Göteborgs Kött och Pizzagrossist AB","street":"Slakthusgatan, ","postalCode":"415 02","city":"GÖTEBORG"}
{"name":"Sörgårdens Bageri Pizzeri","street":"Krokslätts parkgata 57, ","postalCode":"431 68","city":"MÖLNDAL"}
{"name":"Hard Rock Cafe","url":"http://www.hardrock.se","street":"Kungsportsavenyen 10","postalCode":"411 36","city":"GÖTEBORG","legalName":"Got Rock AB","organisationNumber":"5562289974"}
{"name":"Bano restaurang och bar","street":"Gropegårdsg. 3, ","postalCode":"417 15","city":"GÖTEBORG"}
{"name":"Restaurang Sofra","url":"http://www.restaurangsofra.com","street":"Danska v. 79, ","postalCode":"416 59","city":"GÖTEBORG"}
{"name":"Tio Pepe","url":"http://www.restaurangtiopepe.se","street":"Sten Stureg. 17, ","postalCode":"412 52","city":"GÖTEBORG","legalName":"Gasolina AB","organisationNumber":"5567600605"}
{"name":"Da Mario Pizzabutik","street":"Frölunda torg, ","postalCode":"421 44","city":"VÄSTRA FRÖLUNDA"}
{"name":"Pizzeria Papillon","street":"Doktor Forselius Backe 46, ","postalCode":"413 26","city":"GÖTEBORG"}
{"name":"Harrys Gatukök & Pizzabutik","street":"G. Björlandav. 147, ","postalCode":"417 28","city":"GÖTEBORG"}
{"name":"Sannegårdens pizzeria","street":"Långängen 13, ","postalCode":"417 06","city":"GÖTEBORG","legalName":"MURAT och Shenol Handelsbolag","organisationNumber":"9697451723"}
{"name":"Kastellgatans Pizzeria","street":"Kastellg. 15, ","postalCode":"413 07","city":"GÖTEBORG"}
{"name":"Cafe Pomerans Pizzeria & Restaurang","url":"https://sv-se.facebook.com/CafePomerns","street":"Blåsvädersg. 12, ","postalCode":"418 32","city":"GÖTEBORG"}
{"name":"Guldhedens Pizzeria","street":"Vildapelsg. 3 A, ","postalCode":"413 20","city":"GÖTEBORG"}
{"name":"Pizzeria Sanremo","url":"http://www.sanremo.se","street":"Nordhagsv. 28, ","postalCode":"423 34","city":"TORSLANDA"}
{"name":"Porten's Pizza","url":"http://www.portenspizza.se","street":"Göteborgsv. 1, ","postalCode":"431 30","city":"MÖLNDAL","legalName":"Mehdi&Hadi Handelsbolag","organisationNumber":"9696937045"}
{"name":"Importgruvan AB","street":"Härryda Centrum 1, ","postalCode":"438 92","city":"HÄRRYDA","organisationNumber":"5566790266"}
{"name":"Torslanda Pizzeria","street":"Gamla flygplatsvägen 1, ","postalCode":"423 37","city":"TORSLANDA","legalName":"Tirvan pizzeria handelsbolag","organisationNumber":"9697729201"}
{"name":"La Venezia Pizza Restaurang","street":"Danska v. 97, ","postalCode":"416 59","city":"GÖTEBORG"}
{"name":"Pizzeria Hawaii","street":"Stålhandskeg. 12, ","postalCode":"418 76","city":"GÖTEBORG","legalName":"Tur-Ha Pizzeria Handelsbolag","organisationNumber":"9697321470"}
{"name":"Cesar Pizzeria","url":"http://www.cesarpizzeria.se","street":"Bergsätersg. 1, ","postalCode":"421 66","city":"VÄSTRA FRÖLUNDA","legalName":"Matay´s Pizzeria Handelsbolag","organisationNumber":"9697268994"}
{"name":"Januari Pizzeria","url":"https://www.facebook.com/pages/Komettorget-Pizzeria/157381460974724","street":"Komettorget 1, ","postalCode":"415 20","city":"GÖTEBORG"}
{"name":"Restaurang och Pizzeria Regementet","street":"L. Regementsv. 16, ","postalCode":"415 27","city":"GÖTEBORG"}
{"name":"Götas Pizzabutik AB","street":"Älvsborgsg. 39, ","postalCode":"414 72","city":"GÖTEBORG","organisationNumber":"5569537292"}
{"name":"Marcos Restaurang & Pizzeria","url":"http://marcosrestaurang.com","street":"L. Björn 6 A, ","postalCode":"415 16","city":"GÖTEBORG","legalName":"Jamins RestaInvest i Gbg AB","organisationNumber":"5566679386"}
{"name":"Pizzeria Matador","street":"Sanatorieg. 15, ","postalCode":"416 53","city":"GÖTEBORG"}
{"name":"Old Persian","url":"http://www.oldpersian.se/","street":"Torgg. 4, ","postalCode":"411 05","city":"GÖTEBORG","legalName":"OLD PERSIEN AB","organisationNumber":"5569927238"}
{"name":"Opalpizzerian","street":"Opaltorget, ","postalCode":"421 62","city":"VÄSTRA FRÖLUNDA","legalName":"Opaltorgets Pizza Restaurang AB","organisationNumber":"5568382583"}
{"name":"Godhems pizzabutik","street":"Godhemsgatan 25, ","postalCode":"414 68","city":"GÖTEBORG","legalName":"FATIH & MUSTAFA PIZZERIA HB","organisationNumber":"9696277590"}
{"name":"Åby Pizzeria & Kebab","url":"http://www.abypizzeria.se","street":"Frölundag. 35, ","postalCode":"431 44","city":"MÖLNDAL","legalName":"Anns Pizzeria AB","organisationNumber":"5568945074"}
{"name":"Eat and Drink","url":"http://eatanddrink.se","street":"Södra v. 77, ","postalCode":"412 53","city":"GÖTEBORG"}
{"name":"Noretti pizzeria & restaurang","url":"http://www.norettipizzeria.n.nu","street":"Donsö Hamnv. 25, ","postalCode":"430 82","city":"DONSÖ"}
{"name":"Briljant Pizzeria","street":"Safirg. 1, ","postalCode":"421 48","city":"VÄSTRA FRÖLUNDA"}
{"name":"Pizzeria Barolo","street":"St. Badhusg. 30, ","postalCode":"411 21","city":"GÖTEBORG","legalName":"Badhusgatan Resturang Kommanditbolag","organisationNumber":"9697060441"}
{"name":"Dantes Pizzeria","url":"http://www.dantespizzeria.se","street":"Värmlandsg. 20, ","postalCode":"413 28","city":"GÖTEBORG","legalName":"Pizzeria Montana Handelsbolag","organisationNumber":"9697745793"}
{"name":"Ibbe´s Pizzeria","street":"Postgången 1, ","postalCode":"433 34","city":"PARTILLE"}
{"name":"Papa Joe's Pizza & Pasta","street":"Sten Stureg. 28, ","postalCode":"411 39","city":"GÖTEBORG","legalName":"Papa Joe´s Pizza & Pasta i Göteborg Aktiebolag","organisationNumber":"5567488480"}
{"name":"Pizzeria Mamma Rosa","url":"http://www.pizzeriamammarosa.se/","street":"Lillhagsv. 39, ","postalCode":"422 43","city":"HISINGS BACKA"}
{"name":"Marmaris Pizza Kebab och Sallad","street":"Krokslätts Torg 4, ","postalCode":"431 37","city":"MÖLNDAL"}
{"name":"Pizzeria Contessa","url":"http://www.pizzeriacontessa.se","street":"Allmänna v. 42, ","postalCode":"414 60","city":"GÖTEBORG"}
{"name":"Pizzeria Lepanto","url":"http://www.lepanto.se","street":"Marklandsg. 1, ","postalCode":"414 77","city":"GÖTEBORG"}
{"name":"Restaurang & Pizzeria Iran","url":"https://www.facebook.com/pages/Restaurang-och-Pizzeria-Iran/132998006759316","street":"Stigbergsliden 3, ","postalCode":"414 63","city":"GÖTEBORG"}
{"name":"Herkules Pizzeria och Restaurang","street":"Brunnsbotorget 3, ","postalCode":"422 42","city":"HISINGS BACKA","legalName":"DLD i Göteborg AB","organisationNumber":"5566343462"}
{"name":"Pizzeria Favenzia i Skintebo","url":"http://favenzia.com/","street":"L. Skintebov. 4, ","postalCode":"427 34","city":"BILLDAL"}
{"name":"Sannegårdens Pizzeria","street":"Ahrenbergsg. 8, ","postalCode":"416 73","city":"GÖTEBORG","legalName":"Serdar Mehmet Handelsbolag","organisationNumber":"9697770759"}
{"name":"Johannebar","url":"http://www.johannebar.se","street":"Eklandag. 65, ","postalCode":"412 61","city":"GÖTEBORG"}
{"name":"Smycketorgets Pizza & Kebab","url":"https://www.facebook.com/Smycketorgets-Pizzeria-1154249577924059/?rf=126684864063030","street":"Smyckeg. 1, ","postalCode":"426 50","city":"VÄSTRA FRÖLUNDA","legalName":"MARILA AB","organisationNumber":"5590006176"}
{"name":"Old Town","url":"http://www.oldtown.se/","street":"Linnég. 38, ","postalCode":"413 04","city":"GÖTEBORG"}
{"name":"Harrys Gatukök & Pizzabutik","street":"G. Björlandav. 147, ","postalCode":"417 28","city":"GÖTEBORG"}
{"name":"Pizzeria Sanremo","url":"http://www.sanremo.se","street":"Nordhagsv. 28, ","postalCode":"423 34","city":"TORSLANDA"}
{"name":"Pizzeria Monaco","street":"Friggagatan 25A, ","postalCode":"416 64","city":"GÖTEBORG"}
{"name":"Il Vagabondo Pizzeria","street":"Förstamajgatan 5, ","postalCode":"415 10","city":"GÖTEBORG"}
{"name":"Laneko Allservice","street":"G. Riksv. 54, ","postalCode":"428 30","city":"KÅLLERED"}
{"name":"Joe Farelli's","url":"http://www.joefarelli.com","street":"Kungsportsavenyen 12, ","postalCode":"411 36","city":"GÖTEBORG","legalName":"Joe Farelli Aktiebolag","organisationNumber":"5563195493"}
{"name":"Il Vagabondo Pizzeria","street":"Förstamajgatan 5, ","postalCode":"415 10","city":"GÖTEBORG"}
{"name":"Nikolinas Bar, (Ryans Grillbar)","street":"Wieselgrensplatsen 9, ","postalCode":"417 17","city":"GÖTEBORG","legalName":"Nikolinas Grill o bar Handelsbolag","organisationNumber":"9697515667"}
{"name":"Mizgin Pizzeria","street":"Västergårdsv. 3, ","postalCode":"438 52","city":"RÄVLANDA"}
{"name":"Importgruvan AB","street":"Härryda Centrum 1, ","postalCode":"438 92","city":"HÄRRYDA","organisationNumber":"5566790266"}
{"name":"Cemal's Pizzeria","street":"Hammarkulletorget 23, ","postalCode":"424 37","city":"ANGERED"}
{"name":"Pizzabutik Rimini","street":"Fjärde långgatan 1, ","postalCode":"413 05","city":"GÖTEBORG"}
{"name":"Contro Pizzeria","street":"Köpenhamnsgatan 5, ","postalCode":"418 77","city":"GÖTEBORG"}
{"name":"Dr Forselius Pizzeria","street":"","postalCode":"413 26","city":"GÖTEBORG"}
{"name":"Restaurang & Pizzeria Timjan","url":"http://www.restaurangtimjan.se","street":"Brunnegårdsv. 11, ","postalCode":"433 32","city":"PARTILLE"}
{"name":"Pizzeria Roma Kebab","street":"Paradisv. 2, ","postalCode":"433 31","city":"PARTILLE"}
{"name":"Hjallbo Sinibads Kebab","street":"Bergsgårdsgärdet 80, ","postalCode":"424 32","city":"ANGERED"}
{"name":"Helin Restaurang & Pizzeria HB","street":"Göteborgsv. 23, ","postalCode":"431 30","city":"MÖLNDAL","legalName":"Helin Restaurang & Pizzeria Handelsbolag","organisationNumber":"9697640911"}
{"name":"Ninas Pizzeria","street":"Tuvev. 33, ","postalCode":"417 05","city":"GÖTEBORG"}
{"name":"Cyrano Vasa","url":"http://www.cyrano.se/meny/cyrano-vasa","street":"Viktoriagatan 26","postalCode":"411 25","city":"GÖTEBORG","legalName":"Aykania Handelsbolag","organisationNumber":"9697053156"}
{"name":"Pizzeria Villagio","url":"http://www.pizzeriavillagio.se","street":"Harald Hjärnesg. 15, ","postalCode":"417 20","city":"GÖTEBORG"}
{"name":"Odin's Pizzeria HB","street":"Odinsg. 23, ","postalCode":"411 03","city":"GÖTEBORG"}
{"name":"Pizzeria Matador","street":"Sanatorieg. 15, ","postalCode":"416 53","city":"GÖTEBORG"}
{"name":"Sörgårdens Bageri-Konditori-Pizzeria","street":"Södra v. 97, ","postalCode":"412 63","city":"GÖTEBORG"}
{"name":"Pizzeria Pärla","street":"Lisa Sass g. 18, ","postalCode":"422 53","city":"HISINGS BACKA"}
{"name":"Pizzeria Restaur. Mantovani","street":"Månadsg. 28, ","postalCode":"415 08","city":"GÖTEBORG"}
{"name":"Backa Pizza Plus","street":"Prologg. 14, ","postalCode":"422 41","city":"HISINGS BACKA","legalName":"Backa Pizza Plus Handelsbolag","organisationNumber":"9697636406"}
{"name":"Napoli Pizzeria","street":"Bögatan 46, ","postalCode":"412 72","city":"GÖTEBORG"}
{"name":"Rårörda Lingon","url":"http://www.pizzabutikgambero.se","street":"Slottsskogsg. 54, ","postalCode":"414 70","city":"GÖTEBORG","legalName":"RG Göteborg Handelsbolag","organisationNumber":"9697139476"}
{"name":"Freja Pizzeria","url":"http://www.frejapizzeria.se","street":"Frejaplan, ","postalCode":"433 62","city":"SÄVEDALEN"}
{"name":"Restaurang & Pizzeria Druvan","street":"Lindome, ","postalCode":"437 30","city":"LINDOME"}
{"name":"Restaurang Hemma Hos - Café Kök Bar","street":"Hökabergsvägen 1, ","postalCode":"438 34","city":"LANDVETTER","legalName":"Hemma hos ... i Landvetter Kommanditbolag","organisationNumber":"9697638139"}
{"name":"Maxi Grill & Pizzeria","street":"Moräng. 7, ","postalCode":"416 71","city":"GÖTEBORG","legalName":"sepideh Handelsbolag","organisationNumber":"9697471945"}
{"name":"Pizza Roma Sanatoriegatan","url":"http://www.romapizza.nu","street":"Sanatorieg. 15 B, ","postalCode":"416 53","city":"GÖTEBORG"}
{"name":"La cantina Pizza","street":"Ejderg. 10 E, ","postalCode":"416 68","city":"GÖTEBORG"}
{"name":"Restaurang Stensjön AB","url":"http://www.restaurangstensjon.se","street":"Tallkottegatan 1","postalCode":"431 36","city":"MÖLNDAL","legalName":"Stensjön Restaurang AB","organisationNumber":"5569748618"}
{"name":"Pizzeria Al Forno","street":"Januarig. 6, ","postalCode":"415 15","city":"GÖTEBORG"}
{"name":"Montazer Mehdi","url":"https://www.facebook.com/Ilonas-pizzeria-194591490874339/","street":"Hjuviks Bryggv. 18, ","postalCode":"423 40","city":"TORSLANDA"}
{"name":"Lilla Rancho Restaurang och Pizzeria","street":"Kaggeledstorget 1, ","postalCode":"416 74","city":"GÖTEBORG","legalName":"Handelsbolaget Claudios Tex-Mex","organisationNumber":"9697043413"}
{"name":"Januari Pizzeria","url":"https://www.facebook.com/pages/Komettorget-Pizzeria/157381460974724","street":"Komettorget 1, ","postalCode":"415 20","city":"GÖTEBORG"}
{"name":"Pizzeria Kibar","street":"Bärnstensg., ","postalCode":"426 52","city":"VÄSTRA FRÖLUNDA"}
{"name":"Smaskens Pizza Grill","url":"https://www.facebook.com/pages/Smaskens-Pizza-Grill/163647510346866","street":"Stenungsundsg. 2, ","postalCode":"416 74","city":"GÖTEBORG"}
{"name":"Sancero Pizzeria","url":"http://www.sanceropizzeria.se/","street":"Flygfältsg. 33, ","postalCode":"423 37","city":"TORSLANDA","legalName":"Handelsbolag Sancero pizzeria i Torslanda","organisationNumber":"9697344696"}
{"name":"Sorelle Bistro","url":"http://www.sorellebistro.se","street":"Hovås Allé 12, ","postalCode":"436 53","city":"HOVÅS","legalName":"Utsökt Mat i Göteborg AB","organisationNumber":"5567570964"}
{"name":"Stars and stripes","url":"http://www.starsnstripes.se","street":"Klangfärgsg. 3, ","postalCode":"426 52","city":"VÄSTRA FRÖLUNDA"}
{"name":"Viva La Focaccia AB","street":"Magasinsg. 3, ","postalCode":"411 18","city":"GÖTEBORG","organisationNumber":"5568018369"}
{"name":"Da Vinci","url":"http://www.restaurangdavinci.se","street":"Nordenskiöldsg. 23, ","postalCode":"413 09","city":"GÖTEBORG"}
{"name":"Pizzeria Pärla","street":"Lisa Sass g. 18, ","postalCode":"422 53","city":"HISINGS BACKA"}
{"name":"Donsö Hamnpizzeria & Café","street":"Hamnen Donsö, ","postalCode":"430 82","city":"DONSÖ"}
{"name":"Darias Pizzeria","street":"Stigbergsliden 18, ","postalCode":"414 63","city":"GÖTEBORG"}
{"name":"Valentino Pizzeria","street":"Slättadammsg. 1 A, ","postalCode":"417 27","city":"GÖTEBORG"}
{"name":"Restaurang Frati","url":"http://www.restaurangfrati.se/","street":"Barnhusgatan 1","postalCode":"411 02","city":"GÖTEBORG","legalName":"FRATI DELIKATESSER KOMMANDITBOLAG","organisationNumber":"9696812016"}
{"name":"Valentino Pizzeria","street":"Slättadammsg. 1 A, ","postalCode":"417 27","city":"GÖTEBORG"}
{"name":"Pizzeria 13","street":"Chalmersg. 13, ","postalCode":"411 35","city":"GÖTEBORG"}
{"name":"Cyrano Eriksberg","url":"http://www.cyrano.se/meny/cyrano-eriksberg","street":"Danagatan 1","postalCode":"418 76","city":"GÖTEBORG","legalName":"Arnesa Handelsbolag","organisationNumber":"9697579739"}
{"name":"Pizzabutiken Bruno Franco","street":"Olivedalsg. 12, ","postalCode":"413 10","city":"GÖTEBORG"}
{"name":"BOV - Bröd & Ved","street":"Gibraltargatan 20","postalCode":"411 32","city":"GÖTEBORG","legalName":"Naal Handelsbolag","organisationNumber":"9697518356"}
{"name":"Göteborgs Kött och Pizzagrossist AB","street":"Slakthusgatan, ","postalCode":"415 02","city":"GÖTEBORG"}
{"name":"Gambero Pizzabutik","url":"http://www.pizzabutikgambero.se","street":"Övre Husarg. 5, ","postalCode":"411 22","city":"GÖTEBORG"}
{"name":"Ombra Ristorante Pizzeria","url":"http://gastrogate.com","street":"Plantageg. 11, ","postalCode":"413 05","city":"GÖTEBORG","legalName":"OMBRA RESTAURANT AB","organisationNumber":"5568441108"}
{"name":"Porten's Pizza","url":"http://www.portenspizza.se","street":"Göteborgsv. 1, ","postalCode":"431 30","city":"MÖLNDAL","legalName":"Mehdi&Hadi Handelsbolag","organisationNumber":"9696937045"}
{"name":"Sannegårdens Pizzeria","url":"http://sannegarden.letuseat.se/","street":"Ö. Eriksbergsg. 24, ","postalCode":"417 63","city":"GÖTEBORG","legalName":"Pizzahome Göteborg AB","organisationNumber":"5568891666"}
{"name":"Pizzeria Sanremo","url":"http://www.sanremo.se","street":"Nordhagsv. 28, ","postalCode":"423 34","city":"TORSLANDA"}
{"name":"Tynnereds Pizzeria","url":"https://sv-se.facebook.com/Tynnered-Pizzeria-452366971456628/","street":"L. Grevegårdsv. 1, ","postalCode":"426 55","city":"VÄSTRA FRÖLUNDA"}
{"name":"Slottsskogens Pizzeria","url":"http://www.slottsskogenspizzeria.com","street":"Rosengatan 13","postalCode":"413 10","city":"GÖTEBORG","legalName":"Slottsskogens Pizza Göteborg Handelsbolag","organisationNumber":"9697633684"}
{"name":"Pizzeria Mervana","street":"Väderbodarna 1, ","postalCode":"418 35","city":"GÖTEBORG"}
{"name":"Jungfruplatsens Pizza & Kebab","url":"http://www.jungfruplatsenspizzeria.se/","street":"Jungfruplatsen 2","postalCode":"431 48","city":"MÖLNDAL","legalName":"Jungfruplatsens Pizzeria AB","organisationNumber":"5569264186"}
{"name":"Charlies Änglar","url":"http://www.charliesanglar.net","street":"Vasaplatsen 2, ","postalCode":"411 34","city":"GÖTEBORG"}
{"name":"Pizzeria La Mama","street":"Klippan 1, ","postalCode":"414 51","city":"GÖTEBORG"}
{"name":"I Love pizza - Allum","street":"Kyrktorget 19, ","postalCode":"433 33","city":"PARTILLE","legalName":"I Love Pizza Allum AB","organisationNumber":"5590019807"}
{"name":"Da Mario Pizzabutik","street":"Frölunda torg, ","postalCode":"421 44","city":"VÄSTRA FRÖLUNDA"}
{"name":"Tayyar Pizzeria","street":"S. Viktoriag. 46, ","postalCode":"411 30","city":"GÖTEBORG"}
{"name":"Pizzeria Campus","street":"Gibraltarg. 54, ","postalCode":"412 58","city":"GÖTEBORG"}
{"name":"Pizzeria Snipen","street":"Atmosfärg. 33, ","postalCode":"415 21","city":"GÖTEBORG"}
{"name":"Rucola Restaurang Bar & Pizzeria","street":"Frejag. 9, ","postalCode":"431 44","city":"MÖLNDAL"}
{"name":"Jamin Pizzeria","street":"Drakegatan 8, ","postalCode":"412 50","city":"GÖTEBORG","legalName":"L.Y.P. Era AB","organisationNumber":"5566891692"}
{"name":"Vitaby Gatukök och pizzeria","street":"Hälleflundreg. 12, ","postalCode":"426 58","city":"VÄSTRA FRÖLUNDA","legalName":"Smart Energy Sweden Vitaby AB","organisationNumber":"5563557213"}
{"name":"Café & Pizzeria i Sannegården","street":"Artillerig. 8 D, ","postalCode":"415 03","city":"GÖTEBORG"}
{"name":"Pizzeria Favenzia i Skintebo","url":"http://favenzia.com/","street":"L. Skintebov. 4, ","postalCode":"427 34","city":"BILLDAL"}
{"name":"Pizzeria Vallentin i Kungsbacka","url":"http://www.pizzeriavalentin.se","street":"Grinnekulleg. 227, ","postalCode":"417 42","city":"GÖTEBORG"}
{"name":"Åby Pizzeria & Kebab","url":"http://www.abypizzeria.se","street":"Frölundag. 35, ","postalCode":"431 44","city":"MÖLNDAL","legalName":"Anns Pizzeria AB","organisationNumber":"5568945074"}
{"name":"Pizzeria Villagio","url":"http://www.pizzeriavillagio.se","street":"Gibraltarg. 36, ","postalCode":"412 58","city":"GÖTEBORG","legalName":"Pizzeria Ramon Handelsbolag","organisationNumber":"9697401355"}
{"name":"Sicilus Pizza","street":"Statareg. 2 E, ","postalCode":"417 15","city":"GÖTEBORG"}
{"name":"Ristorante Monte Bianco","url":"http://www.restaurangmontebianco.se","street":"Mölndalsv. 3, ","postalCode":"412 63","city":"GÖTEBORG"}
{"name":"Öjersjö Pizzeria","url":"https://www.facebook.com/%C3%96jersj%C3%B6-Pizzeria-124660627548405/","street":"Ekeblads v. 1, ","postalCode":"433 51","city":"ÖJERSJÖ","legalName":"Didars Restaurang & pizzeria Handelsbolag","organisationNumber":"9697233816"}
{"name":"Högsbo Pizza","street":"Högsbog. 13, ","postalCode":"414 75","city":"GÖTEBORG"}
{"name":"Tano´s Restaurang","street":"Prästgårdsängen 1, ","postalCode":"412 71","city":"GÖTEBORG"}
{"name":"I Love pizza - Allum","street":"Kyrktorget 19, ","postalCode":"433 33","city":"PARTILLE","legalName":"I Love Pizza Allum AB","organisationNumber":"5590019807"}
{"name":"Tio Pepe","url":"http://www.restaurangtiopepe.se","street":"Sten Stureg. 17, ","postalCode":"412 52","city":"GÖTEBORG","legalName":"Gasolina AB","organisationNumber":"5567600605"}
{"name":"Dorado Pizza, Kebab och Sallader","url":"http://www.doradopizzeria.se","street":"Fridkullag. 20 A, ","postalCode":"412 62","city":"GÖTEBORG","legalName":"Alsamano Handelsbolag","organisationNumber":"9697398478"}
{"name":"Pizzeria Kibar","street":"Bärnstensg. 69, ","postalCode":"426 52","city":"VÄSTRA FRÖLUNDA","legalName":"Pizzeria Kibar Kommanditbolag","organisationNumber":"9696616326"}
{"name":"Tio Pepe","url":"http://www.restaurangtiopepe.se","street":"Sten Stureg. 17, ","postalCode":"412 52","city":"GÖTEBORG","legalName":"Gasolina AB","organisationNumber":"5567600605"}
{"name":"Pizza Pronto","street":"Lantmätareg. 12 D, ","postalCode":"417 06","city":"GÖTEBORG"}
{"name":"Café & Pizzeria i Sannegården","street":"Artillerig. 8 D, ","postalCode":"415 03","city":"GÖTEBORG"}
{"name":"Stars and stripes","url":"http://www.starsnstripes.se","street":"Klangfärgsg. 3, ","postalCode":"426 52","city":"VÄSTRA FRÖLUNDA"}
{"name":"Porten's Pizza","url":"http://www.portenspizza.se","street":"Göteborgsv. 1, ","postalCode":"431 30","city":"MÖLNDAL","legalName":"Mehdi&Hadi Handelsbolag","organisationNumber":"9696937045"}
{"name":"Old Persian","url":"http://www.oldpersian.se/","street":"Torgg. 4, ","postalCode":"411 05","city":"GÖTEBORG","legalName":"OLD PERSIEN AB","organisationNumber":"5569927238"}
{"name":"Pizzeria 13","street":"Chalmersg. 13, ","postalCode":"411 35","city":"GÖTEBORG"}
{"name":"Cemil Güven","street":"Regementsv. 11, ","postalCode":"415 28","city":"GÖTEBORG"}
{"name":"Björkö Pizzeria","url":"http://www.bjorko-pizzeria.se/meny.php","street":"Skarviksvägen 10","postalCode":"475 37","city":"BOHUS-BJÖRKÖ","legalName":"Björkö Pizzeria Handelsbolag","organisationNumber":"9697419712"}
{"name":"Pizzeria Vallentin i Kungsbacka","url":"http://www.pizzeriavalentin.se","street":"Grinnekulleg. 227, ","postalCode":"417 42","city":"GÖTEBORG"}
{"name":"Pizzeria Pomodoro","url":"http://www.pomodoro.se/","street":"Welanderg. 58, ","postalCode":"416 56","city":"GÖTEBORG","legalName":"Pizzeria Pomodoro i Göteborg Kommanditbolag","organisationNumber":"9697023357"}
{"name":"Bordet Restaurang","url":"http://www.restaurangbordet.se","street":"Angereds Torg 1, ","postalCode":"424 65","city":"ANGERED","legalName":"Restaurang Bordet AB","organisationNumber":"5568036601"}
{"name":"Abbes Gatukök/Sibylla/Crepes och Waffles","url":"http://www.sibylla.se/","street":"Järntorget 7","postalCode":"413 04","city":"GÖTEBORG","legalName":"Erciyes Pizza 2 AB","organisationNumber":"5566010988"}
{"name":"Dr Forselius Pizzeria","street":"","postalCode":"413 26","city":"GÖTEBORG"}
{"name":"La Venezia Pizzeria Restaurang","street":"Danska v. 87, ","postalCode":"416 59","city":"GÖTEBORG"}
{"name":"Lindholmens Pizzeria","url":"http://www.lindholmenspizzeria.se/","street":"Lindholmsv. 1, ","postalCode":"417 57","city":"GÖTEBORG"}
{"name":"Pizza Roma Sanatoriegatan","url":"http://www.romapizza.nu","street":"Sanatorieg. 15 B, ","postalCode":"416 53","city":"GÖTEBORG"}
{"name":"Stabbe Pizzeria","url":"http://www.stabbepizzeria.se","street":"Stabbetorget 4, ","postalCode":"416 80","city":"GÖTEBORG"}
{"name":"Il Vagabondo Pizzeria","street":"Förstamajgatan 5, ","postalCode":"415 10","city":"GÖTEBORG"}
{"name":"Opalpizzerian","street":"Opaltorget, ","postalCode":"421 62","city":"VÄSTRA FRÖLUNDA","legalName":"Opaltorgets Pizza Restaurang AB","organisationNumber":"5568382583"}
{"name":"Pizza Pronto","street":"Lantmätareg. 12 D, ","postalCode":"417 06","city":"GÖTEBORG"}
{"name":"Mizgin Pizzeria","street":"Västergårdsv. 3, ","postalCode":"438 52","city":"RÄVLANDA"}
{"name":"Sb Taxi I Göteborg","street":"Halvardsg. 2, ","postalCode":"417 28","city":"GÖTEBORG"}
{"name":"Cyrano Kungsten","url":"http://www.cyrano.se/meny/cyrano-kungssten","street":"Långedragsvägen 23","postalCode":"426 71","city":"VÄSTRA FRÖLUNDA","legalName":"Ivonarys Handelsbolag","organisationNumber":"9697503358"}
{"name":"Pizzeria Suverän","street":"Kanelg. 2, ","postalCode":"424 39","city":"ANGERED","legalName":"P.K.S. Hassan Handelsbolag","organisationNumber":"9697238658"}
{"name":"Gatsby Pizzeria","street":"Långlyckev. 12, ","postalCode":"436 43","city":"ASKIM","legalName":"Arvin Pizzeria Aktiebolag","organisationNumber":"5590021910"}
{"name":"Flatås Krog & Pizzeria","url":"https://www.facebook.com/pages/Flat%C3%A5s-Krog-Pizzeria/185098631500460","street":"Synhållsg. 16, ","postalCode":"421 73","city":"VÄSTRA FRÖLUNDA"}
{"name":"Reza Pizzeria","street":"Andra Långg. 53, ","postalCode":"413 27","city":"GÖTEBORG"}
{"name":"Pizzeria Sera","url":"http://www.pizzeriasera.se/","street":"Nansensg. 1, ","postalCode":"417 19","city":"GÖTEBORG"}
{"name":"Freja Pizzeria","url":"http://www.frejapizzeria.se","street":"Frejaplan, ","postalCode":"433 62","city":"SÄVEDALEN"}
{"name":"Harrys Gatukök & Pizzabutik","street":"G. Björlandav. 147, ","postalCode":"417 28","city":"GÖTEBORG"}
{"name":"Pizzeria Casablanca","url":"http://www.casablancapizza.se","street":"Lillhagsparken 17C","postalCode":"422 50","city":"HISINGS BACKA"}
{"name":"Restaurang Hemma Hos - Café Kök Bar","street":"Hökabergsvägen 1, ","postalCode":"438 34","city":"LANDVETTER","legalName":"Hemma hos ... i Landvetter Kommanditbolag","organisationNumber":"9697638139"}
{"name":"Pizzeria Örn","url":"http://ornpizzeria.se/majorna/","street":"Bang. 22, ","postalCode":"414 63","city":"GÖTEBORG"}
{"name":"Tayyar Pizzeria","street":"S. Viktoriag. 46, ","postalCode":"411 30","city":"GÖTEBORG"}
{"name":"Restaurang & Pizzeria Genovese","street":"Järnringen 20, ","postalCode":"433 30","city":"PARTILLE"}
{"name":"Grand Pizzeria","street":"Fredåsg. 22, ","postalCode":"431 67","city":"MÖLNDAL","legalName":"Helin Restaurang & Pizzeria Handelsbolag","organisationNumber":"9697640911"}
{"name":"Gigi Bar & Kök","url":"http://www.gigi.dinstudio.se","street":"Radiotorget 5, ","postalCode":"421 33","city":"VÄSTRA FRÖLUNDA"}
{"name":"Ombra Ristorante Pizzeria","url":"http://gastrogate.com","street":"Plantageg. 11, ","postalCode":"413 05","city":"GÖTEBORG","legalName":"OMBRA RESTAURANT AB","organisationNumber":"5568441108"}
{"name":"Vita Huset Pizzeria & Salladsbar","url":"http://vitahusetpizzeria.se","street":"Katrinebergsgatan 6","postalCode":"431 61","city":"MÖLNDAL","legalName":"Vita huset pizzeria & salladsbar Handelsbolag","organisationNumber":"9697626498"}
{"name":"Slice Pizzeria","url":"http://slicepizzeria.se","street":"Artillerig. 12, ","postalCode":"415 03","city":"GÖTEBORG","legalName":"Norder Slice AB","organisationNumber":"5569447468"}
{"name":"Jamin Pizzeria","street":"Drakegatan 8, ","postalCode":"412 50","city":"GÖTEBORG","legalName":"L.Y.P. Era AB","organisationNumber":"5566891692"}
{"name":"Nobel Pizzeria","street":"Nobelg. 29, ","postalCode":"416 57","city":"GÖTEBORG"}
{"name":"La Piazza","url":"http://www.lapiazzapizzeria.se","street":"Distansg. 23 A, ","postalCode":"421 73","city":"VÄSTRA FRÖLUNDA"}
{"name":"Juventus Pizzeria 2","url":"https://www.facebook.com/JuventusPizzeria2","street":"Saffransg. 27, ","postalCode":"424 42","city":"ANGERED"}
{"name":"Pizzeria, Dinos","url":"https://www.facebook.com/Dinos-Pizzeria-L%C3%A4nsmanstorget-2-800094473338122/?rf=186748711352192","street":"Länsmanstorget 2, ","postalCode":"418 40","city":"GÖTEBORG"}
{"name":"Pizzeria Victorias Palace","url":"http://thaisamila.se/","street":"Delsjöv. 7, ","postalCode":"412 66","city":"GÖTEBORG","legalName":"Thai Samila AB","organisationNumber":"5568810559"}
{"name":"Pizza4you","url":"http://www.pizza4you.nu","street":"Krokslätts Parkg. 57, ","postalCode":"431 68","city":"MÖLNDAL"}
{"name":"Druvan Pizzeria","street":"Almåsgången 1, ","postalCode":"437 30","city":"LINDOME","legalName":"Druvan Pizzeria Kommanditbolag","organisationNumber":"9697343292"}
{"name":"Haga Pizzeria","url":"http://www.hagapizzeria.com","street":"S. Allég. 2 B, ","postalCode":"413 01","city":"GÖTEBORG","legalName":"Haga Pizzeria Handelsbolag","organisationNumber":"9697667419"}
{"name":"Yar Pizzeria","street":"Nordenskiöldsg. 25, ","postalCode":"413 09","city":"GÖTEBORG"}
{"name":"La cantina Pizza","street":"Ejderg. 10 E, ","postalCode":"416 68","city":"GÖTEBORG"}
{"name":"Villa Aslan AB","url":"http://www.cafevillan.com/","street":"Rubing. 32, ","postalCode":"421 53","city":"VÄSTRA FRÖLUNDA","organisationNumber":"5566265400"}
{"name":"Pizzabageriet","street":"Prinsg. 4, ","postalCode":"413 05","city":"GÖTEBORG","legalName":"Pizzabageriet Prinsgatan Handelsbolag","organisationNumber":"9697739564"}
{"name":"Sokrates Taverna","url":"http://www.sokratestaverna.se","street":"Krokslätts Parkg. 71, ","postalCode":"431 68","city":"MÖLNDAL","legalName":"Sokrates AB","organisationNumber":"5567068118"}
{"name":"Restaurang Afamia","street":"Reutersg. 2, ","postalCode":"413 20","city":"GÖTEBORG","legalName":"AFAMIA Handelsbolag","organisationNumber":"9697047562"}
{"name":"Pizzeria La Mama","street":"Klippan 1, ","postalCode":"414 51","city":"GÖTEBORG"}
{"name":"Reza Pizzeria","street":"Andra Långg. 53, ","postalCode":"413 27","city":"GÖTEBORG"}
{"name":"Galliano Kök & Bar","street":"Masthuggstorget 3, ","postalCode":"413 27","city":"GÖTEBORG"}
{"name":"Bordet Restaurang","url":"http://www.restaurangbordet.se","street":"Angereds Torg 1, ","postalCode":"424 65","city":"ANGERED","legalName":"Restaurang Bordet AB","organisationNumber":"5568036601"}
{"name":"Vallhamra Pizzeria & Grill","street":"Vallhamra torg 2, ","postalCode":"433 65","city":"SÄVEDALEN","legalName":"Vallhamra Pizzeria & Grill Handelsbolag","organisationNumber":"9697159805"}
{"name":"Deniz Pizzeria, Kebab & Salladsbar","url":"http://www.denizpizza.se","street":"Bromeliusg. 9 A, ","postalCode":"416 73","city":"GÖTEBORG"}
{"name":"Piccolo Gondoliere AB","url":"http://www.elcorazon.se","street":"St. Saluhallen, ","postalCode":"411 17","city":"GÖTEBORG","organisationNumber":"5565966727"}
{"name":"Pizzeria Contessa","url":"http://www.pizzeriacontessa.se","street":"Allmänna v. 42, ","postalCode":"414 60","city":"GÖTEBORG"}
{"name":"Göteborgs Kött och Pizzagrossist AB","street":"Slakthusgatan, ","postalCode":"415 02","city":"GÖTEBORG"}
{"name":"Pizzabutik Pärlan","street":"Vintervädersg. 1, ","postalCode":"418 36","city":"GÖTEBORG"}
{"name":"Hjallbo Sinibads Kebab","street":"Bergsgårdsgärdet 80, ","postalCode":"424 32","city":"ANGERED"}
{"name":"Bordet Restaurang","url":"http://www.restaurangbordet.se","street":"Angereds Torg 1, ","postalCode":"424 65","city":"ANGERED","legalName":"Restaurang Bordet AB","organisationNumber":"5568036601"}
{"name":"Pizzeria Voanew KB","street":"L. Regementsv. 16, ","postalCode":"415 27","city":"GÖTEBORG","legalName":"Pizzeria VOANEW Handelsbolag","organisationNumber":"9697015254"}
{"name":"Perlan Restaurang Bar och Pizza","url":"http://www.restaurangperla.se","street":"G. Riksv. 54, ","postalCode":"428 30","city":"KÅLLERED","legalName":"Royal White European I.N.C. AB","organisationNumber":"5566004676"}
{"name":"EL Figaro Pizzeria","url":"http://www.onneredspizzeria.se","street":"Klåveskärsg. 2 A, ","postalCode":"421 59","city":"VÄSTRA FRÖLUNDA"}
{"name":"Pizzeria Barco","url":"http://www.pizzabarco.se","street":"Hälleflundreg. 16, ","postalCode":"426 58","city":"VÄSTRA FRÖLUNDA","legalName":"Razva AB","organisationNumber":"5569863979"}
{"name":"Pizzeria Roma Kebab","street":"Lexbyvägen 19, ","postalCode":"433 31","city":"PARTILLE"}
{"name":"Perlan Restaurang Bar och Pizza","url":"http://www.restaurangperla.se","street":"G. Riksv. 54, ","postalCode":"428 30","city":"KÅLLERED","legalName":"Royal White European I.N.C. AB","organisationNumber":"5566004676"}
{"name":"Gubbero PizzaBar","url":"http://www.pizzabar.se","street":"N. Gubberog. 16, ","postalCode":"416 63","city":"GÖTEBORG"}
{"name":"Systrarna Olssons Våffelbageri","url":"http://www.liseberg.se","street":"Örgrytev. 5, ","postalCode":"412 51","city":"GÖTEBORG"}
{"name":"Eklanda Krog och Pizzeria","url":"http://eklandakrog.se","street":"Eklanda Gård 2, ","postalCode":"431 59","city":"MÖLNDAL","legalName":"Eklanda Restaurang AB","organisationNumber":"5568008196"}
{"name":"Vickies Restaurang och Bar","street":"Aschebergsg. 40, ","postalCode":"411 33","city":"GÖTEBORG","legalName":"VICKIS RESTAURANG HANDELSBOLAG","organisationNumber":"9696673798"}
{"name":"Ruffino Pizza och Kebab","url":"http://pizza-meny.se/","street":"Allmänna v. 15, ","postalCode":"414 60","city":"GÖTEBORG","legalName":"RUFFINO HANDELSBOLAG","organisationNumber":"9696953190"}
{"name":"Pizzeria Lepanto","url":"http://www.lepanto.se","street":"Marklandsg. 1, ","postalCode":"414 77","city":"GÖTEBORG"}
{"name":"Bekal Pizzeria","street":"Artillerig. 8 A, ","postalCode":"415 03","city":"GÖTEBORG"}
{"name":"Knippla Pizza","street":"Källöv. 3, ","postalCode":"475 51","city":"KÄLLÖ-KNIPPLA"}
{"name":"Solsidan Restaurang & Bistro","street":"Metodv. 2 A, ","postalCode":"435 33","city":"MÖLNLYCKE"}
{"name":"Portofino Mat & Dryck","url":"http://www.portofino.se","street":"Lodjursv. 4, ","postalCode":"433 50","city":"ÖJERSJÖ","legalName":"CAMS AB","organisationNumber":"5565202768"}
{"name":"Restaurang Alanya´s","url":"http://www.alanyas.se","street":"Braheg. 6, ","postalCode":"415 01","city":"GÖTEBORG"}
{"name":"Skafferiet Coffee Bar","url":"http://www.trattoriatredici.com/","street":"Västgötag. 9, ","postalCode":"411 39","city":"GÖTEBORG","legalName":"Via Aveny Aktiebolag","organisationNumber":"5565401972"}
{"name":"Pad Thai Restaurang","street":"Björlanda Kile, ","postalCode":"423 61","city":"TORSLANDA"}
{"name":"Grimmereds Pizzeria","url":"http://www.grimmeredskrog.se","street":"Grimmeredsvägen 99","postalCode":"426 69","city":"VÄSTRA FRÖLUNDA"}
{"name":"Lillebygrillen","url":"http://www.lillebygrillen.se","street":"Kråketegen 29, ","postalCode":"423 51","city":"TORSLANDA","legalName":"Lilleby Fastighets AB","organisationNumber":"5567113757"}
{"name":"Pizzeria La Strada","url":"http://www.pizzerialastrada.se","street":"Almv. 1, ","postalCode":"437 40","city":"LINDOME","legalName":"Pizzeria La Strada Handelsbolag","organisationNumber":"9697006733"}
{"name":"Kyrkbyns Pizzeria","street":"","postalCode":"418 73","city":"GÖTEBORG"}
{"name":"Lasse Majas Krog","url":"http://www.lassemajaskrog.se","street":"Skårsg. 8, ","postalCode":"412 69","city":"GÖTEBORG","legalName":"Musselbunken AB","organisationNumber":"5566092887"}
{"name":"Corpus pizzeria","url":"http://www.corpuspizzeria.se","street":"Kvarnbyg. 45, ","postalCode":"431 34","city":"MÖLNDAL"}
{"name":"Sörgårdens Bageri-Konditori-Pizzeria","street":"Södra v. 97, ","postalCode":"412 63","city":"GÖTEBORG"}
{"name":"Sannegårdens Pizzeria","url":"http://www.sannegardens.se","street":"Gibraltarg. 52, ","postalCode":"412 58","city":"GÖTEBORG"}
{"name":"Hempizza","url":"http://www.hempizza.gastrogate.com/","street":"Konditoriv. 1, ","postalCode":"437 33","city":"LINDOME"}
{"name":"Lilla Restaurangen","url":"http://www.lillarestaurangen.se","street":"Redbergsv. 8, ","postalCode":"416 65","city":"GÖTEBORG"}
{"name":"Zagros Pizzeria & Gatukök","street":"Vaniljg. 1, ","postalCode":"424 45","city":"ANGERED","legalName":"Juventus pizzeria och Gatukök Handelsbolag","organisationNumber":"9696882829"}
{"name":"Old Persian","url":"http://www.oldpersian.se/","street":"Torgg. 4, ","postalCode":"411 05","city":"GÖTEBORG","legalName":"OLD PERSIEN AB","organisationNumber":"5569927238"}
{"name":"Pizzeria Barolo","street":"St. Badhusg. 30, ","postalCode":"411 21","city":"GÖTEBORG","legalName":"Badhusgatan Resturang Kommanditbolag","organisationNumber":"9697060441"}
{"name":"Henkes Pizzeria","street":"Haguddsv. 7, ","postalCode":"435 39","city":"MÖLNLYCKE"}
{"name":"Melli Pizzeria","url":"https://www.facebook.com/pages/Melli-Pizzeria/193160670706122","street":"Älvsborgsg. 29, ","postalCode":"414 72","city":"GÖTEBORG","legalName":"TUGBA PIZZERIA Handelsbolag","organisationNumber":"9697365246"}
{"name":"Dr. Fries Pizzeria","street":"Doktor fries torg, ","postalCode":"413 23","city":"GÖTEBORG","legalName":"Dogan Pizzeria Handelsbolag","organisationNumber":"9697676998"}
{"name":"S:t Pauli Pizzeria","url":"http://www.stpaulipizzeria.se","street":"Karlag. 19 B, ","postalCode":"416 61","city":"GÖTEBORG"}
{"name":"Pizzeria Bella","street":"Herkulesg. 38, ","postalCode":"417 01","city":"GÖTEBORG"}
{"name":"Eat and Drink","url":"http://eatanddrink.se","street":"Södra v. 77, ","postalCode":"412 53","city":"GÖTEBORG"}
{"name":"Roma Pizza","street":"S:t Paulig. 18, ","postalCode":"416 60","city":"GÖTEBORG"}
{"name":"Pizzeria Snipen","street":"Atmosfärg. 33, ","postalCode":"415 21","city":"GÖTEBORG"}
{"name":"Sjöporten Restaurang AB","url":"http://sjoporten5.se/","street":"Sjöporten 5, ","postalCode":"417 64","city":"GÖTEBORG","organisationNumber":"5590023536"}
{"name":"Flintston","url":"http://www.flintston.se","street":"Swedenborgsg. 1, ","postalCode":"417 05","city":"GÖTEBORG","legalName":"Benyamin Göteborg AB","organisationNumber":"5568559578"}
{"name":"Stefans Bar & Kök","street":"Järnbrotts Prästv. 7 D, ","postalCode":"421 47","city":"VÄSTRA FRÖLUNDA"}
{"name":"I Love Pizza - Utby","street":"Österlyckan 1, ","postalCode":"415 07","city":"GÖTEBORG","legalName":"Utbys Pizzeria AB","organisationNumber":"5568241680"}
{"name":"Joe Farelli's","url":"http://www.joefarelli.com","street":"Kungsportsavenyen 12, ","postalCode":"411 36","city":"GÖTEBORG","legalName":"Joe Farelli Aktiebolag","organisationNumber":"5563195493"}
{"name":"Pizzabutik Italia","url":"http://pizzaitalia.se/","street":"Stobéeg. 6, ","postalCode":"416 53","city":"GÖTEBORG"}
{"name":"Cafe Pomerans Pizzeria & Restaurang","url":"https://sv-se.facebook.com/CafePomerns","street":"Blåsvädersg. 12, ","postalCode":"418 32","city":"GÖTEBORG"}
{"name":"Pizzeria Vallentin i Kungsbacka","url":"http://www.pizzeriavalentin.se","street":"Grinnekulleg. 227, ","postalCode":"417 42","city":"GÖTEBORG"}
{"name":"Kungsgatan 19","url":"http://www.kungsgatan19.se/","street":"Kungsg. 19, ","postalCode":"411 19","city":"GÖTEBORG"}
{"name":"Hönö Pizzeria","url":"http://www.honopizzeria.se","street":"Öckeröv. 3, ","postalCode":"475 42","city":"HÖNÖ","legalName":"KEF Pizzeria Handelsbolag","organisationNumber":"9697735034"}
{"name":"Pizzeria Libiza","street":"Artillerig. 12 B, ","postalCode":"415 03","city":"GÖTEBORG"}
{"name":"Peoples Homes AB","street":"Hängestensv. 60, ","postalCode":"421 67","city":"VÄSTRA FRÖLUNDA","organisationNumber":"5567234561"}
{"name":"Deniz Pizzeria, Kebab & Salladsbar","url":"http://www.denizpizza.se","street":"Bromeliusg. 9 A, ","postalCode":"416 73","city":"GÖTEBORG"}
{"name":"Ibbe´s Pizzeria","street":"Postgången 1, ","postalCode":"433 34","city":"PARTILLE"}
{"name":"Cemal's Pizzeria","street":"Hammarkulletorget 23, ","postalCode":"424 37","city":"ANGERED"}
{"name":"Pizzeria Class","url":"http://www.pizzeriaclass.se","street":"Ångaren indias gata, ","postalCode":"417 60","city":"GÖTEBORG"}
{"name":"Grimmereds Pizzeria","street":"Grimmeredsvägen 99, ","postalCode":"426 69","city":"VÄSTRA FRÖLUNDA","legalName":"Grimmereds Livs Kommanditbolag","organisationNumber":"9697520774"}
{"name":"Pizzeria Livia","url":"https://www.facebook.com/pages/Pizzeria-Livia/204386126241477","street":"Ostindiefararen 43, ","postalCode":"417 65","city":"GÖTEBORG"}
{"name":"Högsbo Pizza","street":"Högsbog. 13, ","postalCode":"414 75","city":"GÖTEBORG"}
{"name":"Pizza Roma Sanatoriegatan","url":"http://www.romapizza.nu","street":"Sanatorieg. 15 B, ","postalCode":"416 53","city":"GÖTEBORG"}
{"name":"Sokrates Taverna","url":"http://www.sokratestaverna.se","street":"Krokslätts Parkg. 71, ","postalCode":"431 68","city":"MÖLNDAL","legalName":"Sokrates AB","organisationNumber":"5567068118"}
{"name":"Pizzeria Milano","street":"Artillerig. 8 D, ","postalCode":"415 03","city":"GÖTEBORG"}
{"name":"La Venezia Pizza Restaurang","street":"Danska v. 97, ","postalCode":"416 59","city":"GÖTEBORG"}
{"name":"La Vera Pizzeria","street":"Centralv. 13, ","postalCode":"435 30","city":"MÖLNLYCKE","legalName":"Aso 3 AB","organisationNumber":"5590101100"}
{"name":"Olympia Pizzeria","street":"Lagerströmsplatsen 2, ","postalCode":"416 47","city":"GÖTEBORG"}
{"name":"Dr. Fries Pizzeria","street":"Doktor fries torg, ","postalCode":"413 23","city":"GÖTEBORG","legalName":"Dogan Pizzeria Handelsbolag","organisationNumber":"9697676998"}
{"name":"Pizzeria Monaco","street":"Friggagatan 25A, ","postalCode":"416 64","city":"GÖTEBORG"}
{"name":"Smaskens Pizza Grill","url":"https://www.facebook.com/pages/Smaskens-Pizza-Grill/163647510346866","street":"Stenungsundsg. 2, ","postalCode":"416 74","city":"GÖTEBORG"}
{"name":"Sannegården Pizzeria","street":"Skanstorget 2, ","postalCode":"411 22","city":"GÖTEBORG","legalName":"Robin Mila PIZZERIA Handelsbolag","organisationNumber":"9697785393"}
{"name":"Nisses Pizzeria AB","street":"Kållareds Centrum, ","postalCode":"428 32","city":"KÅLLERED"}
{"name":"Göteborgs Kött och Pizzagross","street":"Slakthusg. 8, ","postalCode":"415 02","city":"GÖTEBORG"}
{"name":"Pizzeria 13","street":"Chalmersg. 13, ","postalCode":"411 35","city":"GÖTEBORG"}
{"name":"Restaurang & Pizzeria Timjan","url":"http://www.restaurangtimjan.se","street":"Brunnegårdsv. 11, ","postalCode":"433 32","city":"PARTILLE"}
{"name":"Happy City AB","street":"Angeredsvinkeln 5, ","postalCode":"424 67","city":"ANGERED","organisationNumber":"5590560362"}
{"name":"Pizzeria Papillon","street":"Doktor Forselius Backe 46, ","postalCode":"413 26","city":"GÖTEBORG"}
{"name":"Pizzeria Örn","url":"http://ornpizzeria.se/majorna/","street":"Bang. 22, ","postalCode":"414 63","city":"GÖTEBORG"}
{"name":"Peoples Homes AB","street":"Hängestensv. 60, ","postalCode":"421 67","city":"VÄSTRA FRÖLUNDA","organisationNumber":"5567234561"}
{"name":"Kullaviks Restaurang och Pizzeria","street":"Molnvädersg. 28, ","postalCode":"418 35","city":"GÖTEBORG","legalName":"Tonis och Söner Kommanditbolag","organisationNumber":"9697669076"}
{"name":"Slice Pizzeria","url":"http://slicepizzeria.se","street":"Artillerig. 12, ","postalCode":"415 03","city":"GÖTEBORG","legalName":"Norder Slice AB","organisationNumber":"5569447468"}
{"name":"Rucola Restaurang Bar & Pizzeria","street":"Frejag. 9, ","postalCode":"431 44","city":"MÖLNDAL"}
{"name":"Pizzeria Restaur. Mantovani","street":"Månadsg. 28, ","postalCode":"415 08","city":"GÖTEBORG"}
{"name":"Pizza Provencale","street":"Viktoriagatan 10, ","postalCode":"411 25","city":"GÖTEBORG"}
{"name":"Bar Östergök","street":"Danska v. 87, ","postalCode":"416 59","city":"GÖTEBORG"}
{"name":"Grand Pizzeria I Göteborg","street":"Södra vårvindsgatan 6, ","postalCode":"418 77","city":"GÖTEBORG"}
{"name":"Pizzeria Örn 2","url":"http://www.ornpizzeria.se","street":"Akkas g. 1, ","postalCode":"422 48","city":"HISINGS BACKA"}
{"name":"Pizzeria Snipen","street":"Atmosfärg. 33, ","postalCode":"415 21","city":"GÖTEBORG"}
{"name":"Pizzeria 10 Minuter","street":"Brattåskärrsvägen 55, ","postalCode":"433 64","city":"SÄVEDALEN"}
{"name":"Pizzeria Sanremo","url":"http://www.sanremo.se","street":"Nordhagsv. 28, ","postalCode":"423 34","city":"TORSLANDA"}
{"name":"Sorelle Bistro","url":"http://www.sorellebistro.se","street":"Hovås Allé 12, ","postalCode":"436 53","city":"HOVÅS","legalName":"Utsökt Mat i Göteborg AB","organisationNumber":"5567570964"}
{"name":"Darias Pizzeria","street":"Stigbergsliden 18, ","postalCode":"414 63","city":"GÖTEBORG"}
{"name":"Rucola Restaurang Bar & Pizzeria","street":"Frejag. 9, ","postalCode":"431 44","city":"MÖLNDAL"}
{"name":"Palermo Pizzeria","street":"Jättestensgatan 9, ","postalCode":"418 72","city":"GÖTEBORG"}
{"name":"Johannebar","url":"http://www.johannebar.se","street":"Eklandag. 65, ","postalCode":"412 61","city":"GÖTEBORG"}
{"name":"Pizzeria 13","street":"Chalmersg. 13, ","postalCode":"411 35","city":"GÖTEBORG"}
{"name":"Pizzeria Pärla","street":"Lisa Sass g. 18, ","postalCode":"422 53","city":"HISINGS BACKA"}
{"name":"På Hörnet","url":"http://pahornet.com","street":"Biblioteksg. 14 A, ","postalCode":"435 30","city":"MÖLNLYCKE"}
{"name":"Öjersjö Pizzeria","url":"https://www.facebook.com/%C3%96jersj%C3%B6-Pizzeria-124660627548405/","street":"Ekeblads v. 1, ","postalCode":"433 51","city":"ÖJERSJÖ","legalName":"Didars Restaurang & pizzeria Handelsbolag","organisationNumber":"9697233816"}
{"name":"I Love Pizza - Frigga","street":"Friggag. 14 D, ","postalCode":"411 01","city":"GÖTEBORG","legalName":"I love Pizza i Göteborg AB","organisationNumber":"5567927628"}
{"name":"Öjersjö Pizzeria","url":"https://www.facebook.com/%C3%96jersj%C3%B6-Pizzeria-124660627548405/","street":"Ekeblads v. 1, ","postalCode":"433 51","city":"ÖJERSJÖ","legalName":"Didars Restaurang & pizzeria Handelsbolag","organisationNumber":"9697233816"}
{"name":"Kios Pizzeria AB","street":"Byv. 6, ","postalCode":"438 36","city":"LANDVETTER","organisationNumber":"5590917398"}
{"name":"Importgruvan AB","street":"Härryda Centrum 1, ","postalCode":"438 92","city":"HÄRRYDA","organisationNumber":"5566790266"}
{"name":"Restaurang och Pizzeria Safir","street":"Jonseredsv. 21, ","postalCode":"433 75","city":"JONSERED"}
{"name":"Restaurang Alanya´s","url":"http://www.alanyas.se","street":"Braheg. 6, ","postalCode":"415 01","city":"GÖTEBORG"}
{"name":"Pizzeria Örn","url":"http://ornpizzeria.se/majorna/","street":"Bang. 22, ","postalCode":"414 63","city":"GÖTEBORG"}
{"name":"Pizzeria Class","url":"http://www.pizzeriaclass.se","street":"Ångaren indias gata, ","postalCode":"417 60","city":"GÖTEBORG"}
{"name":"La Beban Vedugnsköket","url":"http://www.labeban.com","street":"Bögatan 47, ","postalCode":"412 72","city":"GÖTEBORG","legalName":"BMC Group AB","organisationNumber":"5569449886"}
{"name":"Roma Restaurang och Pizzeria","url":"http://romarestaurang.com","street":"Ringög. 16, ","postalCode":"417 07","city":"GÖTEBORG"}
{"name":"Tynnereds Pizzeria","url":"https://sv-se.facebook.com/Tynnered-Pizzeria-452366971456628/","street":"L. Grevegårdsv. 1, ","postalCode":"426 55","city":"VÄSTRA FRÖLUNDA"}
{"name":"Darias Pizzeria","street":"Stigbergsliden 18, ","postalCode":"414 63","city":"GÖTEBORG"}
{"name":"Pizzeria Tampico","street":"Smörg. 2, ","postalCode":"412 76","city":"GÖTEBORG"}
{"name":"Porten's Pizza","url":"http://www.portenspizza.se","street":"Göteborgsv. 1, ","postalCode":"431 30","city":"MÖLNDAL","legalName":"Mehdi&Hadi Handelsbolag","organisationNumber":"9696937045"}
{"name":"Pizzeria Victorias Palace","url":"http://thaisamila.se/","street":"Delsjöv. 7, ","postalCode":"412 66","city":"GÖTEBORG","legalName":"Thai Samila AB","organisationNumber":"5568810559"}
{"name":"Kungspizza","url":"http://www.kungspizza.com","street":"Långedragsv. 102, ","postalCode":"426 74","city":"VÄSTRA FRÖLUNDA","legalName":"H & Z Pizzeria AB","organisationNumber":"5590791371"}
{"name":"Potenza Restaurang Pizzeria Bar","street":"Rävlanda Stationsv. 8, ","postalCode":"438 51","city":"RÄVLANDA"}
{"name":"Erciyes Pizza II AB Linnés Kök & Bar","street":"Linnégatan 38A, ","postalCode":"413 04","city":"GÖTEBORG","legalName":"Bistro Bellman AB","organisationNumber":"5568421316"}
{"name":"Edas pizzeria","url":"http://edaspizzeria.se","street":"Katrinerovägen 2A, ","postalCode":"417 49","city":"GÖTEBORG","legalName":"Alcom AB","organisationNumber":"5569370124"}
{"name":"Vivaldi Restaurang & Bar","url":"http://www.restaurangvivaldi.com","street":"Berzeliigatan 19, ","postalCode":"412 53","city":"GÖTEBORG","legalName":"PIZZERIA VIVALDI HANDELSBOLAG","organisationNumber":"9168523646"}
{"name":"Eat and Drink","url":"http://eatanddrink.se","street":"Södra v. 77, ","postalCode":"412 53","city":"GÖTEBORG"}
{"name":"Bryggan Restaurang","street":"Karl johansgatan 58, ","postalCode":"414 55","city":"GÖTEBORG","legalName":"CANPUNAR-YÜCEL PIZZERIA HB","organisationNumber":"9696325605"}
{"name":"Härryda Wärdshus","street":"Prästgärdevägen, ","postalCode":"438 92","city":"HÄRRYDA"}
{"name":"Pizzeria Monaco","street":"Friggagatan 25A, ","postalCode":"416 64","city":"GÖTEBORG"}
{"name":"Åby Krog","street":"Katrinebergsg. 6, ","postalCode":"431 61","city":"MÖLNDAL"}
{"name":"Canaria Pizzeria","street":"Hjällbogärdet 3, ","postalCode":"424 34","city":"ANGERED"}
{"name":"Bordet Restaurang","url":"http://www.restaurangbordet.se","street":"Angereds Torg 1, ","postalCode":"424 65","city":"ANGERED","legalName":"Restaurang Bordet AB","organisationNumber":"5568036601"}
{"name":"Pizzeria Sanremo","url":"http://www.sanremo.se","street":"Nordhagsv. 28, ","postalCode":"423 34","city":"TORSLANDA"}
{"name":"Cesar Pizzeria","url":"http://www.cesarpizzeria.se","street":"Bergsätersg. 1, ","postalCode":"421 66","city":"VÄSTRA FRÖLUNDA","legalName":"Matay´s Pizzeria Handelsbolag","organisationNumber":"9697268994"}
{"name":"Smörslotts Pizzeria","url":"http://xn--smrslottspizzeria-0zb.se/","street":"Smörslottsg. 64, ","postalCode":"416 78","city":"GÖTEBORG","legalName":"Pizzeria Deli Pezhman Bahadoran Handelsbolag","organisationNumber":"9697712801"}
{"name":"Vallhamra Pizzeria & Grill","street":"Vallhamra torg 2, ","postalCode":"433 65","city":"SÄVEDALEN","legalName":"Vallhamra Pizzeria & Grill Handelsbolag","organisationNumber":"9697159805"}
{"name":"Gambero Pizzabutik","url":"http://www.pizzabutikgambero.se","street":"Övre Husarg. 5, ","postalCode":"411 22","city":"GÖTEBORG"}
{"name":"Vickies Restaurang och Bar","street":"Aschebergsg. 40, ","postalCode":"411 33","city":"GÖTEBORG","legalName":"VICKIS RESTAURANG HANDELSBOLAG","organisationNumber":"9696673798"}
{"name":"Happy City AB","street":"Angeredsvinkeln 5, ","postalCode":"424 67","city":"ANGERED","organisationNumber":"5590560362"}
{"name":"Pizzeria Voanew KB","street":"L. Regementsv. 16, ","postalCode":"415 27","city":"GÖTEBORG","legalName":"Pizzeria VOANEW Handelsbolag","organisationNumber":"9697015254"}
{"name":"Ellis Pizzeria KB","street":"Göteborgsv. 45, ","postalCode":"433 60","city":"SÄVEDALEN","legalName":"Ellis Pizzeria Kommanditbolag","organisationNumber":"9696676080"}
{"name":"Pizzeria Panther Ljungsbro","street":"Långavallsg. 4 A, ","postalCode":"424 57","city":"GUNNILSE","legalName":"BörjesHusbil & Bilcenter AB","organisationNumber":"5569619124"}
{"name":"Vapiano","url":"https://www.facebook.com/vapiano.kungsport","street":"Ö. Hamng. 35, ","postalCode":"411 10","city":"GÖTEBORG","legalName":"GLR Östra Hamngatan Aktiebolag","organisationNumber":"5569601049"}
{"name":"Yar Pizzeria","street":"Nordenskiöldsg. 25, ","postalCode":"413 09","city":"GÖTEBORG"}
{"name":"Silverkråkan","url":"https://www.facebook.com/pages/Silverkr%C3%A5kan/172311382809216","street":"Silvermyntsg. 1, ","postalCode":"414 79","city":"GÖTEBORG"}
{"name":"Tio Pepe","url":"http://www.restaurangtiopepe.se","street":"Sten Stureg. 17, ","postalCode":"412 52","city":"GÖTEBORG","legalName":"Gasolina AB","organisationNumber":"5567600605"}
{"name":"Mr. Tomato","url":"http://www.restaurangtomato.se","street":"Brämareg. 1, ","postalCode":"417 04","city":"GÖTEBORG"}
{"name":"Pizza Pronto","street":"Lantmätareg. 12 D, ","postalCode":"417 06","city":"GÖTEBORG"}
{"name":"Göteborg Pizza 4 You HB","street":"Krokslätts Parkg. 57, ","postalCode":"431 68","city":"MÖLNDAL","legalName":"Göteborg Pizza 4 You Handelsbolag","organisationNumber":"9697820711"}
{"name":"Pizzeria Matador","street":"Sanatorieg. 15, ","postalCode":"416 53","city":"GÖTEBORG"}
{"name":"Kvarterskrog Florens","url":"http://www.kvarterskrogflorens.se","street":"Eketräg. 22, ","postalCode":"418 73","city":"GÖTEBORG","legalName":"EKETRÄGATANS KROG Kommanditbolag","organisationNumber":"9696243295"}
{"name":"Pizzeria Milano","street":"Brattåskärrsv. 55 A, ","postalCode":"433 64","city":"SÄVEDALEN","legalName":"ORIENTEN KOMMANDITBOLAG","organisationNumber":"9168443282"}
{"name":"Da Marco Pizzeria Ristorante","url":"http://www.damarco.se","street":"Ärleg. 2, ","postalCode":"414 57","city":"GÖTEBORG"}
{"name":"Capricciosa Pizzeria HB","street":"Lars Kaggsg. 45 B, ","postalCode":"415 04","city":"GÖTEBORG","legalName":"Capricciosa Pizzeria Handelsbolag","organisationNumber":"9697762145"}
{"name":"Cemal's Pizzeria","street":"Hammarkulletorget 23, ","postalCode":"424 37","city":"ANGERED"}
{"name":"La Venezia Pizzeria Restaurang","street":"Danska v. 87, ","postalCode":"416 59","city":"GÖTEBORG"}
{"name":"Sidad Pizzeria","street":"Halvsekelsg. 21, ","postalCode":"415 08","city":"GÖTEBORG"}
{"name":"Hisingens Pizzagrossist","street":"","postalCode":"411 04","city":"GÖTEBORG","legalName":"Hisingens Pizzagrossist Aktiebolag","organisationNumber":"5565624946"}
{"name":"Alberts Pizzeria","street":"Orustg. 2 A, ","postalCode":"414 74","city":"GÖTEBORG"}
{"name":"Pizzeria Al Forno","street":"Januarig. 6, ","postalCode":"415 15","city":"GÖTEBORG"}
{"name":"Nobel Pizzeria","street":"Nobelg. 29, ","postalCode":"416 57","city":"GÖTEBORG"}
{"name":"Cyrano Majorna","url":"http://www.cyrano.se/restaurang/cyrano-majorna","street":"Karl Johansg. 61, ","postalCode":"414 55","city":"GÖTEBORG","legalName":"Madrok Göteborg AB","organisationNumber":"5568466725"}
{"name":"Gigi Bar & Kök","url":"http://www.gigi.dinstudio.se","street":"Radiotorget 5, ","postalCode":"421 33","city":"VÄSTRA FRÖLUNDA"}
{"name":"Pizzabutik Kärnan","street":"Bällsrog. 24, ","postalCode":"422 44","city":"HISINGS BACKA"}
{"name":"Pizzeria Carola","url":"http://www.pizzeriacarola.se","street":"Arendals Allé 1, ","postalCode":"418 79","city":"GÖTEBORG","legalName":"Yasin Milan AB","organisationNumber":"5591173074"}
{"name":"Restaurang Mektagonen","url":"http://restaurangmektagonen.se","street":"Falkenbergsg. 3, ","postalCode":"412 85","city":"GÖTEBORG","legalName":"Walter & Wictors Förvaltning AB","organisationNumber":"5565846598"}
{"name":"Pizzabutik Pärlan","street":"Vintervädersg. 1, ","postalCode":"418 36","city":"GÖTEBORG"}
{"name":"Gårdsten Pizzeria","street":"Muskotgatan 5, ","postalCode":"424 41","city":"ANGERED"}
{"name":"Pizzeria Etna","street":"Nordostpassagen 47, ","postalCode":"413 11","city":"GÖTEBORG"}
{"name":"Dannes Pizzeria och Grill","url":"http://www.dannespizzeria.se/","street":"Jörlandav. 2 B, ","postalCode":"442 60","city":"KODE"}
{"name":"Restaurang och Pizzeria Regementet","street":"L. Regementsv. 16, ","postalCode":"415 27","city":"GÖTEBORG"}
{"name":"Pizzabutiken Bruno Franco","street":"Olivedalsg. 12, ","postalCode":"413 10","city":"GÖTEBORG"}
{"name":"Gibraltar Pizzeria KB","url":"http://pizzeriagibraltar.com/","street":"Gibraltarg. 36, ","postalCode":"412 58","city":"GÖTEBORG","legalName":"Gibraltar Pizzeria Kommanditbolag","organisationNumber":"9697793371"}
{"name":"Marmaris Pizza Kebab och Sallad","street":"Krokslätts Torg 4, ","postalCode":"431 37","city":"MÖLNDAL"}
{"name":"Laneko Allservice","street":"G. Riksv. 54, ","postalCode":"428 30","city":"KÅLLERED"}
{"name":"E.C.A Pizzeria EF","street":"Rimfrostg. 47, ","postalCode":"418 40","city":"GÖTEBORG"}
{"name":"Sannegårdens Pizzeria","url":"http://www.sannegardenspizzeria.se","street":"Ö. Eriksbergsg. 24, ","postalCode":"417 63","city":"GÖTEBORG"}
{"name":"Pizza Hut","url":"http://www.pizzahut.se","street":"Postg. 47, ","postalCode":"411 06","city":"GÖTEBORG","legalName":"NRG Pizza AB","organisationNumber":"5564659893"}
{"name":"Pizzeria Carola","url":"http://www.pizzeriacarola.se","street":"Arendals Allé 1, ","postalCode":"418 79","city":"GÖTEBORG","legalName":"Yasin Milan AB","organisationNumber":"5591173074"}
{"name":"Chopstix","url":"http://www.chopstixsushibar.se/","street":"Olivedalsg. 23, ","postalCode":"413 10","city":"GÖTEBORG","legalName":"CHOPSFIX CATERING HANDELSBOLAG","organisationNumber":"9696872853"}
{"name":"Briljant Pizzeria","street":"Safirg. 1, ","postalCode":"421 48","city":"VÄSTRA FRÖLUNDA"}
{"name":"Toscana Ristorante Italiano","url":"http://www.spaghettibrothers.se","street":"Kungsg. 7, ","postalCode":"411 19","city":"GÖTEBORG"}
{"name":"Canaria Pizzeria","street":"Hjällbogärdet 3, ","postalCode":"424 34","city":"ANGERED"}
{"name":"Pizzeria Restaurang Lepanto AB","street":"Marklandsgatan 1, ","postalCode":"414 77","city":"GÖTEBORG","organisationNumber":"5591691943"}
