{"name":"Old Persian","url":"http://www.oldpersian.se/","street":"Torggatan 4","postalCode":["411","05"],"city":"Göteborg","organisationNumber":"556992-7238"}
{"name":"Aladdin Mixed Food","street":"Hisingsgatan 19","postalCode":["417","03"],"city":"Göteborg","organisationNumber":"556928-4242"}
{"name":"Mehrans Cafe & Konditori","street":"Radiotorget 2","postalCode":["421","33"],"city":"Västra Frölunda"}
{"name":"Gloria Pizzeria","url":"http://onlinepizza.se/Goteborg/Gloria-pizzeria","street":"Bredfjällsgatan 34","postalCode":["424","35"],"city":"Angered"}
{"name":"Joe Farellis, Restaurang","url":"http://www.joefarelli.com","street":"Kungsportsavenyen 12","postalCode":["411","36"],"city":"Göteborg","organisationNumber":"556319-5493"}
{"name":"Ruffino Pizza & Kebab","street":"Allmänna Vägen 15A","postalCode":["414","60"],"city":"Göteborg","organisationNumber":"969695-3190"}
{"name":"Pizzeria Florida","url":"http://www.pizzeriaflorida.se","street":"Väderlekstorget 7","postalCode":["418","32"],"city":"Göteborg"}
{"name":"Restaurang Pizzeria Le Baron","street":"Skånegatan 39","postalCode":["412","52"],"city":"Göteborg"}
{"name":"Komet Pizzeria","street":"Komettorget","postalCode":["415","20"],"city":"Göteborg"}
{"name":"Arzoo indian restaurang","url":"http://www.arzoo.se","street":"Lantmannagatan 4","postalCode":["417","15"],"city":"Göteborg","organisationNumber":"969783-6931"}
{"name":"I Love Pizza - Utby","url":"http://www.ilovepizza.se","street":"Österlyckan 1","postalCode":["415","07"],"city":"Göteborg","organisationNumber":"556824-1680"}
{"name":"Sibylla Abbes Gatukök","url":"http://www.abbes.nu","street":"Järntorget 7","postalCode":["413","04"],"city":"Göteborg","organisationNumber":"556601-0988"}
{"name":"Pizzeria Påvelund","street":"Traneredsvägen 39","postalCode":["426","77"],"city":"Västra Frölunda","organisationNumber":"556809-3719"}
{"name":"Öjersjö Pizzeria","street":"Ekeblads Väg 1","postalCode":["433","51"],"city":"Öjersjö","organisationNumber":"969723-3816"}
{"name":"Corpus Pizzeria","street":"Kvarnbygatan 45","postalCode":["431","34"],"city":"Mölndal"}
{"name":"Pizzabutik Ferrari","street":"Brobacken 10","postalCode":["443","30"],"city":"Lerum"}
{"name":"Ceasars Pizzeria","url":"http://www.pizzeriacesar.se","street":"Bergsätersgatan 2","postalCode":["421","66"],"city":"Västra Frölunda"}
{"name":"Angereds Värdshus","url":"http://www.angeredsvardshus.se","street":"Spadegatan 6","postalCode":["424","65"],"city":"Angered"}
{"name":"Dr. Fries Pizzeria","street":"Doktor Fries Torg 3-5","postalCode":["413","23"],"city":"Göteborg","organisationNumber":"969767-6998"}
{"name":"Kalles Gatukök i Surte AB","organisationNumber":"556919-1728"}
{"name":"Armanj Pizzeria HB","street":"Deltavägen 6","postalCode":["417","05"],"city":"Göteborg","organisationNumber":"969771-8550"}
{"name":"Beirut House","url":"http://www.beiruthouse.se","street":"Nordenskiöldsgatan 3","postalCode":["413","09"],"city":"Göteborg"}
{"name":"Kungs pizzeria","url":"http://www.kungspizza.com","street":"Långedragsvägen 102","postalCode":["426","74"],"city":"Västra Frölunda","organisationNumber":"969700-4639"}
{"name":"Pizzeria Amore","street":"Nytorget 1","postalCode":["442","32"],"city":"Kungälv","organisationNumber":"556584-0872"}
{"name":"Amore Restaurang","street":"Hinderbanan 16","postalCode":["415","28"],"city":"Göteborg"}
{"name":"Pizza Hut","url":"http://www.pizzahut.se","street":"Postgatan 47","postalCode":["411","06"],"city":"Göteborg","organisationNumber":"556465-9893"}
{"name":"Pizzeria Sicilia Firat Nas","street":"Vikingagatan 2","postalCode":["442","36"],"city":"Kungälv"}
{"name":"Pizzeria Mamma Rosa","street":"Lillhagsvägen 39","postalCode":["422","43"],"city":"Hisings Backa"}
{"name":"Jakobsdalls Restaurang & Pizzeria","street":"Kronhjortsgatan 2","postalCode":["412","68"],"city":"Göteborg"}
{"name":"Campino Pizzeria","street":"Sandalavägen 2","postalCode":["443","43"],"city":"Gråbo","organisationNumber":"969702-1054"}
{"name":"Nancy Corner Pizzeria","url":"http://onlinepizza.se/Goteborg/Nancy-Corner-pizzeria","street":"Distansgatan 9","postalCode":["421","74"],"city":"Västra Frölunda"}
{"name":"Pizzeria Ferrari","street":"Kaveldunsvägen 1","postalCode":["435","40"],"city":"Mölnlycke"}
{"name":"Pizzabutik Kärna","street":"Kärna Torg 1","postalCode":["442","70"],"city":"Kärna"}
{"name":"Råda Pizzeria & Gatukök","street":"Metallvägen 1","postalCode":["435","33"],"city":"Mölnlycke","organisationNumber":"969661-6326"}
{"name":"Pizzeria Hawaii","street":"Stålhandskegatan 12","postalCode":["418","76"],"city":"Göteborg","organisationNumber":"969732-1470"}
{"name":"Romas Restaurang o Pizzeria","street":"Brattåsvägen 7","postalCode":["438","32"],"city":"Landvetter","organisationNumber":"969738-6895"}
{"name":"Knippla Pizzeria","street":"Källövägen 3","postalCode":["475","51"],"city":"Källö-Knippla"}
{"name":"Evita Restaurang & Pizzeria","street":"Gymnasiegatan 4","postalCode":["442","48"],"city":"Kungälv"}
{"name":"La Venezia Pizza Restaurang","street":"Danska Vägen 97","postalCode":["416","59"],"city":"Göteborg"}
{"name":"Roma Pizza","street":"Sankt Pauligatan 18","postalCode":["416","60"],"city":"Göteborg"}
{"name":"Grimmereds Pizzeria","street":"Grimmeredsvägen 99","postalCode":["426","69"],"city":"Västra Frölunda"}
{"name":"I Love Pizza - Frigga","url":"http://www.ilovepizza.se","street":"Friggagatan 14D","postalCode":["411","01"],"city":"Göteborg","organisationNumber":"556792-7628"}
{"name":"Pizzeria Capri","street":"Januarigatan 2","postalCode":["415","15"],"city":"Göteborg"}
{"name":"Porten - Billdals Kvarterskrog","url":"http://www.portenibilldal.se","street":"Kungsporten 1E","postalCode":["427","50"],"city":"Billdal","organisationNumber":"556972-7059"}
{"name":"Pizza 4 You Mölndal","street":"Engelbrektsgatan 57","postalCode":["412","52"],"city":"Göteborg"}
{"name":"Valentino Pizzeria","street":"Slättadammsgatan 1A","postalCode":["417","27"],"city":"Göteborg"}
{"name":"Restaurang Cyrano","url":"http://www.cyrano.se","street":"Långedragsvägen 23","postalCode":["426","71"],"city":"Västra Frölunda","organisationNumber":"969653-2366"}
{"name":"Gul Odins Pizzeria","street":"Dimvädersgatan 52","postalCode":["418","37"],"city":"Göteborg"}
{"name":"Gråbo Restaurang & Pizzeria","street":"Mjörnbotorget","postalCode":["443","42"],"city":"Gråbo"}
{"name":"I Love Pizza - Allum","url":"http://www.ilovepizza.se","street":"Kyrktorget 19","postalCode":["433","33"],"city":"Partille","organisationNumber":"559001-9807"}
{"name":"Ataf's Mat & Prat","url":"http://atafsmatoprat.se","street":"Långströmsgatan 26","postalCode":["418","70"],"city":"Göteborg","organisationNumber":"559131-7853"}
{"name":"Furulund Pizzeria","street":"Furulund Centrum","postalCode":["433","47"],"city":"Partille","organisationNumber":"969750-6773"}
{"name":"Lindholmens Pizzeria","url":"http://www.lindholmenspizzeria.se","street":"Lindholmsvägen 1","postalCode":["417","57"],"city":"Göteborg"}
{"name":"Odins Pizza","street":"Odinsgatan 23","postalCode":["411","03"],"city":"Göteborg"}
{"name":"Pizza Roma","street":"Sanatoriegatan 15","postalCode":["416","53"],"city":"Göteborg"}
{"name":"Pizzeria Lama","street":"Friggagatan 25A","postalCode":["416","64"],"city":"Göteborg"}
{"name":"Pizzeria Melis","street":"Ytterbyvägen 3","postalCode":["442","30"],"city":"Kungälv"}
{"name":"Restaurang & Pizzeria Da Mario","url":"http://www.damario.nu","street":"Frölunda Torg 1","postalCode":["421","42"],"city":"Västra Frölunda","organisationNumber":"969708-7600"}
{"name":"Lepanto Pizzeria","street":"Kråketegen 29","postalCode":["423","51"],"city":"Torslanda"}
{"name":"Maxi Grillen & Pizzeria","street":"Morängatan 7","postalCode":["416","71"],"city":"Göteborg","organisationNumber":"969747-1945"}
{"name":"Palermo Pizzeria","street":"Jättestensgatan 9","postalCode":["418","72"],"city":"Göteborg"}
{"name":"Tanja H Pizzeria","street":"Saffransgatan 14","postalCode":["424","42"],"city":"Angered"}
{"name":"Jungfruplatsens Pizzeria","url":"http://www.jungfruplatsenspizzeria.se","street":"Jungfruplatsen 2","postalCode":["431","48"],"city":"Mölndal","organisationNumber":"556926-4186"}
{"name":"Pizzeria 13","street":"Chalmersgatan 13","postalCode":["411","35"],"city":"Göteborg"}
{"name":"Frölunda Torg Pizzabutik","street":"Briljantgatan 4","postalCode":["421","49"],"city":"Västra Frölunda"}
{"name":"Kef Pizzeria HB","street":"Öckerövägen 3","postalCode":["475","42"],"city":"Hönö","organisationNumber":"969773-5034"}
{"name":"Nols Pizzeria","street":"Noltorget 2","postalCode":["449","42"],"city":"Nol"}
{"name":"Piccolo Pub","street":"Göteborgsvägen 80","postalCode":["433","63"],"city":"Sävedalen","organisationNumber":"556793-6413"}
{"name":"Pizzeria Amore Nima","street":"Bäckebolsängen 25","postalCode":["422","54"],"city":"Hisings Backa"}
{"name":"Pizzeria Bella Mia AB","street":"Ale Torg 10","postalCode":["449","31"],"city":"Nödinge","organisationNumber":"556872-4982"}
{"name":"Pizzeria Sanremo","url":"http://www.sanremo.se","street":"Nordhagsvägen 28","postalCode":["423","34"],"city":"Torslanda","organisationNumber":"556772-5808"}
{"name":"Restaurang Pizzeria Da Salvatore","street":"Korgbollsvägen 1A","postalCode":["424","33"],"city":"Angered","organisationNumber":"556515-0967"}
{"name":"Da Marco Pizzeria Pub","street":"Ärlegatan 2","postalCode":["414","57"],"city":"Göteborg"}
{"name":"Da Vinci","street":"Nordenskiöldsgatan 23","postalCode":["413","09"],"city":"Göteborg","organisationNumber":"969726-1965"}
{"name":"Hempizza","street":"Konditorivägen 1","postalCode":["437","33"],"city":"Lindome"}
{"name":"La Gondola Trattoria","url":"http://www.lagondola.se","street":"Kungsportsavenyen 4","postalCode":["411","36"],"city":"Göteborg","organisationNumber":"556204-7182"}
{"name":"Pizza For You","street":"Sankt Sigfridsgatan 146","postalCode":["412","67"],"city":"Göteborg","organisationNumber":"969764-9623"}
{"name":"Pizzabutik Bruno Franco","url":"http://www.brunofranco.se","street":"Olivedalsgatan 12","postalCode":["413","10"],"city":"Göteborg"}
{"name":"Pizza-Service","street":"Kalendervägen 2","postalCode":["415","11"],"city":"Göteborg"}
{"name":"Pizzeria Bella","street":"Bergums Prästgårdsväg 8","postalCode":["424","70"],"city":"Olofstorp"}
{"name":"Pizzeria Capri","url":"http://www.pizzacaprilerum.se","street":"Gamla Allén 19","postalCode":["443","31"],"city":"Lerum","organisationNumber":"969769-1526"}
{"name":"Pizzeria Peperoni","url":"http://pizzeriapeperoni.se","street":"Rosensköldsgatan 1","postalCode":["412","58"],"city":"Göteborg","organisationNumber":"969691-3533"}
{"name":"Pizzeria Pomodoro","street":"Bjurslätts Torg 3","postalCode":["417","26"],"city":"Göteborg","organisationNumber":"969706-7628"}
{"name":"Varbergets Pizzaspecialist","street":"Gitarrgatan 2","postalCode":["421","41"],"city":"Västra Frölunda"}
{"name":"Victoria Pizzeria","url":"http://onlinepizza.se/Goteborg/Victoria-pizzeria","street":"Hagbergsgatan 14","postalCode":["415","06"],"city":"Göteborg"}
{"name":"Daryas Pizzeria","url":"http://www.daryaspizzeria.se","street":"Stigbergsliden 18","postalCode":["414","63"],"city":"Göteborg"}
{"name":"Papa Joes Pizza & Pasta","street":"Sten Sturegatan 28","postalCode":["411","39"],"city":"Göteborg","organisationNumber":"556748-8480"}
{"name":"Pinans Pizzeria","url":"http://pinanpizzeria.se","street":"Göteborgsvägen 3","postalCode":["475","40"],"city":"Hönö","organisationNumber":"969726-0462"}
{"name":"Pizzabageriet","street":"Dimvädersgatan 29","postalCode":["418","37"],"city":"Göteborg"}
{"name":"Pizzeria Favenzia i Skintebo","street":"Lilla Skintebovägen 4","postalCode":["427","34"],"city":"Billdal"}
{"name":"Restaurang & Pizzeria Selmas Cafe","street":"Selma Lagerlöfs Torg","postalCode":["422","48"],"city":"Hisings Backa","organisationNumber":"916840-8244"}
{"name":"S:t Pauli Pizzeria","url":"http://www.stpaulipizzeria.se","street":"Karlagatan 19","postalCode":["416","61"],"city":"Göteborg"}
{"name":"Trattoria da Pasquale","url":"http://www.trattoriadapasquale.se","street":"Sten Sturegatan 17","postalCode":["412","52"],"city":"Göteborg","organisationNumber":"556456-9415"}
{"name":"Venus Pizzeria","url":"http://venuspizzeria.kvartersmenyn.se/","street":"Sixten Camps Gata 4","postalCode":["416","48"],"city":"Göteborg"}
{"name":"Baretta Pizzeria","street":"Haga Kyrkogata 14","postalCode":["411","23"],"city":"Göteborg"}
{"name":"Björkö Pizzeria HB","street":"Skarviksvägen 10","postalCode":["475","37"],"city":"Bohus-Björkö","organisationNumber":"969741-9712"}
{"name":"Druvan Pizzeria KB","street":"Almåsgången 1","postalCode":["437","30"],"city":"Lindome","organisationNumber":"969734-3292"}
{"name":"Gambero Pizzabutik","url":"http://www.pizzeriagambero.se","street":"Övre Husargatan 5","postalCode":["411","22"],"city":"Göteborg","organisationNumber":"969713-9476"}
{"name":"Pizzeria al Forno","street":"Oluff Nilssons Väg 3","postalCode":["433","36"],"city":"Partille","organisationNumber":"969641-8582"}
{"name":"Pizzeria Mums","url":"http://www.pizzamums.se","street":"Framnäsgatan 10","postalCode":["412","64"],"city":"Göteborg"}
{"name":"Portens Pizza","url":"http://www.portenspizza.se","street":"Göteborgsvägen 1","postalCode":["431","30"],"city":"Mölndal","organisationNumber":"969693-7045"}
{"name":"Sonjas Restaurang och Pizzeria","street":"Kyrktorget 2","postalCode":["433","33"],"city":"Partille","organisationNumber":"969654-3819"}
{"name":"Örn Pizzeria","street":"Bangatan 22","postalCode":["414","63"],"city":"Göteborg"}
{"name":"Grand Pizza","street":"Fredåsgatan 22","postalCode":["431","67"],"city":"Mölndal","organisationNumber":"969764-0911"}
{"name":"Majornas Krog","url":"http://www.majornaskrog.kvartersmenyn.se","street":"Karl Johansgatan 72","postalCode":["414","55"],"city":"Göteborg","organisationNumber":"969671-8619"}
{"name":"Pizza House","street":"Alingsåsvägen","postalCode":["443","35"],"city":"Lerum"}
{"name":"Pizza Pizza Partille","street":"Brunnegårdsvägen 11","postalCode":["433","32"],"city":"Partille"}
{"name":"Pizzahuset","street":"Kattedammen 1","postalCode":["423","59"],"city":"Torslanda","organisationNumber":"969667-7591"}
{"name":"Pizzeria Etna","url":"http://www.etnanordostpassagen.se","street":"Nordostpassagen 47","postalCode":["413","11"],"city":"Göteborg"}
{"name":"Rucola Restaurang Bar & Pizzeria","street":"Frejagatan 9","postalCode":["431","44"],"city":"Mölndal"}
{"name":"Brunnsbo Pizzeria","street":"Brunnsbotorget 4","postalCode":["422","42"],"city":"Hisings Backa"}
{"name":"Cemals Pizzeria","street":"Hammarkulletorget 23","postalCode":["424","37"],"city":"Angered"}
{"name":"I Love Pizza - Övre Husar","url":"http://www.ilovepizza.se","street":"Övre Husargatan 13","postalCode":["413","14"],"city":"Göteborg","organisationNumber":"559043-2240"}
{"name":"Kvarterskrog Florens","street":"Eketrägatan 22A","postalCode":["418","73"],"city":"Göteborg","organisationNumber":"969624-3295"}
{"name":"Nisses Pizzeria AB","street":"Kilsgatan 5","postalCode":["411","04"],"city":"Göteborg","organisationNumber":"556671-9257"}
{"name":"Nya Lindome Pizzeria HB","street":"Gamla Riksvägen 204","postalCode":["437","40"],"city":"Lindome","organisationNumber":"969783-0777"}
{"name":"Pizza-Gatukök Ada","street":"Gamla Särövägen 88","postalCode":["436","40"],"city":"Askim"}
{"name":"Pizzeria Zana","street":"Postgången 1","postalCode":["433","34"],"city":"Partille"}
{"name":"Restaurang Cyrano","url":"http://www.cyrano.se","organisationNumber":"969653-2366"}
{"name":"Gizel Pizzeria AB","street":"Smedmästaregatan 1","postalCode":["442","34"],"city":"Kungälv","organisationNumber":"556917-5556"}
{"name":"Kaverös pizzeria","url":"http://www.laforteza.se","street":"Soprangatan 2","postalCode":["421","38"],"city":"Västra Frölunda","organisationNumber":"969757-2940"}
{"name":"Pizza House","street":"Byvägen 6","postalCode":["438","36"],"city":"Landvetter","organisationNumber":"559091-7398"}
{"name":"Pizzeria Del Piero","street":"Jaegerdorffsplatsen 1D","postalCode":["414","51"],"city":"Göteborg","organisationNumber":"556678-1547"}
{"name":"Restaurang Cyrano","url":"http://www.cyrano.se","street":"Karl Johansgatan 61","postalCode":["414","55"],"city":"Göteborg","organisationNumber":"556846-6725"}
{"name":"Restaurang Cyrano","url":"http://www.cyrano.se","street":"Viktoriagatan 26","postalCode":["411","25"],"city":"Göteborg","organisationNumber":"969653-2366"}
{"name":"Restaurang Cyrano","url":"http://www.cyrano.se","street":"Prinsgatan 7","postalCode":["413","05"],"city":"Göteborg","organisationNumber":"556902-2808"}
{"name":"Vår Krog & Bar","url":"http://www.varkrog.com","street":"Vårväderstorget 5","postalCode":["418","31"],"city":"Göteborg","organisationNumber":"556763-1964"}
{"name":"China Take Away och Pizzeria Snipen","street":"Spårhaga Intagsväg 169","postalCode":["427","50"],"city":"Billdal"}
{"name":"Emona Pizzeria & Restaurang","street":"Ekedalsgatan 8","postalCode":["414","66"],"city":"Göteborg"}
{"name":"Fräntorps Pizzeria","street":"Småstugevägen 69","postalCode":["416","76"],"city":"Göteborg"}
{"name":"Godisbana","url":"http://www.godisbana.se","street":"Ledetvägen 40","postalCode":["449","51"],"city":"Alafors"}
{"name":"Henrik Berggrens Bygg","street":"Haguddsvägen 7","postalCode":["435","39"],"city":"Mölnlycke"}
{"name":"la Sultana","street":"Eklandagatan 8","postalCode":["412","55"],"city":"Göteborg","organisationNumber":"969647-7893"}
{"name":"Restaurang La Vacca","street":"Folkungagatan 13","postalCode":["411","02"],"city":"Göteborg"}
{"name":"Slottsskogens Pizzeria","street":"Rosengatan 13","postalCode":["413","10"],"city":"Göteborg","organisationNumber":"969763-3684"}
{"name":"Azada Pizzeria","street":"Kastellgatan 15","postalCode":["413","07"],"city":"Göteborg"}
{"name":"Frati Restaurang Bar Pizzeria","url":"http://www.restaurangfrati.se","street":"Barnhusgatan 1","postalCode":["411","02"],"city":"Göteborg","organisationNumber":"969681-2016"}
{"name":"Pilens Pizzeria","organisationNumber":"969773-7063"}
{"name":"Gårdstens Pizzeria","street":"Muskotgatan 5","postalCode":["424","41"],"city":"Angered"}
{"name":"Pizzeria Hemkört","street":"Doktor Bex Gata 4","postalCode":["413","24"],"city":"Göteborg","organisationNumber":"969758-5009"}
{"name":"Pizzeria Montana HB","street":"Värmlandsgatan 20","postalCode":["413","28"],"city":"Göteborg","organisationNumber":"969774-5793"}
{"name":"Vasa Pizzabutik","street":"Föreningsgatan 34","postalCode":["411","27"],"city":"Göteborg"}
{"name":"Vita Huset Pizzeria och Salladsbar","street":"Katrinebergsgatan 6","postalCode":["431","61"],"city":"Mölndal","organisationNumber":"969762-6498"}
{"name":"Wieselgrens Pizzeria","street":"Nordanvindsgatan 2","postalCode":["417","17"],"city":"Göteborg","organisationNumber":"969667-6080"}
{"name":"Haga Pizzeria HB","url":"http://www.hagapizzeria.com","organisationNumber":"969766-7419"}
{"name":"Ibres Pizzeria","street":"Postgången 1A","postalCode":["433","34"],"city":"Partille"}
{"name":"Melly Pizzeria","street":"Älvsborgsgatan 29","postalCode":["414","72"],"city":"Göteborg","organisationNumber":"969736-5246"}
{"name":"Opaltorgets Pizza Restaurang","street":"Opalgatan","postalCode":["421","62"],"city":"Västra Frölunda","organisationNumber":"556838-2583"}
{"name":"Pizzeria Ma HB","street":"Triogatan 5","postalCode":["442","49"],"city":"Kungälv","organisationNumber":"969758-1230"}
{"name":"Raziki AB","street":"Friggagatan 1","postalCode":["411","01"],"city":"Göteborg","organisationNumber":"559011-8179"}
{"name":"Restaurang Splendid","street":"Gropegårdsgatan 1","postalCode":["417","15"],"city":"Göteborg"}
{"name":"Danyar Pizzeria Ef","street":"Norrviksgatan 18","postalCode":["418","72"],"city":"Göteborg"}
{"name":"Eklanda pizzeria","street":"Åkes Väg 5","postalCode":["424","71"],"city":"Olofstorp"}
{"name":"Ezdara Pizzeria AB","street":"Gibraltargatan 37","postalCode":["412","79"],"city":"Göteborg","organisationNumber":"559081-0981"}
{"name":"Götas Pizzabutik AB","street":"Kungsportsavenyen 32","postalCode":["411","36"],"city":"Göteborg","organisationNumber":"556953-7292"}
{"name":"Haco Pizzeria","street":"Göteborgsvägen 76","postalCode":["445","57"],"city":"Surte"}
{"name":"Hisingens Pizzagrossist AB","organisationNumber":"556562-4946"}
{"name":"N Pizzeria AB","street":"Björkhöjdsgatan 23","postalCode":["426","51"],"city":"Västra Frölunda","organisationNumber":"559086-1422"}
{"name":"Opera Pizzeria","street":"Stataregatan 2","postalCode":["417","15"],"city":"Göteborg"}
{"name":"Pizzeria Class","street":"Kungsgatan 10A","postalCode":["411","19"],"city":"Göteborg","organisationNumber":"969747-9559"}
{"name":"Pizzeria Kerkira","street":"Mackliersgatan 2","postalCode":["412","59"],"city":"Göteborg"}
{"name":"Pizzeria Suverän"}
{"name":"Robin Pizza Plus HB","url":"http://www.backapizza.com","street":"Prologgatan 14","postalCode":["422","41"],"city":"Hisings Backa","organisationNumber":"969763-6406"}
{"name":"Gubbero","street":"Norra Gubberogatan 16","postalCode":["416","63"],"city":"Göteborg"}
{"name":"Landvetter Pizzeria","street":"Skansgränd 9","postalCode":["438","32"],"city":"Landvetter","organisationNumber":"969777-3571"}
{"name":"Lilla Rancho Saloon","street":"Kaggeledstorget 1","postalCode":["416","74"],"city":"Göteborg","organisationNumber":"969704-3413"}
{"name":"Monchi Pizzeria","street":"Mjölktorget 1","postalCode":["412","76"],"city":"Göteborg"}
{"name":"Palma Nova","url":"http://www.onlinepizza.se/Goteborg/Palma_Nova","street":"Sunnanvindsgatan 10","postalCode":["417","16"],"city":"Göteborg"}
{"name":"Pizzabutik Rimini","street":"Fjärde Långgatan 1","postalCode":["413","05"],"city":"Göteborg"}
{"name":"Pizzeria Casablanca","url":"http://www.pizzeriadomino.se","street":"Lillhagsparken 17C","postalCode":["422","50"],"city":"Hisings Backa"}
{"name":"Pizzeria Viktoria","street":"Stationsvägen 2","postalCode":["435","37"],"city":"Mölnlycke"}
{"name":"Pizzeria Villagio","url":"http://onlinepizza.se/Goteborg/Pizzeria-Villagio","street":"Harald Hjärnesgatan 15","postalCode":["417","20"],"city":"Göteborg","organisationNumber":"969740-1355"}
{"name":"Primavera Pizzeria","street":"Friskväderstorget 6","postalCode":["418","38"],"city":"Göteborg","organisationNumber":"969729-7928"}
{"name":"Selos HB","street":"Hindås Stationsväg 2","postalCode":["438","53"],"city":"Hindås","organisationNumber":"969747-1622"}
{"name":"Sera Pizzeria","url":"http://www.pizzeriasera.se","street":"Nansensgatan 1","postalCode":["417","19"],"city":"Göteborg","organisationNumber":"969684-7848"}
{"name":"Tommys pizza","url":"http://www.tommyspizzeria.se","organisationNumber":"556903-6006"}
{"name":"Fjällblommans Pizzeria","street":"Skolspåret 27","postalCode":["424","31"],"city":"Angered"}
{"name":"Peppareds Pizzeria","url":"http://onlinepizza.se/Molndal/Peppareds-pizzeria"}
{"name":"Pizzeria Capricciosa","street":"Lars Kaggsgatan 45","postalCode":["415","04"],"city":"Göteborg"}
{"name":"Pizzeria Pomodoro","street":"Welandergatan 58","postalCode":["416","56"],"city":"Göteborg","organisationNumber":"969702-3357"}
{"name":"Pizzeria Royal","url":"http://www.pizzeriaroyal.se","street":"Chalmersgatan 29","postalCode":["411","35"],"city":"Göteborg"}
{"name":"Restaurang & Pizzeria Druvan","organisationNumber":"969734-3292"}
{"name":"Viktoria Pizzeria","street":"Södra Viktoriagatan 46","postalCode":["411","30"],"city":"Göteborg"}
{"name":"Galileis Pizzeria","street":"Galileis Gata 40","postalCode":["415","17"],"city":"Göteborg","organisationNumber":"916835-7144"}
{"name":"Gibraltar Pizzeria KB","street":"Gibraltargatan 36","postalCode":["412","58"],"city":"Göteborg","organisationNumber":"969779-3371"}
{"name":"Höjdens Pizzeria & Gatukök","organisationNumber":"556634-9329"}
{"name":"Johannebar","url":"http://www.johannebar.se","street":"Eklandagatan 65","postalCode":["412","61"],"city":"Göteborg","organisationNumber":"556678-4780"}
{"name":"Juventus Pizzer Ia och Gatukök HB","street":"Vaniljgatan 1","postalCode":["424","45"],"city":"Angered","organisationNumber":"969688-2829"}
{"name":"Lacsa pizzeria","street":"Kummingatan 108","postalCode":["424","43"],"city":"Angered"}
{"name":"Noretti Pizzeria och Restaurang","street":"Donsö Hamnväg 25","postalCode":["430","82"],"city":"Donsö"}
{"name":"Pizza Master","street":"Stortoppsgatan 1A","postalCode":["414","57"],"city":"Göteborg"}
{"name":"Pizzeria Gambero AB","street":"Storgatan 11","postalCode":["411","24"],"city":"Göteborg","organisationNumber":"556300-5015"}
{"name":"Sancero Pizzeria i Torsland HB","street":"Flygfältsgatan 33","postalCode":["423","37"],"city":"Torslanda","organisationNumber":"969734-4696"}
{"name":"Sannagarden Pizzeria","street":"Tallkottegatan 1","postalCode":["431","36"],"city":"Mölndal"}
{"name":"Tynnered Pizzeria HB","street":"Grevegårdsvägen","postalCode":["421","63"],"city":"Västra Frölunda","organisationNumber":"969781-6594"}
{"name":"Metman Pizzeria HB","street":"Gamla Riksvägen 38","postalCode":["428","32"],"city":"Kållered","organisationNumber":"969722-5770"}
{"name":"Niyan Pizzeria","street":"Göteborgsvägen 132","postalCode":["445","37"],"city":"Bohus"}
{"name":"Spoton","street":"Mölndalsvägen 3","postalCode":["412","63"],"city":"Göteborg"}
{"name":"Torslanda Pizzeria"}
{"name":"Ristorante Marsala","url":"http://marsala.kvartersmenyn.se","street":"Chapmans Torg 2","postalCode":["414","54"],"city":"Göteborg","organisationNumber":"556569-0616"}
{"name":"Rävekärr Pizzador","url":"http://www.pizzador.se","street":"Fågelbergsgatan 2","postalCode":["431","33"],"city":"Mölndal","organisationNumber":"556807-7647"}
{"name":"Shiaro","street":"Hammarkulletorget 62","postalCode":["424","37"],"city":"Angered"}
{"name":"Grand Pizza","street":"Oluff Nilssons Väg 3","postalCode":["433","36"],"city":"Partille"}
