{"name":"Restaurang Cyrano","legalLink":"/f/restaurang-cyrano:103799303","url":"http://www.cyrano.se/meny/cyrano-sodravagen","street":"Södra vägen 69","postalCode":"412 54","city":"GÖTEBORG"}
{"name":"Cyrano Majorna","legalLink":"/f/cyrano-majorna:141636767","url":"http://www.cyrano.se/meny/cyrano-majorna","street":"Karl johansgatan 6","postalCode":"414 59","city":"GÖTEBORG"}
{"name":"Cyrano Eriksberg","legalLink":"/f/cyrano-eriksberg:17238701","url":"http://www.cyrano.se/meny/cyrano-eriksberg","street":"Danagatan 1","postalCode":"418 76","city":"GÖTEBORG"}
{"name":"Cyrano Olskroken","legalLink":"/f/cyrano-olskroken:14663467","url":"http://www.cyrano.se/meny/cyrano-olskroken","street":"Kobbarnas väg 10","postalCode":"416 47","city":"GÖTEBORG"}
{"name":"Cyrano Vasa","legalLink":"/f/cyrano-vasa:14415730","url":"http://www.cyrano.se/meny/cyrano-vasa","street":"Viktoriagatan 26","postalCode":"411 25","city":"GÖTEBORG"}
{"name":"Hjällbo Pizza & Kebab AB","legalLink":"/f/hjällbo-pizza-kebab-ab:104608313","url":"http://hjallbopizzeria.se/expanded-menu/","street":"Bergsgårdsgärdet 80","postalCode":"424 32","city":"ANGERED"}
{"name":"Cyrano Kungsten","legalLink":"/f/cyrano-kungsten:14312199","url":"http://www.cyrano.se/meny/cyrano-kungssten","street":"Långedragsvägen 23","postalCode":"426 71","city":"VÄSTRA FRÖLUNDA"}
{"name":"Abbes Gatukök/Sibylla/Crepes och Waffles","legalLink":"/f/abbes-gatuköksibyllacrepes-och-waffles:12112164","url":"http://www.sibylla.se/","street":"Järntorget 7","postalCode":"413 04","city":"GÖTEBORG"}
{"name":"Jungfruplatsens Pizza & Kebab","legalLink":"/f/jungfruplatsens-pizza-kebab:70376895","url":"http://www.jungfruplatsenspizzeria.se/","street":"Jungfruplatsen 2","postalCode":"431 48","city":"MÖLNDAL"}
{"name":"Grimmereds Pizzeria","legalLink":"/f/grimmereds-pizzeria:31409874","url":"http://www.grimmeredskrog.se","street":"Grimmeredsvägen 99","postalCode":"426 69","city":"VÄSTRA FRÖLUNDA"}
{"name":"Björkö Pizzeria","legalLink":"/f/björkö-pizzeria:12834176","url":"http://www.bjorko-pizzeria.se/meny.php","street":"Skarviksvägen 10","postalCode":"475 37","city":"BOHUS-BJÖRKÖ"}
{"name":"BOV - Bröd & Ved","legalLink":"/f/bov-bröd-ved:32705164","street":"Gibraltargatan 20","postalCode":"411 32","city":"GÖTEBORG"}
{"name":"Pizzeria Casablanca","legalLink":"/f/pizzeria-casablanca:3912780","url":"http://www.casablancapizza.se","street":"Lillhagsparken 17C","postalCode":"422 50","city":"HISINGS BACKA"}
{"name":"Favenzia Pizzeria","legalLink":"/f/favenzia-pizzeria:104914984","url":"http://www.favenzia.com/Meny.html","street":"Lilla Skintebovägen 4","postalCode":"427 34","city":"BILLDAL"}
{"name":"Vita Huset Pizzeria & Salladsbar","legalLink":"/f/vita-huset-pizzeria-salladsbar:70038002","url":"http://vitahusetpizzeria.se","street":"Katrinebergsgatan 6","postalCode":"431 61","city":"MÖLNDAL"}
{"name":"Le Baron Restaurang & Pizzeria","legalLink":"/f/le-baron-restaurang-pizzeria:14940172","url":"http://restauranglebaron.com/meny/","street":"Skånegatan 39","postalCode":"412 52","city":"GÖTEBORG"}
{"name":"Restaurang Frati","legalLink":"/f/restaurang-frati:7839919","url":"http://www.restaurangfrati.se/","street":"Barnhusgatan 1","postalCode":"411 02","city":"GÖTEBORG"}
{"name":"Pasta Etc","legalLink":"/f/pasta-etc:14902988","url":"http://www.pasta-etc.se/forratter.aspx","street":"Mölndalsvägen 15","postalCode":"412 63","city":"GÖTEBORG"}
{"name":"Pizzeria Pinan","legalLink":"/f/pizzeria-pinan:13245274","url":"http://www.pinanpizzeria.se","street":"Göteborgsvägen 3","postalCode":"475 40","city":"HÖNÖ"}
{"name":"Enzo Pizzeria","legalLink":"/f/enzo-pizzeria:14437324","street":"Kaveldunsvägen 1","postalCode":"435 40","city":"MÖLNLYCKE"}
{"name":"Restaurang Stensjön AB","legalLink":"/f/restaurang-stensjön-ab:131598515","url":"http://www.restaurangstensjon.se","street":"Tallkottegatan 1","postalCode":"431 36","city":"MÖLNDAL"}
{"name":"Slottsskogens Pizzeria","legalLink":"/f/slottsskogens-pizzeria:14924269","url":"http://www.slottsskogenspizzeria.com","street":"Rosengatan 13","postalCode":"413 10","city":"GÖTEBORG"}
{"name":"Pizzabageriet","legalLink":"/f/pizzabageriet:17792005","url":"http://www.pizzabagerietmunkeback.se/meny","street":"Munkebäcksgatan 14","postalCode":"416 53","city":"GÖTEBORG"}
{"name":"Vikings Kök Bar & Pizzeria","legalLink":"/f/vikings-kök-bar-pizzeria:14571602","url":"http://www.vikingkokobar.nu","street":"Axel dahlströms torg 2","postalCode":"414 80","city":"GÖTEBORG"}
{"name":"Kållered Pizzeria","legalLink":"/f/kållered-pizzeria:14487032","url":"http://www.kalleredpizzeria.se","street":"Gamla Riksvägen 38","postalCode":"428 32","city":"KÅLLERED"}
{"name":"Trattoria da Pasquale","legalLink":"/f/trattoria-da-pasquale:7807610","url":"http://www.trattoriadapasquale.se","street":"Sten Sturegatan 17","postalCode":"412 52","city":"GÖTEBORG"}
{"name":"Hard Rock Cafe","legalLink":"/f/hard-rock-cafe:14897670","url":"http://www.hardrock.se","street":"Kungsportsavenyen 10","postalCode":"411 36","city":"GÖTEBORG"}
{"name":"Sejdeln Pub","legalLink":"/f/sejdeln-pub:7840734","url":"http://www.sejdelnpub.webs.com","street":"Andra långgatan 28","postalCode":"413 27","city":"GÖTEBORG"}
{"name":"Restaurang Tio Pepe","legalLink":"/f/restaurang-tio-pepe:140439170","url":"http://www.tio-pepe.se","street":"Klarbärsvägen 2A","postalCode":"426 55","city":"VÄSTRA FRÖLUNDA"}
{"name":"Odin's Pizzeria HB","legalLink":"/f/odins-pizzeria-hb:16285953","street":"Odinsg. 23, ","postalCode":"411 03","city":"GÖTEBORG"}
{"name":"Pizzeria 13","legalLink":"/f/pizzeria-13:13751545","street":"Chalmersg. 13, ","postalCode":"411 35","city":"GÖTEBORG"}
{"name":"Pizzeria Favenzia i Skintebo","legalLink":"/f/pizzeria-favenzia-i-skintebo:124928072","url":"http://favenzia.com/","street":"L. Skintebov. 4, ","postalCode":"427 34","city":"BILLDAL"}
{"name":"Åby Pizzeria & Kebab","legalLink":"/f/åby-pizzeria-kebab:32793537","url":"http://www.abypizzeria.se","street":"Frölundag. 35, ","postalCode":"431 44","city":"MÖLNDAL"}
{"name":"Napoli Pizzeria","legalLink":"/f/napoli-pizzeria:124952351","street":"Bögatan 46, ","postalCode":"412 72","city":"GÖTEBORG"}
{"name":"Januari Pizzeria","legalLink":"/f/januari-pizzeria:14619249","url":"https://www.facebook.com/pages/Komettorget-Pizzeria/157381460974724","street":"Komettorget 1, ","postalCode":"415 20","city":"GÖTEBORG"}
{"name":"Pizzeria Hawaii","legalLink":"/f/pizzeria-hawaii:11071769","street":"Stålhandskeg. 12, ","postalCode":"418 76","city":"GÖTEBORG"}
{"name":"Piccolo Gondoliere AB","legalLink":"/f/piccolo-gondoliere-ab:5189885","url":"http://www.elcorazon.se","street":"St. Saluhallen, ","postalCode":"411 17","city":"GÖTEBORG"}
{"name":"Vallhamra Pizzeria o. Restaurang","legalLink":"/f/vallhamra-pizzeria-o-restaurang:124952380","street":"Vallhamra Torg 2, ","postalCode":"433 65","city":"SÄVEDALEN"}
{"name":"Lilla Restaurangen","legalLink":"/f/lilla-restaurangen:14981604","url":"http://www.lillarestaurangen.se","street":"Redbergsv. 8, ","postalCode":"416 65","city":"GÖTEBORG"}
{"name":"Pizzeria Papillon","legalLink":"/f/pizzeria-papillon:124928306","street":"Doktor Forselius Backe 46, ","postalCode":"413 26","city":"GÖTEBORG"}
{"name":"Marcos Restaurang & Pizzeria","legalLink":"/f/marcos-restaurang-pizzeria:14560092","url":"http://marcosrestaurang.com","street":"L. Björn 6 A, ","postalCode":"415 16","city":"GÖTEBORG"}
{"name":"Torslanda Pizzeria","legalLink":"/f/torslanda-pizzeria:112917771","street":"Gamla flygplatsvägen 1, ","postalCode":"423 37","city":"TORSLANDA"}
{"name":"Pizzabutiken Torpa","legalLink":"/f/pizzabutiken-torpa:124928418","street":"Nedre Furuskogsv. 2, ","postalCode":"433 35","city":"PARTILLE"}
{"name":"Restaurang Sofra","legalLink":"/f/restaurang-sofra:14970128","url":"http://www.restaurangsofra.com","street":"Danska v. 79, ","postalCode":"416 59","city":"GÖTEBORG"}
{"name":"Tano´s Restaurang","legalLink":"/f/tano´s-restaurang:124952395","street":"Prästgårdsängen 1, ","postalCode":"412 71","city":"GÖTEBORG"}
{"name":"Sannegårdens pizzeria","legalLink":"/f/sannegårdens-pizzeria:39400156","street":"Långängen 13, ","postalCode":"417 06","city":"GÖTEBORG"}
{"name":"Harrys Gatukök & Pizzabutik","legalLink":"/f/harrys-gatukök-pizzabutik:17200973","street":"G. Björlandav. 147, ","postalCode":"417 28","city":"GÖTEBORG"}
{"name":"Vitaby Gatukök och pizzeria","legalLink":"/f/vitaby-gatukök-och-pizzeria:14524600","street":"Hälleflundreg. 12, ","postalCode":"426 58","city":"VÄSTRA FRÖLUNDA"}
{"name":"Pizzeria Sanremo","legalLink":"/f/pizzeria-sanremo:14886279","url":"http://www.sanremo.se","street":"Nordhagsv. 28, ","postalCode":"423 34","city":"TORSLANDA"}
{"name":"Guldhedens Pizzeria","legalLink":"/f/guldhedens-pizzeria:124928370","street":"Vildapelsg. 3 A, ","postalCode":"413 20","city":"GÖTEBORG"}
{"name":"Stabbe Pizzeria","legalLink":"/f/stabbe-pizzeria:31327632","url":"http://www.stabbepizzeria.se","street":"Stabbetorget 4, ","postalCode":"416 80","city":"GÖTEBORG"}
{"name":"Café & Pizzeria i Sannegården","legalLink":"/f/café-pizzeria-i-sannegården:124952479","street":"Artillerig. 8 D, ","postalCode":"415 03","city":"GÖTEBORG"}
{"name":"Portofino","legalLink":"/f/portofino:8576303","street":"Starbåtsgatan 1, ","postalCode":"426 71","city":"VÄSTRA FRÖLUNDA"}
{"name":"Stars and stripes","legalLink":"/f/stars-and-stripes:124133873","url":"http://www.starsnstripes.se","street":"Klangfärgsg. 3, ","postalCode":"426 52","city":"VÄSTRA FRÖLUNDA"}
{"name":"Kastellgatans Pizzeria","legalLink":"/f/kastellgatans-pizzeria:124928217","street":"Kastellg. 15, ","postalCode":"413 07","city":"GÖTEBORG"}
{"name":"Cafe Pomerans Pizzeria & Restaurang","legalLink":"/f/cafe-pomerans-pizzeria-restaurang:124927426","url":"https://sv-se.facebook.com/CafePomerns","street":"Blåsvädersg. 12, ","postalCode":"418 32","city":"GÖTEBORG"}
{"name":"Knippla Pizza","legalLink":"/f/knippla-pizza:124283390","street":"Källöv. 3, ","postalCode":"475 51","city":"KÄLLÖ-KNIPPLA"}
{"name":"Tio Pepe","legalLink":"/f/tio-pepe:14492362","url":"http://www.restaurangtiopepe.se","street":"Sten Stureg. 17, ","postalCode":"412 52","city":"GÖTEBORG"}
{"name":"La Venezia Pizza Restaurang","legalLink":"/f/la-venezia-pizza-restaurang:125067472","street":"Danska v. 97, ","postalCode":"416 59","city":"GÖTEBORG"}
{"name":"Pizza Roma Sanatoriegatan","legalLink":"/f/pizza-roma-sanatoriegatan:17537864","url":"http://www.romapizza.nu","street":"Sanatorieg. 15 B, ","postalCode":"416 53","city":"GÖTEBORG"}
{"name":"Godhems pizzabutik","legalLink":"/f/godhems-pizzabutik:5070617","street":"Godhemsgatan 25, ","postalCode":"414 68","city":"GÖTEBORG"}
{"name":"Bano restaurang och bar","legalLink":"/f/bano-restaurang-och-bar:13748277","street":"Gropegårdsg. 3, ","postalCode":"417 15","city":"GÖTEBORG"}
{"name":"Montazer Mehdi","legalLink":"/f/montazer-mehdi:15181954","url":"https://www.facebook.com/Ilonas-pizzeria-194591490874339/","street":"Hjuviks Bryggv. 18, ","postalCode":"423 40","city":"TORSLANDA"}
{"name":"Cesar Pizzeria","legalLink":"/f/cesar-pizzeria:7841862","url":"http://www.cesarpizzeria.se","street":"Bergsätersg. 1, ","postalCode":"421 66","city":"VÄSTRA FRÖLUNDA"}
{"name":"Sörgårdens Bageri-Konditori-Pizzeria","legalLink":"/f/sörgårdens-bageri-konditori-pizzeria:124928427","street":"Södra v. 97, ","postalCode":"412 63","city":"GÖTEBORG"}
{"name":"Da Mario Pizzabutik","legalLink":"/f/da-mario-pizzabutik:124928286","street":"Frölunda torg, ","postalCode":"421 44","city":"VÄSTRA FRÖLUNDA"}
{"name":"Göteborgs Kött och Pizzagrossist AB","legalLink":"/f/göteborgs-kött-och-pizzagrossist-ab:4532934","street":"Slakthusgatan, ","postalCode":"415 02","city":"GÖTEBORG"}
{"name":"Grimmereds Pizzeria","legalLink":"/f/grimmereds-pizzeria:14355996","street":"Grimmeredsvägen 99, ","postalCode":"426 69","city":"VÄSTRA FRÖLUNDA"}
{"name":"Il Vagabondo Pizzeria","legalLink":"/f/il-vagabondo-pizzeria:16552370","street":"Förstamajgatan 5, ","postalCode":"415 10","city":"GÖTEBORG"}
{"name":"Pizzeria Matador","legalLink":"/f/pizzeria-matador:15828695","street":"Sanatorieg. 15, ","postalCode":"416 53","city":"GÖTEBORG"}
{"name":"Valentino Pizzeria","legalLink":"/f/valentino-pizzeria:8023711","street":"Slättadammsg. 1 A, ","postalCode":"417 27","city":"GÖTEBORG"}
{"name":"Porten's Pizza","legalLink":"/f/portens-pizza:13747836","url":"http://www.portenspizza.se","street":"Göteborgsv. 1, ","postalCode":"431 30","city":"MÖLNDAL"}
{"name":"La cantina Pizza","legalLink":"/f/la-cantina-pizza:124928378","street":"Ejderg. 10 E, ","postalCode":"416 68","city":"GÖTEBORG"}
{"name":"Old Persian","legalLink":"/f/old-persian:113992823","url":"http://www.oldpersian.se/","street":"Torgg. 4, ","postalCode":"411 05","city":"GÖTEBORG"}
{"name":"Pizza Pronto","legalLink":"/f/pizza-pronto:124927664","street":"Lantmätareg. 12 D, ","postalCode":"417 06","city":"GÖTEBORG"}
{"name":"Tio Pepe","legalLink":"/f/tio-pepe:14492362","url":"http://www.restaurangtiopepe.se","street":"Sten Stureg. 17, ","postalCode":"412 52","city":"GÖTEBORG"}
{"name":"Contro Pizzeria","legalLink":"/f/contro-pizzeria:34069222","street":"Köpenhamnsgatan 5, ","postalCode":"418 77","city":"GÖTEBORG"}
{"name":"Hjallbo Sinibads Kebab","legalLink":"/f/hjallbo-sinibads-kebab:14957075","street":"Bergsgårdsgärdet 80, ","postalCode":"424 32","city":"ANGERED"}
{"name":"Pizzeria Matador","legalLink":"/f/pizzeria-matador:15828695","street":"Sanatorieg. 15, ","postalCode":"416 53","city":"GÖTEBORG"}
{"name":"Restaurang och Pizzeria Regementet","legalLink":"/f/restaurang-och-pizzeria-regementet:124952387","street":"L. Regementsv. 16, ","postalCode":"415 27","city":"GÖTEBORG"}
{"name":"Briljant Pizzeria","legalLink":"/f/briljant-pizzeria:112615512","street":"Safirg. 1, ","postalCode":"421 48","city":"VÄSTRA FRÖLUNDA"}
{"name":"Pizzeria Contessa","legalLink":"/f/pizzeria-contessa:31673214","url":"http://www.pizzeriacontessa.se","street":"Allmänna v. 42, ","postalCode":"414 60","city":"GÖTEBORG"}
{"name":"Sörgårdens Bageri Pizzeri","legalLink":"/f/sörgårdens-bageri-pizzeri:13584366","street":"Krokslätts parkgata 57, ","postalCode":"431 68","city":"MÖLNDAL"}
{"name":"Noretti pizzeria & restaurang","legalLink":"/f/noretti-pizzeria-restaurang:15664928","url":"http://www.norettipizzeria.n.nu","street":"Donsö Hamnv. 25, ","postalCode":"430 82","city":"DONSÖ"}
{"name":"Pizzeria Lepanto","legalLink":"/f/pizzeria-lepanto:13614856","url":"http://www.lepanto.se","street":"Marklandsg. 1, ","postalCode":"414 77","city":"GÖTEBORG"}
{"name":"Cemil Güven","legalLink":"/f/cemil-güven:125126898","street":"Regementsv. 11, ","postalCode":"415 28","city":"GÖTEBORG"}
{"name":"Eat and Drink","legalLink":"/f/eat-and-drink:124952251","url":"http://eatanddrink.se","street":"Södra v. 77, ","postalCode":"412 53","city":"GÖTEBORG"}
{"name":"Tayyar Pizzeria","legalLink":"/f/tayyar-pizzeria:15952797","street":"S. Viktoriag. 46, ","postalCode":"411 30","city":"GÖTEBORG"}
{"name":"Mizgin Pizzeria","legalLink":"/f/mizgin-pizzeria:69925450","street":"Västergårdsv. 3, ","postalCode":"438 52","city":"RÄVLANDA"}
{"name":"Joe Farelli's","legalLink":"/f/joe-farellis:4769545","url":"http://www.joefarelli.com","street":"Kungsportsavenyen 12, ","postalCode":"411 36","city":"GÖTEBORG"}
{"name":"Götas Pizzabutik AB","legalLink":"/f/götas-pizzabutik-ab:105337740","street":"Älvsborgsg. 39, ","postalCode":"414 72","city":"GÖTEBORG"}
{"name":"Pizzeria Pärla","legalLink":"/f/pizzeria-pärla:124928019","street":"Lisa Sass g. 18, ","postalCode":"422 53","city":"HISINGS BACKA"}
{"name":"Marmaris Pizza Kebab och Sallad","legalLink":"/f/marmaris-pizza-kebab-och-sallad:124952530","street":"Krokslätts Torg 4, ","postalCode":"431 37","city":"MÖLNDAL"}
{"name":"Nikolinas Bar, (Ryans Grillbar)","legalLink":"/f/nikolinas-bar-ryans-grillbar:14338792","street":"Wieselgrensplatsen 9, ","postalCode":"417 17","city":"GÖTEBORG"}
{"name":"Backa Pizza Plus","legalLink":"/f/backa-pizza-plus:51236491","street":"Prologg. 14, ","postalCode":"422 41","city":"HISINGS BACKA"}
{"name":"Lindholmens Pizzeria","legalLink":"/f/lindholmens-pizzeria:101309714","url":"http://www.lindholmenspizzeria.se/","street":"Lindholmsv. 1, ","postalCode":"417 57","city":"GÖTEBORG"}
{"name":"Importgruvan AB","legalLink":"/f/importgruvan-ab:117453933","street":"Härryda Centrum 1, ","postalCode":"438 92","city":"HÄRRYDA"}
{"name":"Herkules Pizzeria och Restaurang","legalLink":"/f/herkules-pizzeria-och-restaurang:13430850","street":"Brunnsbotorget 3, ","postalCode":"422 42","city":"HISINGS BACKA"}
{"name":"Pizzeria Barolo","legalLink":"/f/pizzeria-barolo:4375606","street":"St. Badhusg. 30, ","postalCode":"411 21","city":"GÖTEBORG"}
{"name":"Laneko Allservice","legalLink":"/f/laneko-allservice:16299835","street":"G. Riksv. 54, ","postalCode":"428 30","city":"KÅLLERED"}
{"name":"Opalpizzerian","legalLink":"/f/opalpizzerian:16041013","street":"Opaltorget, ","postalCode":"421 62","city":"VÄSTRA FRÖLUNDA"}
{"name":"Pizzeria Sanremo","legalLink":"/f/pizzeria-sanremo:14886279","url":"http://www.sanremo.se","street":"Nordhagsv. 28, ","postalCode":"423 34","city":"TORSLANDA"}
{"name":"Johannebar","legalLink":"/f/johannebar:14948740","url":"http://www.johannebar.se","street":"Eklandag. 65, ","postalCode":"412 61","city":"GÖTEBORG"}
{"name":"Pizzeria Vallentin i Kungsbacka","legalLink":"/f/pizzeria-vallentin-i-kungsbacka:14303963","url":"http://www.pizzeriavalentin.se","street":"Grinnekulleg. 227, ","postalCode":"417 42","city":"GÖTEBORG"}
{"name":"Pizzeria Mamma Rosa","legalLink":"/f/pizzeria-mamma-rosa:13791848","url":"http://www.pizzeriamammarosa.se/","street":"Lillhagsv. 39, ","postalCode":"422 43","city":"HISINGS BACKA"}
{"name":"Pizzeria Suverän","legalLink":"/f/pizzeria-suverän:14509108","street":"Kanelg. 2, ","postalCode":"424 39","city":"ANGERED"}
{"name":"Il Vagabondo Pizzeria","legalLink":"/f/il-vagabondo-pizzeria:16552370","street":"Förstamajgatan 5, ","postalCode":"415 10","city":"GÖTEBORG"}
{"name":"Öjersjö Pizzeria","legalLink":"/f/öjersjö-pizzeria:14613292","url":"https://www.facebook.com/%C3%96jersj%C3%B6-Pizzeria-124660627548405/","street":"Ekeblads v. 1, ","postalCode":"433 51","city":"ÖJERSJÖ"}
{"name":"Papa Joe's Pizza & Pasta","legalLink":"/f/papa-joes-pizza-pasta:13760172","street":"Sten Stureg. 28, ","postalCode":"411 39","city":"GÖTEBORG"}
{"name":"Ombra Ristorante Pizzeria","legalLink":"/f/ombra-ristorante-pizzeria:16275740","url":"http://gastrogate.com","street":"Plantageg. 11, ","postalCode":"413 05","city":"GÖTEBORG"}
{"name":"Ibbe´s Pizzeria","legalLink":"/f/ibbe´s-pizzeria:51135978","street":"Postgången 1, ","postalCode":"433 34","city":"PARTILLE"}
{"name":"Druvan Pizzeria","legalLink":"/f/druvan-pizzeria:7842238","street":"Almåsgången 1, ","postalCode":"437 30","city":"LINDOME"}
{"name":"Pizzeria Villagio","legalLink":"/f/pizzeria-villagio:16787672","url":"http://www.pizzeriavillagio.se","street":"Harald Hjärnesg. 15, ","postalCode":"417 20","city":"GÖTEBORG"}
{"name":"Restaurang & Pizzeria Iran","legalLink":"/f/restaurang-pizzeria-iran:14514765","url":"https://www.facebook.com/pages/Restaurang-och-Pizzeria-Iran/132998006759316","street":"Stigbergsliden 3, ","postalCode":"414 63","city":"GÖTEBORG"}
{"name":"Jamin Pizzeria","legalLink":"/f/jamin-pizzeria:116777588","street":"Drakegatan 8, ","postalCode":"412 50","city":"GÖTEBORG"}
{"name":"Odin's Pizzeria HB","legalLink":"/f/odins-pizzeria-hb:16285953","street":"Odinsg. 23, ","postalCode":"411 03","city":"GÖTEBORG"}
{"name":"Old Town","legalLink":"/f/old-town:17239285","url":"http://www.oldtown.se/","street":"Linnég. 38, ","postalCode":"413 04","city":"GÖTEBORG"}
{"name":"Gambero Pizzabutik","legalLink":"/f/gambero-pizzabutik:14986163","url":"http://www.pizzabutikgambero.se","street":"Övre Husarg. 5, ","postalCode":"411 22","city":"GÖTEBORG"}
{"name":"Pizzabutiken Bruno Franco","legalLink":"/f/pizzabutiken-bruno-franco:31581155","street":"Olivedalsg. 12, ","postalCode":"413 10","city":"GÖTEBORG"}
{"name":"Åby Pizzeria & Kebab","legalLink":"/f/åby-pizzeria-kebab:32793537","url":"http://www.abypizzeria.se","street":"Frölundag. 35, ","postalCode":"431 44","city":"MÖLNDAL"}
{"name":"Sancero Pizzeria","legalLink":"/f/sancero-pizzeria:14563782","url":"http://www.sanceropizzeria.se/","street":"Flygfältsg. 33, ","postalCode":"423 37","city":"TORSLANDA"}
{"name":"Pizzeria Monaco","legalLink":"/f/pizzeria-monaco:8036899","street":"Friggagatan 25A, ","postalCode":"416 64","city":"GÖTEBORG"}
{"name":"Freja Pizzeria","legalLink":"/f/freja-pizzeria:8125199","url":"http://www.frejapizzeria.se","street":"Frejaplan, ","postalCode":"433 62","city":"SÄVEDALEN"}
{"name":"Valentino Pizzeria","legalLink":"/f/valentino-pizzeria:8023711","street":"Slättadammsg. 1 A, ","postalCode":"417 27","city":"GÖTEBORG"}
{"name":"Tio Pepe","legalLink":"/f/tio-pepe:14492362","url":"http://www.restaurangtiopepe.se","street":"Sten Stureg. 17, ","postalCode":"412 52","city":"GÖTEBORG"}
{"name":"Pizzeria Pärla","legalLink":"/f/pizzeria-pärla:124928019","street":"Lisa Sass g. 18, ","postalCode":"422 53","city":"HISINGS BACKA"}
{"name":"Harrys Gatukök & Pizzabutik","legalLink":"/f/harrys-gatukök-pizzabutik:17200973","street":"G. Björlandav. 147, ","postalCode":"417 28","city":"GÖTEBORG"}
{"name":"Sannegårdens Pizzeria","legalLink":"/f/sannegårdens-pizzeria:123683184","street":"Ahrenbergsg. 8, ","postalCode":"416 73","city":"GÖTEBORG"}
{"name":"Dantes Pizzeria","legalLink":"/f/dantes-pizzeria:117536449","url":"http://www.dantespizzeria.se","street":"Värmlandsg. 20, ","postalCode":"413 28","city":"GÖTEBORG"}
{"name":"Da Mario Pizzabutik","legalLink":"/f/da-mario-pizzabutik:124928286","street":"Frölunda torg, ","postalCode":"421 44","city":"VÄSTRA FRÖLUNDA"}
{"name":"Pizzeria Restaur. Mantovani","legalLink":"/f/pizzeria-restaur-mantovani:124952346","street":"Månadsg. 28, ","postalCode":"415 08","city":"GÖTEBORG"}
{"name":"Smycketorgets Pizza & Kebab","legalLink":"/f/smycketorgets-pizza-kebab:122239161","url":"https://www.facebook.com/Smycketorgets-Pizzeria-1154249577924059/?rf=126684864063030","street":"Smyckeg. 1, ","postalCode":"426 50","city":"VÄSTRA FRÖLUNDA"}
{"name":"Viva La Focaccia AB","legalLink":"/f/viva-la-focaccia-ab:14524112","street":"Magasinsg. 3, ","postalCode":"411 18","city":"GÖTEBORG"}
{"name":"Pizzeria Campus","legalLink":"/f/pizzeria-campus:116780712","street":"Gibraltarg. 54, ","postalCode":"412 58","city":"GÖTEBORG"}
{"name":"Haga Pizzeria","legalLink":"/f/haga-pizzeria:93160681","url":"http://www.hagapizzeria.com","street":"S. Allég. 2 B, ","postalCode":"413 01","city":"GÖTEBORG"}
{"name":"Restaurang & Pizzeria Druvan","legalLink":"/f/restaurang-pizzeria-druvan:124927904","street":"Lindome, ","postalCode":"437 30","city":"LINDOME"}
{"name":"Smaskens Pizza Grill","legalLink":"/f/smaskens-pizza-grill:13735437","url":"https://www.facebook.com/pages/Smaskens-Pizza-Grill/163647510346866","street":"Stenungsundsg. 2, ","postalCode":"416 74","city":"GÖTEBORG"}
{"name":"Pizzeria Favenzia i Skintebo","legalLink":"/f/pizzeria-favenzia-i-skintebo:124928072","url":"http://favenzia.com/","street":"L. Skintebov. 4, ","postalCode":"427 34","city":"BILLDAL"}
{"name":"Da Vinci","legalLink":"/f/da-vinci:14484585","url":"http://www.restaurangdavinci.se","street":"Nordenskiöldsg. 23, ","postalCode":"413 09","city":"GÖTEBORG"}
{"name":"Lilla Rancho Restaurang och Pizzeria","legalLink":"/f/lilla-rancho-restaurang-och-pizzeria:14324169","street":"Kaggeledstorget 1, ","postalCode":"416 74","city":"GÖTEBORG"}
{"name":"La Venezia Pizzeria Restaurang","legalLink":"/f/la-venezia-pizzeria-restaurang:17381526","street":"Danska v. 87, ","postalCode":"416 59","city":"GÖTEBORG"}
{"name":"Maxi Grill & Pizzeria","legalLink":"/f/maxi-grill-pizzeria:13088570","street":"Moräng. 7, ","postalCode":"416 71","city":"GÖTEBORG"}
{"name":"Charlies Änglar","legalLink":"/f/charlies-änglar:124928244","url":"http://www.charliesanglar.net","street":"Vasaplatsen 2, ","postalCode":"411 34","city":"GÖTEBORG"}
{"name":"Cemal's Pizzeria","legalLink":"/f/cemals-pizzeria:8046017","street":"Hammarkulletorget 23, ","postalCode":"424 37","city":"ANGERED"}
{"name":"Pizzeria Mervana","legalLink":"/f/pizzeria-mervana:16642869","street":"Väderbodarna 1, ","postalCode":"418 35","city":"GÖTEBORG"}
{"name":"Januari Pizzeria","legalLink":"/f/januari-pizzeria:14619249","url":"https://www.facebook.com/pages/Komettorget-Pizzeria/157381460974724","street":"Komettorget 1, ","postalCode":"415 20","city":"GÖTEBORG"}
{"name":"Darias Pizzeria","legalLink":"/f/darias-pizzeria:124928046","street":"Stigbergsliden 18, ","postalCode":"414 63","city":"GÖTEBORG"}
{"name":"Old Persian","legalLink":"/f/old-persian:113992823","url":"http://www.oldpersian.se/","street":"Torgg. 4, ","postalCode":"411 05","city":"GÖTEBORG"}
{"name":"Importgruvan AB","legalLink":"/f/importgruvan-ab:117453933","street":"Härryda Centrum 1, ","postalCode":"438 92","city":"HÄRRYDA"}
{"name":"Rårörda Lingon","legalLink":"/f/rårörda-lingon:49227208","url":"http://www.pizzabutikgambero.se","street":"Slottsskogsg. 54, ","postalCode":"414 70","city":"GÖTEBORG"}
{"name":"Pizzeria Roma Kebab","legalLink":"/f/pizzeria-roma-kebab:124952754","street":"Paradisv. 2, ","postalCode":"433 31","city":"PARTILLE"}
{"name":"Café & Pizzeria i Sannegården","legalLink":"/f/café-pizzeria-i-sannegården:124952479","street":"Artillerig. 8 D, ","postalCode":"415 03","city":"GÖTEBORG"}
{"name":"Pizza Pronto","legalLink":"/f/pizza-pronto:124927664","street":"Lantmätareg. 12 D, ","postalCode":"417 06","city":"GÖTEBORG"}
{"name":"Pizzeria Snipen","legalLink":"/f/pizzeria-snipen:14667411","street":"Atmosfärg. 33, ","postalCode":"415 21","city":"GÖTEBORG"}
{"name":"I Love pizza - Allum","legalLink":"/f/i-love-pizza-allum:117195936","street":"Kyrktorget 19, ","postalCode":"433 33","city":"PARTILLE"}
{"name":"Bordet Restaurang","legalLink":"/f/bordet-restaurang:14297534","url":"http://www.restaurangbordet.se","street":"Angereds Torg 1, ","postalCode":"424 65","city":"ANGERED"}
{"name":"Tynnereds Pizzeria","legalLink":"/f/tynnereds-pizzeria:124928050","url":"https://sv-se.facebook.com/Tynnered-Pizzeria-452366971456628/","street":"L. Grevegårdsv. 1, ","postalCode":"426 55","city":"VÄSTRA FRÖLUNDA"}
{"name":"Dr Forselius Pizzeria","legalLink":"/f/dr-forselius-pizzeria:124928333","street":"","postalCode":"413 26","city":"GÖTEBORG"}
{"name":"Porten's Pizza","legalLink":"/f/portens-pizza:13747836","url":"http://www.portenspizza.se","street":"Göteborgsv. 1, ","postalCode":"431 30","city":"MÖLNDAL"}
{"name":"Sannegårdens Pizzeria","legalLink":"/f/sannegårdens-pizzeria:51129915","url":"http://sannegarden.letuseat.se/","street":"Ö. Eriksbergsg. 24, ","postalCode":"417 63","city":"GÖTEBORG"}
{"name":"Pizzeria Villagio","legalLink":"/f/pizzeria-villagio:13303109","url":"http://www.pizzeriavillagio.se","street":"Gibraltarg. 36, ","postalCode":"412 58","city":"GÖTEBORG"}
{"name":"Restaurang Afamia","legalLink":"/f/restaurang-afamia:3910808","street":"Reutersg. 2, ","postalCode":"413 20","city":"GÖTEBORG"}
{"name":"Högsbo Pizza","legalLink":"/f/högsbo-pizza:15164044","street":"Högsbog. 13, ","postalCode":"414 75","city":"GÖTEBORG"}
{"name":"Gigi Bar & Kök","legalLink":"/f/gigi-bar-kök:14897719","url":"http://www.gigi.dinstudio.se","street":"Radiotorget 5, ","postalCode":"421 33","city":"VÄSTRA FRÖLUNDA"}
{"name":"Pizzeria Al Forno","legalLink":"/f/pizzeria-al-forno:124952423","street":"Januarig. 6, ","postalCode":"415 15","city":"GÖTEBORG"}
{"name":"Pizzeria Kibar","legalLink":"/f/pizzeria-kibar:124927958","street":"Bärnstensg., ","postalCode":"426 52","city":"VÄSTRA FRÖLUNDA"}
{"name":"Restaurang & Pizzeria Timjan","legalLink":"/f/restaurang-pizzeria-timjan:15859417","url":"http://www.restaurangtimjan.se","street":"Brunnegårdsv. 11, ","postalCode":"433 32","city":"PARTILLE"}
{"name":"Galliano Kök & Bar","legalLink":"/f/galliano-kök-bar:16709033","street":"Masthuggstorget 3, ","postalCode":"413 27","city":"GÖTEBORG"}
{"name":"Ristorante Monte Bianco","legalLink":"/f/ristorante-monte-bianco:14947873","url":"http://www.restaurangmontebianco.se","street":"Mölndalsv. 3, ","postalCode":"412 63","city":"GÖTEBORG"}
{"name":"Pizzeria Kibar","legalLink":"/f/pizzeria-kibar:4375110","street":"Bärnstensg. 69, ","postalCode":"426 52","city":"VÄSTRA FRÖLUNDA"}
{"name":"Pizzeria La Mama","legalLink":"/f/pizzeria-la-mama:125471875","street":"Klippan 1, ","postalCode":"414 51","city":"GÖTEBORG"}
{"name":"Dorado Pizza, Kebab och Sallader","legalLink":"/f/dorado-pizza-kebab-och-sallader:13840020","url":"http://www.doradopizzeria.se","street":"Fridkullag. 20 A, ","postalCode":"412 62","city":"GÖTEBORG"}
{"name":"Pizzeria Örn","legalLink":"/f/pizzeria-örn:14957449","url":"http://ornpizzeria.se/majorna/","street":"Bang. 22, ","postalCode":"414 63","city":"GÖTEBORG"}
{"name":"Rucola Restaurang Bar & Pizzeria","legalLink":"/f/rucola-restaurang-bar-pizzeria:7869470","street":"Frejag. 9, ","postalCode":"431 44","city":"MÖLNDAL"}
{"name":"Sb Taxi I Göteborg","legalLink":"/f/sb-taxi-i-göteborg:14587121","street":"Halvardsg. 2, ","postalCode":"417 28","city":"GÖTEBORG"}
{"name":"Pizzabutik Rimini","legalLink":"/f/pizzabutik-rimini:115120911","street":"Fjärde långgatan 1, ","postalCode":"413 05","city":"GÖTEBORG"}
{"name":"I Love pizza - Allum","legalLink":"/f/i-love-pizza-allum:117195936","street":"Kyrktorget 19, ","postalCode":"433 33","city":"PARTILLE"}
{"name":"Helin Restaurang & Pizzeria HB","legalLink":"/f/helin-restaurang-pizzeria-hb:123829232","street":"Göteborgsv. 23, ","postalCode":"431 30","city":"MÖLNDAL"}
{"name":"Pizzeria Sanremo","legalLink":"/f/pizzeria-sanremo:14886279","url":"http://www.sanremo.se","street":"Nordhagsv. 28, ","postalCode":"423 34","city":"TORSLANDA"}
{"name":"Pizzeria Pomodoro","legalLink":"/f/pizzeria-pomodoro:4375553","url":"http://www.pomodoro.se/","street":"Welanderg. 58, ","postalCode":"416 56","city":"GÖTEBORG"}
{"name":"Porten's Pizza","legalLink":"/f/portens-pizza:13747836","url":"http://www.portenspizza.se","street":"Göteborgsv. 1, ","postalCode":"431 30","city":"MÖLNDAL"}
{"name":"Pizzeria Victorias Palace","legalLink":"/f/pizzeria-victorias-palace:17465709","url":"http://thaisamila.se/","street":"Delsjöv. 7, ","postalCode":"412 66","city":"GÖTEBORG"}
{"name":"Reza Pizzeria","legalLink":"/f/reza-pizzeria:14355504","street":"Andra Långg. 53, ","postalCode":"413 27","city":"GÖTEBORG"}
{"name":"Sicilus Pizza","legalLink":"/f/sicilus-pizza:15394712","street":"Statareg. 2 E, ","postalCode":"417 15","city":"GÖTEBORG"}
{"name":"Skafferiet Coffee Bar","legalLink":"/f/skafferiet-coffee-bar:8553729","url":"http://www.trattoriatredici.com/","street":"Västgötag. 9, ","postalCode":"411 39","city":"GÖTEBORG"}
{"name":"Freja Pizzeria","legalLink":"/f/freja-pizzeria:8125199","url":"http://www.frejapizzeria.se","street":"Frejaplan, ","postalCode":"433 62","city":"SÄVEDALEN"}
{"name":"Pizza Roma Sanatoriegatan","legalLink":"/f/pizza-roma-sanatoriegatan:17537864","url":"http://www.romapizza.nu","street":"Sanatorieg. 15 B, ","postalCode":"416 53","city":"GÖTEBORG"}
{"name":"Pizzeria 13","legalLink":"/f/pizzeria-13:13751545","street":"Chalmersg. 13, ","postalCode":"411 35","city":"GÖTEBORG"}
{"name":"Pizzeria Barco","legalLink":"/f/pizzeria-barco:115185040","url":"http://www.pizzabarco.se","street":"Hälleflundreg. 16, ","postalCode":"426 58","city":"VÄSTRA FRÖLUNDA"}
{"name":"Systrarna Olssons Våffelbageri","legalLink":"/f/systrarna-olssons-våffelbageri:124952243","url":"http://www.liseberg.se","street":"Örgrytev. 5, ","postalCode":"412 51","city":"GÖTEBORG"}
{"name":"Sorelle Bistro","legalLink":"/f/sorelle-bistro:124727195","url":"http://www.sorellebistro.se","street":"Hovås Allé 12, ","postalCode":"436 53","city":"HOVÅS"}
{"name":"Ninas Pizzeria","legalLink":"/f/ninas-pizzeria:13937301","street":"Tuvev. 33, ","postalCode":"417 05","city":"GÖTEBORG"}
{"name":"Ombra Ristorante Pizzeria","legalLink":"/f/ombra-ristorante-pizzeria:16275740","url":"http://gastrogate.com","street":"Plantageg. 11, ","postalCode":"413 05","city":"GÖTEBORG"}
{"name":"Göteborgs Kött och Pizzagrossist AB","legalLink":"/f/göteborgs-kött-och-pizzagrossist-ab:4532934","street":"Slakthusgatan, ","postalCode":"415 02","city":"GÖTEBORG"}
{"name":"Pizzeria Vallentin i Kungsbacka","legalLink":"/f/pizzeria-vallentin-i-kungsbacka:14303963","url":"http://www.pizzeriavalentin.se","street":"Grinnekulleg. 227, ","postalCode":"417 42","city":"GÖTEBORG"}
{"name":"Pizzeria Voanew KB","legalLink":"/f/pizzeria-voanew-kb:13303107","street":"L. Regementsv. 16, ","postalCode":"415 27","city":"GÖTEBORG"}
{"name":"Silverkråkan","legalLink":"/f/silverkråkan:14923692","url":"https://www.facebook.com/pages/Silverkr%C3%A5kan/172311382809216","street":"Silvermyntsg. 1, ","postalCode":"414 79","city":"GÖTEBORG"}
{"name":"Vallhamra Pizzeria & Grill","legalLink":"/f/vallhamra-pizzeria-grill:9721830","street":"Vallhamra torg 2, ","postalCode":"433 65","city":"SÄVEDALEN"}
{"name":"Sannegårdens Pizzeria","legalLink":"/f/sannegårdens-pizzeria:117568876","url":"http://www.sannegardenspizzeria.se","street":"Ö. Eriksbergsg. 24, ","postalCode":"417 63","city":"GÖTEBORG"}
{"name":"E.C.A Pizzeria EF","legalLink":"/f/eca-pizzeria-ef:14462588","street":"Rimfrostg. 47, ","postalCode":"418 40","city":"GÖTEBORG"}
{"name":"Pizza Hut","legalLink":"/f/pizza-hut:7808199","url":"http://www.pizzahut.se","street":"Postg. 47, ","postalCode":"411 06","city":"GÖTEBORG"}
{"name":"Darias Pizzeria","legalLink":"/f/darias-pizzeria:124928046","street":"Stigbergsliden 18, ","postalCode":"414 63","city":"GÖTEBORG"}
{"name":"Rucola Restaurang Bar & Pizzeria","legalLink":"/f/rucola-restaurang-bar-pizzeria:7869470","street":"Frejag. 9, ","postalCode":"431 44","city":"MÖLNDAL"}
{"name":"Flatås Krog & Pizzeria","legalLink":"/f/flatås-krog-pizzeria:124928327","url":"https://www.facebook.com/pages/Flat%C3%A5s-Krog-Pizzeria/185098631500460","street":"Synhållsg. 16, ","postalCode":"421 73","city":"VÄSTRA FRÖLUNDA"}
{"name":"Pizzeria Lepanto","legalLink":"/f/pizzeria-lepanto:13614856","url":"http://www.lepanto.se","street":"Marklandsg. 1, ","postalCode":"414 77","city":"GÖTEBORG"}
{"name":"Pizzeria Favenzia i Skintebo","legalLink":"/f/pizzeria-favenzia-i-skintebo:124928072","url":"http://favenzia.com/","street":"L. Skintebov. 4, ","postalCode":"427 34","city":"BILLDAL"}
{"name":"Deniz Pizzeria, Kebab & Salladsbar","legalLink":"/f/deniz-pizzeria-kebab-salladsbar:7839321","url":"http://www.denizpizza.se","street":"Bromeliusg. 9 A, ","postalCode":"416 73","city":"GÖTEBORG"}
{"name":"Sannegårdens Pizzeria","legalLink":"/f/sannegårdens-pizzeria:124928416","url":"http://www.sannegardens.se","street":"Gibraltarg. 52, ","postalCode":"412 58","city":"GÖTEBORG"}
{"name":"Stars and stripes","legalLink":"/f/stars-and-stripes:124133873","url":"http://www.starsnstripes.se","street":"Klangfärgsg. 3, ","postalCode":"426 52","city":"VÄSTRA FRÖLUNDA"}
{"name":"Restaurang Hemma Hos - Café Kök Bar","legalLink":"/f/restaurang-hemma-hos-café-kök-bar:103555928","street":"Hökabergsvägen 1, ","postalCode":"438 34","city":"LANDVETTER"}
{"name":"Stefans Bar & Kök","legalLink":"/f/stefans-bar-kök:14456833","street":"Järnbrotts Prästv. 7 D, ","postalCode":"421 47","city":"VÄSTRA FRÖLUNDA"}
{"name":"Ruffino Pizza och Kebab","legalLink":"/f/ruffino-pizza-och-kebab:7840409","url":"http://pizza-meny.se/","street":"Allmänna v. 15, ","postalCode":"414 60","city":"GÖTEBORG"}
{"name":"Gatsby Pizzeria","legalLink":"/f/gatsby-pizzeria:116731362","street":"Långlyckev. 12, ","postalCode":"436 43","city":"ASKIM"}
{"name":"Donsö Hamnpizzeria & Café","legalLink":"/f/donsö-hamnpizzeria-café:124952324","street":"Hamnen Donsö, ","postalCode":"430 82","city":"DONSÖ"}
{"name":"Eklanda Krog och Pizzeria","legalLink":"/f/eklanda-krog-och-pizzeria:14660372","url":"http://eklandakrog.se","street":"Eklanda Gård 2, ","postalCode":"431 59","city":"MÖLNDAL"}
{"name":"Pizzeria, Dinos","legalLink":"/f/pizzeria-dinos:5192300","url":"https://www.facebook.com/Dinos-Pizzeria-L%C3%A4nsmanstorget-2-800094473338122/?rf=186748711352192","street":"Länsmanstorget 2, ","postalCode":"418 40","city":"GÖTEBORG"}
{"name":"Pizzeria Barolo","legalLink":"/f/pizzeria-barolo:4375606","street":"St. Badhusg. 30, ","postalCode":"411 21","city":"GÖTEBORG"}
{"name":"Pizzeria Snipen","legalLink":"/f/pizzeria-snipen:14667411","street":"Atmosfärg. 33, ","postalCode":"415 21","city":"GÖTEBORG"}
{"name":"Pizzeria Roma Kebab","legalLink":"/f/pizzeria-roma-kebab:14199486","street":"Lexbyvägen 19, ","postalCode":"433 31","city":"PARTILLE"}
{"name":"Sörgårdens Bageri-Konditori-Pizzeria","legalLink":"/f/sörgårdens-bageri-konditori-pizzeria:124928427","street":"Södra v. 97, ","postalCode":"412 63","city":"GÖTEBORG"}
{"name":"Opalpizzerian","legalLink":"/f/opalpizzerian:16041013","street":"Opaltorget, ","postalCode":"421 62","city":"VÄSTRA FRÖLUNDA"}
{"name":"Reza Pizzeria","legalLink":"/f/reza-pizzeria:14355504","street":"Andra Långg. 53, ","postalCode":"413 27","city":"GÖTEBORG"}
{"name":"Villa Aslan AB","legalLink":"/f/villa-aslan-ab:14622502","url":"http://www.cafevillan.com/","street":"Rubing. 32, ","postalCode":"421 53","city":"VÄSTRA FRÖLUNDA"}
{"name":"Pizzabutik Pärlan","legalLink":"/f/pizzabutik-pärlan:124927350","street":"Vintervädersg. 1, ","postalCode":"418 36","city":"GÖTEBORG"}
{"name":"Bekal Pizzeria","legalLink":"/f/bekal-pizzeria:124928361","street":"Artillerig. 8 A, ","postalCode":"415 03","city":"GÖTEBORG"}
{"name":"Pizza Roma Sanatoriegatan","legalLink":"/f/pizza-roma-sanatoriegatan:17537864","url":"http://www.romapizza.nu","street":"Sanatorieg. 15 B, ","postalCode":"416 53","city":"GÖTEBORG"}
{"name":"Hempizza","legalLink":"/f/hempizza:14986040","url":"http://www.hempizza.gastrogate.com/","street":"Konditoriv. 1, ","postalCode":"437 33","city":"LINDOME"}
{"name":"Grimmereds Pizzeria","legalLink":"/f/grimmereds-pizzeria:14355996","street":"Grimmeredsvägen 99, ","postalCode":"426 69","city":"VÄSTRA FRÖLUNDA"}
{"name":"Pizzeria Sera","legalLink":"/f/pizzeria-sera:14974646","url":"http://www.pizzeriasera.se/","street":"Nansensg. 1, ","postalCode":"417 19","city":"GÖTEBORG"}
{"name":"Hjallbo Sinibads Kebab","legalLink":"/f/hjallbo-sinibads-kebab:14957075","street":"Bergsgårdsgärdet 80, ","postalCode":"424 32","city":"ANGERED"}
{"name":"Importgruvan AB","legalLink":"/f/importgruvan-ab:117453933","street":"Härryda Centrum 1, ","postalCode":"438 92","city":"HÄRRYDA"}
{"name":"Pizzabutik Italia","legalLink":"/f/pizzabutik-italia:16676866","url":"http://pizzaitalia.se/","street":"Stobéeg. 6, ","postalCode":"416 53","city":"GÖTEBORG"}
{"name":"La cantina Pizza","legalLink":"/f/la-cantina-pizza:124928378","street":"Ejderg. 10 E, ","postalCode":"416 68","city":"GÖTEBORG"}
{"name":"Pizzeria Milano","legalLink":"/f/pizzeria-milano:124928357","street":"Artillerig. 8 D, ","postalCode":"415 03","city":"GÖTEBORG"}
{"name":"Flintston","legalLink":"/f/flintston:16871726","url":"http://www.flintston.se","street":"Swedenborgsg. 1, ","postalCode":"417 05","city":"GÖTEBORG"}
{"name":"Pad Thai Restaurang","legalLink":"/f/pad-thai-restaurang:124927328","street":"Björlanda Kile, ","postalCode":"423 61","city":"TORSLANDA"}
{"name":"Sjöporten Restaurang AB","legalLink":"/f/sjöporten-restaurang-ab:118689576","url":"http://sjoporten5.se/","street":"Sjöporten 5, ","postalCode":"417 64","city":"GÖTEBORG"}
{"name":"Ibbe´s Pizzeria","legalLink":"/f/ibbe´s-pizzeria:51135978","street":"Postgången 1, ","postalCode":"433 34","city":"PARTILLE"}
{"name":"Pizzeria Monaco","legalLink":"/f/pizzeria-monaco:8036899","street":"Friggagatan 25A, ","postalCode":"416 64","city":"GÖTEBORG"}
{"name":"Joe Farelli's","legalLink":"/f/joe-farellis:4769545","url":"http://www.joefarelli.com","street":"Kungsportsavenyen 12, ","postalCode":"411 36","city":"GÖTEBORG"}
{"name":"Pizzeria La Mama","legalLink":"/f/pizzeria-la-mama:125471875","street":"Klippan 1, ","postalCode":"414 51","city":"GÖTEBORG"}
{"name":"Kyrkbyns Pizzeria","legalLink":"/f/kyrkbyns-pizzeria:124927472","street":"","postalCode":"418 73","city":"GÖTEBORG"}
{"name":"Lilla Restaurangen","legalLink":"/f/lilla-restaurangen:14981604","url":"http://www.lillarestaurangen.se","street":"Redbergsv. 8, ","postalCode":"416 65","city":"GÖTEBORG"}
{"name":"Nobel Pizzeria","legalLink":"/f/nobel-pizzeria:124952505","street":"Nobelg. 29, ","postalCode":"416 57","city":"GÖTEBORG"}
{"name":"Sokrates Taverna","legalLink":"/f/sokrates-taverna:7824557","url":"http://www.sokratestaverna.se","street":"Krokslätts Parkg. 71, ","postalCode":"431 68","city":"MÖLNDAL"}
{"name":"Melli Pizzeria","legalLink":"/f/melli-pizzeria:14351645","url":"https://www.facebook.com/pages/Melli-Pizzeria/193160670706122","street":"Älvsborgsg. 29, ","postalCode":"414 72","city":"GÖTEBORG"}
{"name":"Vallhamra Pizzeria & Grill","legalLink":"/f/vallhamra-pizzeria-grill:9721830","street":"Vallhamra torg 2, ","postalCode":"433 65","city":"SÄVEDALEN"}
{"name":"Göteborgs Kött och Pizzagrossist AB","legalLink":"/f/göteborgs-kött-och-pizzagrossist-ab:4532934","street":"Slakthusgatan, ","postalCode":"415 02","city":"GÖTEBORG"}
{"name":"Juventus Pizzeria 2","legalLink":"/f/juventus-pizzeria-2:124927975","url":"https://www.facebook.com/JuventusPizzeria2","street":"Saffransg. 27, ","postalCode":"424 42","city":"ANGERED"}
{"name":"Pizzeria Contessa","legalLink":"/f/pizzeria-contessa:31673214","url":"http://www.pizzeriacontessa.se","street":"Allmänna v. 42, ","postalCode":"414 60","city":"GÖTEBORG"}
{"name":"Pizzeria Livia","legalLink":"/f/pizzeria-livia:124927709","url":"https://www.facebook.com/pages/Pizzeria-Livia/204386126241477","street":"Ostindiefararen 43, ","postalCode":"417 65","city":"GÖTEBORG"}
{"name":"Pizza Provencale","legalLink":"/f/pizza-provencale:124952440","street":"Viktoriagatan 10, ","postalCode":"411 25","city":"GÖTEBORG"}
{"name":"Pizzeria Bella","legalLink":"/f/pizzeria-bella:124927796","street":"Herkulesg. 38, ","postalCode":"417 01","city":"GÖTEBORG"}
{"name":"Öjersjö Pizzeria","legalLink":"/f/öjersjö-pizzeria:14613292","url":"https://www.facebook.com/%C3%96jersj%C3%B6-Pizzeria-124660627548405/","street":"Ekeblads v. 1, ","postalCode":"433 51","city":"ÖJERSJÖ"}
{"name":"Göteborgs Kött och Pizzagross","legalLink":"/f/göteborgs-kött-och-pizzagross:124928274","street":"Slakthusg. 8, ","postalCode":"415 02","city":"GÖTEBORG"}
{"name":"Portofino Mat & Dryck","legalLink":"/f/portofino-mat-dryck:14957049","url":"http://www.portofino.se","street":"Lodjursv. 4, ","postalCode":"433 50","city":"ÖJERSJÖ"}
{"name":"Pizzabageriet","legalLink":"/f/pizzabageriet:116748860","street":"Prinsg. 4, ","postalCode":"413 05","city":"GÖTEBORG"}
{"name":"Henkes Pizzeria","legalLink":"/f/henkes-pizzeria:14290198","street":"Haguddsv. 7, ","postalCode":"435 39","city":"MÖLNLYCKE"}
{"name":"Harrys Gatukök & Pizzabutik","legalLink":"/f/harrys-gatukök-pizzabutik:17200973","street":"G. Björlandav. 147, ","postalCode":"417 28","city":"GÖTEBORG"}
{"name":"Kungsgatan 19","legalLink":"/f/kungsgatan-19:15694844","url":"http://www.kungsgatan19.se/","street":"Kungsg. 19, ","postalCode":"411 19","city":"GÖTEBORG"}
{"name":"Erciyes Pizza II AB Linnés Kök & Bar","legalLink":"/f/erciyes-pizza-ii-ab-linnés-kök-bar:16026071","street":"Linnégatan 38A, ","postalCode":"413 04","city":"GÖTEBORG"}
{"name":"S:t Pauli Pizzeria","legalLink":"/f/st-pauli-pizzeria:115215939","url":"http://www.stpaulipizzeria.se","street":"Karlag. 19 B, ","postalCode":"416 61","city":"GÖTEBORG"}
{"name":"Cafe Pomerans Pizzeria & Restaurang","legalLink":"/f/cafe-pomerans-pizzeria-restaurang:124927426","url":"https://sv-se.facebook.com/CafePomerns","street":"Blåsvädersg. 12, ","postalCode":"418 32","city":"GÖTEBORG"}
{"name":"Pizza4you","legalLink":"/f/pizza4you:14304987","url":"http://www.pizza4you.nu","street":"Krokslätts Parkg. 57, ","postalCode":"431 68","city":"MÖLNDAL"}
{"name":"Peoples Homes AB","legalLink":"/f/peoples-homes-ab:14946523","street":"Hängestensv. 60, ","postalCode":"421 67","city":"VÄSTRA FRÖLUNDA"}
{"name":"Tayyar Pizzeria","legalLink":"/f/tayyar-pizzeria:15952797","street":"S. Viktoriag. 46, ","postalCode":"411 30","city":"GÖTEBORG"}
{"name":"Pizzeria Monaco","legalLink":"/f/pizzeria-monaco:8036899","street":"Friggagatan 25A, ","postalCode":"416 64","city":"GÖTEBORG"}
{"name":"Dr. Fries Pizzeria","legalLink":"/f/dr-fries-pizzeria:98905981","street":"Doktor fries torg, ","postalCode":"413 23","city":"GÖTEBORG"}
{"name":"Pizzeria Libiza","legalLink":"/f/pizzeria-libiza:124928385","street":"Artillerig. 12 B, ","postalCode":"415 03","city":"GÖTEBORG"}
{"name":"Pizzeria Sanremo","legalLink":"/f/pizzeria-sanremo:14886279","url":"http://www.sanremo.se","street":"Nordhagsv. 28, ","postalCode":"423 34","city":"TORSLANDA"}
{"name":"EL Figaro Pizzeria","legalLink":"/f/el-figaro-pizzeria:32452668","url":"http://www.onneredspizzeria.se","street":"Klåveskärsg. 2 A, ","postalCode":"421 59","city":"VÄSTRA FRÖLUNDA"}
{"name":"Roma Restaurang och Pizzeria","legalLink":"/f/roma-restaurang-och-pizzeria:124928063","url":"http://romarestaurang.com","street":"Ringög. 16, ","postalCode":"417 07","city":"GÖTEBORG"}
{"name":"Restaurang & Pizzeria Genovese","legalLink":"/f/restaurang-pizzeria-genovese:124952697","street":"Järnringen 20, ","postalCode":"433 30","city":"PARTILLE"}
{"name":"Kullaviks Restaurang och Pizzeria","legalLink":"/f/kullaviks-restaurang-och-pizzeria:92362523","street":"Molnvädersg. 28, ","postalCode":"418 35","city":"GÖTEBORG"}
{"name":"Deniz Pizzeria, Kebab & Salladsbar","legalLink":"/f/deniz-pizzeria-kebab-salladsbar:7839321","url":"http://www.denizpizza.se","street":"Bromeliusg. 9 A, ","postalCode":"416 73","city":"GÖTEBORG"}
{"name":"Jamin Pizzeria","legalLink":"/f/jamin-pizzeria:116777588","street":"Drakegatan 8, ","postalCode":"412 50","city":"GÖTEBORG"}
{"name":"Restaurang & Pizzeria Timjan","legalLink":"/f/restaurang-pizzeria-timjan:15859417","url":"http://www.restaurangtimjan.se","street":"Brunnegårdsv. 11, ","postalCode":"433 32","city":"PARTILLE"}
{"name":"Pizzeria 10 Minuter","legalLink":"/f/pizzeria-10-minuter:124952143","street":"Brattåskärrsvägen 55, ","postalCode":"433 64","city":"SÄVEDALEN"}
{"name":"Smaskens Pizza Grill","legalLink":"/f/smaskens-pizza-grill:13735437","url":"https://www.facebook.com/pages/Smaskens-Pizza-Grill/163647510346866","street":"Stenungsundsg. 2, ","postalCode":"416 74","city":"GÖTEBORG"}
{"name":"Eat and Drink","legalLink":"/f/eat-and-drink:124952251","url":"http://eatanddrink.se","street":"Södra v. 77, ","postalCode":"412 53","city":"GÖTEBORG"}
{"name":"Bryggan Restaurang","legalLink":"/f/bryggan-restaurang:5190784","street":"Karl johansgatan 58, ","postalCode":"414 55","city":"GÖTEBORG"}
{"name":"Pizzeria Papillon","legalLink":"/f/pizzeria-papillon:124928306","street":"Doktor Forselius Backe 46, ","postalCode":"413 26","city":"GÖTEBORG"}
{"name":"Nobel Pizzeria","legalLink":"/f/nobel-pizzeria:124952505","street":"Nobelg. 29, ","postalCode":"416 57","city":"GÖTEBORG"}
{"name":"Restaurang Hemma Hos - Café Kök Bar","legalLink":"/f/restaurang-hemma-hos-café-kök-bar:103555928","street":"Hökabergsvägen 1, ","postalCode":"438 34","city":"LANDVETTER"}
{"name":"Slice Pizzeria","legalLink":"/f/slice-pizzeria:101693046","url":"http://slicepizzeria.se","street":"Artillerig. 12, ","postalCode":"415 03","city":"GÖTEBORG"}
{"name":"Alberts Pizzeria","legalLink":"/f/alberts-pizzeria:15661696","street":"Orustg. 2 A, ","postalCode":"414 74","city":"GÖTEBORG"}
{"name":"Knippla Pizza","legalLink":"/f/knippla-pizza:124283390","street":"Källöv. 3, ","postalCode":"475 51","city":"KÄLLÖ-KNIPPLA"}
{"name":"Potenza Restaurang Pizzeria Bar","legalLink":"/f/potenza-restaurang-pizzeria-bar:15710015","street":"Rävlanda Stationsv. 8, ","postalCode":"438 51","city":"RÄVLANDA"}
{"name":"Pizzeria Örn 2","legalLink":"/f/pizzeria-örn-2:13309233","url":"http://www.ornpizzeria.se","street":"Akkas g. 1, ","postalCode":"422 48","city":"HISINGS BACKA"}
{"name":"Tynnereds Pizzeria","legalLink":"/f/tynnereds-pizzeria:124928050","url":"https://sv-se.facebook.com/Tynnered-Pizzeria-452366971456628/","street":"L. Grevegårdsv. 1, ","postalCode":"426 55","city":"VÄSTRA FRÖLUNDA"}
{"name":"Restaurang och Pizzeria Safir","legalLink":"/f/restaurang-och-pizzeria-safir:7865060","street":"Jonseredsv. 21, ","postalCode":"433 75","city":"JONSERED"}
{"name":"Perlan Restaurang Bar och Pizza","legalLink":"/f/perlan-restaurang-bar-och-pizza:14994920","url":"http://www.restaurangperla.se","street":"G. Riksv. 54, ","postalCode":"428 30","city":"KÅLLERED"}
{"name":"Nisses Pizzeria AB","legalLink":"/f/nisses-pizzeria-ab:17211111","street":"Kållareds Centrum, ","postalCode":"428 32","city":"KÅLLERED"}
{"name":"Olympia Pizzeria","legalLink":"/f/olympia-pizzeria:32287801","street":"Lagerströmsplatsen 2, ","postalCode":"416 47","city":"GÖTEBORG"}
{"name":"Grand Pizzeria","legalLink":"/f/grand-pizzeria:65703978","street":"Fredåsg. 22, ","postalCode":"431 67","city":"MÖLNDAL"}
{"name":"Mizgin Pizzeria","legalLink":"/f/mizgin-pizzeria:69925450","street":"Västergårdsv. 3, ","postalCode":"438 52","city":"RÄVLANDA"}
{"name":"Sorelle Bistro","legalLink":"/f/sorelle-bistro:124727195","url":"http://www.sorellebistro.se","street":"Hovås Allé 12, ","postalCode":"436 53","city":"HOVÅS"}
{"name":"Tio Pepe","legalLink":"/f/tio-pepe:14492362","url":"http://www.restaurangtiopepe.se","street":"Sten Stureg. 17, ","postalCode":"412 52","city":"GÖTEBORG"}
{"name":"Bordet Restaurang","legalLink":"/f/bordet-restaurang:14297534","url":"http://www.restaurangbordet.se","street":"Angereds Torg 1, ","postalCode":"424 65","city":"ANGERED"}
{"name":"Pizzeria Örn","legalLink":"/f/pizzeria-örn:14957449","url":"http://ornpizzeria.se/majorna/","street":"Bang. 22, ","postalCode":"414 63","city":"GÖTEBORG"}
{"name":"Darias Pizzeria","legalLink":"/f/darias-pizzeria:124928046","street":"Stigbergsliden 18, ","postalCode":"414 63","city":"GÖTEBORG"}
{"name":"Pizzeria Voanew KB","legalLink":"/f/pizzeria-voanew-kb:13303107","street":"L. Regementsv. 16, ","postalCode":"415 27","city":"GÖTEBORG"}
{"name":"Gigi Bar & Kök","legalLink":"/f/gigi-bar-kök:14897719","url":"http://www.gigi.dinstudio.se","street":"Radiotorget 5, ","postalCode":"421 33","city":"VÄSTRA FRÖLUNDA"}
{"name":"Restaurang Alanya´s","legalLink":"/f/restaurang-alanya´s:124928393","url":"http://www.alanyas.se","street":"Braheg. 6, ","postalCode":"415 01","city":"GÖTEBORG"}
{"name":"Slice Pizzeria","legalLink":"/f/slice-pizzeria:101693046","url":"http://slicepizzeria.se","street":"Artillerig. 12, ","postalCode":"415 03","city":"GÖTEBORG"}
{"name":"Öjersjö Pizzeria","legalLink":"/f/öjersjö-pizzeria:14613292","url":"https://www.facebook.com/%C3%96jersj%C3%B6-Pizzeria-124660627548405/","street":"Ekeblads v. 1, ","postalCode":"433 51","city":"ÖJERSJÖ"}
{"name":"Pizzeria Sanremo","legalLink":"/f/pizzeria-sanremo:14886279","url":"http://www.sanremo.se","street":"Nordhagsv. 28, ","postalCode":"423 34","city":"TORSLANDA"}
{"name":"Pizzeria 13","legalLink":"/f/pizzeria-13:13751545","street":"Chalmersg. 13, ","postalCode":"411 35","city":"GÖTEBORG"}
{"name":"Palermo Pizzeria","legalLink":"/f/palermo-pizzeria:10960730","street":"Jättestensgatan 9, ","postalCode":"418 72","city":"GÖTEBORG"}
{"name":"Bar Östergök","legalLink":"/f/bar-östergök:49219444","street":"Danska v. 87, ","postalCode":"416 59","city":"GÖTEBORG"}
{"name":"Yar Pizzeria","legalLink":"/f/yar-pizzeria:14513055","street":"Nordenskiöldsg. 25, ","postalCode":"413 09","city":"GÖTEBORG"}
{"name":"Rucola Restaurang Bar & Pizzeria","legalLink":"/f/rucola-restaurang-bar-pizzeria:7869470","street":"Frejag. 9, ","postalCode":"431 44","city":"MÖLNDAL"}
{"name":"Bordet Restaurang","legalLink":"/f/bordet-restaurang:14297534","url":"http://www.restaurangbordet.se","street":"Angereds Torg 1, ","postalCode":"424 65","city":"ANGERED"}
{"name":"Kungspizza","legalLink":"/f/kungspizza:5254780","url":"http://www.kungspizza.com","street":"Långedragsv. 102, ","postalCode":"426 74","city":"VÄSTRA FRÖLUNDA"}
{"name":"La Venezia Pizza Restaurang","legalLink":"/f/la-venezia-pizza-restaurang:125067472","street":"Danska v. 97, ","postalCode":"416 59","city":"GÖTEBORG"}
{"name":"Lillebygrillen","legalLink":"/f/lillebygrillen:13557187","url":"http://www.lillebygrillen.se","street":"Kråketegen 29, ","postalCode":"423 51","city":"TORSLANDA"}
{"name":"Cesar Pizzeria","legalLink":"/f/cesar-pizzeria:7841862","url":"http://www.cesarpizzeria.se","street":"Bergsätersg. 1, ","postalCode":"421 66","city":"VÄSTRA FRÖLUNDA"}
{"name":"Pizzeria Örn","legalLink":"/f/pizzeria-örn:14957449","url":"http://ornpizzeria.se/majorna/","street":"Bang. 22, ","postalCode":"414 63","city":"GÖTEBORG"}
{"name":"Dr Forselius Pizzeria","legalLink":"/f/dr-forselius-pizzeria:124928333","street":"","postalCode":"413 26","city":"GÖTEBORG"}
{"name":"Pizzabutik Kärnan","legalLink":"/f/pizzabutik-kärnan:17534873","street":"Bällsrog. 24, ","postalCode":"422 44","city":"HISINGS BACKA"}
{"name":"Pizzeria Pärla","legalLink":"/f/pizzeria-pärla:124928019","street":"Lisa Sass g. 18, ","postalCode":"422 53","city":"HISINGS BACKA"}
{"name":"Sokrates Taverna","legalLink":"/f/sokrates-taverna:7824557","url":"http://www.sokratestaverna.se","street":"Krokslätts Parkg. 71, ","postalCode":"431 68","city":"MÖLNDAL"}
{"name":"La Piazza","legalLink":"/f/la-piazza:16039452","url":"http://www.lapiazzapizzeria.se","street":"Distansg. 23 A, ","postalCode":"421 73","city":"VÄSTRA FRÖLUNDA"}
{"name":"Porten's Pizza","legalLink":"/f/portens-pizza:13747836","url":"http://www.portenspizza.se","street":"Göteborgsv. 1, ","postalCode":"431 30","city":"MÖLNDAL"}
{"name":"Hisingens Pizzagrossist","legalLink":"/f/hisingens-pizzagrossist:5202967","street":"","postalCode":"411 04","city":"GÖTEBORG"}
{"name":"Pizzeria Matador","legalLink":"/f/pizzeria-matador:15828695","street":"Sanatorieg. 15, ","postalCode":"416 53","city":"GÖTEBORG"}
{"name":"Bordet Restaurang","legalLink":"/f/bordet-restaurang:14297534","url":"http://www.restaurangbordet.se","street":"Angereds Torg 1, ","postalCode":"424 65","city":"ANGERED"}
{"name":"Il Vagabondo Pizzeria","legalLink":"/f/il-vagabondo-pizzeria:16552370","street":"Förstamajgatan 5, ","postalCode":"415 10","city":"GÖTEBORG"}
{"name":"Pizzeria Restaur. Mantovani","legalLink":"/f/pizzeria-restaur-mantovani:124952346","street":"Månadsg. 28, ","postalCode":"415 08","city":"GÖTEBORG"}
{"name":"Pizzeria La Strada","legalLink":"/f/pizzeria-la-strada:3910762","url":"http://www.pizzerialastrada.se","street":"Almv. 1, ","postalCode":"437 40","city":"LINDOME"}
{"name":"Perlan Restaurang Bar och Pizza","legalLink":"/f/perlan-restaurang-bar-och-pizza:14994920","url":"http://www.restaurangperla.se","street":"G. Riksv. 54, ","postalCode":"428 30","city":"KÅLLERED"}
{"name":"Johannebar","legalLink":"/f/johannebar:14948740","url":"http://www.johannebar.se","street":"Eklandag. 65, ","postalCode":"412 61","city":"GÖTEBORG"}
{"name":"Hönö Pizzeria","legalLink":"/f/hönö-pizzeria:114800491","url":"http://www.honopizzeria.se","street":"Öckeröv. 3, ","postalCode":"475 42","city":"HÖNÖ"}
{"name":"Cyrano Majorna","legalLink":"/f/cyrano-majorna:50709054","url":"http://www.cyrano.se/restaurang/cyrano-majorna","street":"Karl Johansg. 61, ","postalCode":"414 55","city":"GÖTEBORG"}
{"name":"Eat and Drink","legalLink":"/f/eat-and-drink:124952251","url":"http://eatanddrink.se","street":"Södra v. 77, ","postalCode":"412 53","city":"GÖTEBORG"}
{"name":"Restaurang Mektagonen","legalLink":"/f/restaurang-mektagonen:14554943","url":"http://restaurangmektagonen.se","street":"Falkenbergsg. 3, ","postalCode":"412 85","city":"GÖTEBORG"}
{"name":"Pizzeria Milano","legalLink":"/f/pizzeria-milano:106256904","street":"Brattåskärrsv. 55 A, ","postalCode":"433 64","city":"SÄVEDALEN"}
{"name":"Vickies Restaurang och Bar","legalLink":"/f/vickies-restaurang-och-bar:7839528","street":"Aschebergsg. 40, ","postalCode":"411 33","city":"GÖTEBORG"}
{"name":"Pizza Pronto","legalLink":"/f/pizza-pronto:124927664","street":"Lantmätareg. 12 D, ","postalCode":"417 06","city":"GÖTEBORG"}
{"name":"La Venezia Pizzeria Restaurang","legalLink":"/f/la-venezia-pizzeria-restaurang:17381526","street":"Danska v. 87, ","postalCode":"416 59","city":"GÖTEBORG"}
{"name":"Pizzeria Al Forno","legalLink":"/f/pizzeria-al-forno:124952423","street":"Januarig. 6, ","postalCode":"415 15","city":"GÖTEBORG"}
{"name":"På Hörnet","legalLink":"/f/på-hörnet:124928134","url":"http://pahornet.com","street":"Biblioteksg. 14 A, ","postalCode":"435 30","city":"MÖLNLYCKE"}
{"name":"Mr. Tomato","legalLink":"/f/mr-tomato:15942777","url":"http://www.restaurangtomato.se","street":"Brämareg. 1, ","postalCode":"417 04","city":"GÖTEBORG"}
{"name":"Lasse Majas Krog","legalLink":"/f/lasse-majas-krog:14842119","url":"http://www.lassemajaskrog.se","street":"Skårsg. 8, ","postalCode":"412 69","city":"GÖTEBORG"}
{"name":"Pizzabutiken Bruno Franco","legalLink":"/f/pizzabutiken-bruno-franco:31581155","street":"Olivedalsg. 12, ","postalCode":"413 10","city":"GÖTEBORG"}
{"name":"Pizzeria 13","legalLink":"/f/pizzeria-13:13751545","street":"Chalmersg. 13, ","postalCode":"411 35","city":"GÖTEBORG"}
{"name":"Pizzeria Tampico","legalLink":"/f/pizzeria-tampico:16348378","street":"Smörg. 2, ","postalCode":"412 76","city":"GÖTEBORG"}
{"name":"Gårdsten Pizzeria","legalLink":"/f/gårdsten-pizzeria:10241841","street":"Muskotgatan 5, ","postalCode":"424 41","city":"ANGERED"}
{"name":"Pizzabutik Pärlan","legalLink":"/f/pizzabutik-pärlan:124927350","street":"Vintervädersg. 1, ","postalCode":"418 36","city":"GÖTEBORG"}
{"name":"Högsbo Pizza","legalLink":"/f/högsbo-pizza:15164044","street":"Högsbog. 13, ","postalCode":"414 75","city":"GÖTEBORG"}
{"name":"Ellis Pizzeria KB","legalLink":"/f/ellis-pizzeria-kb:3918114","street":"Göteborgsv. 45, ","postalCode":"433 60","city":"SÄVEDALEN"}
{"name":"Corpus pizzeria","legalLink":"/f/corpus-pizzeria:7870891","url":"http://www.corpuspizzeria.se","street":"Kvarnbyg. 45, ","postalCode":"431 34","city":"MÖLNDAL"}
{"name":"Härryda Wärdshus","legalLink":"/f/härryda-wärdshus:124952609","street":"Prästgärdevägen, ","postalCode":"438 92","city":"HÄRRYDA"}
{"name":"Pizzeria Etna","legalLink":"/f/pizzeria-etna:14404895","street":"Nordostpassagen 47, ","postalCode":"413 11","city":"GÖTEBORG"}
{"name":"Laneko Allservice","legalLink":"/f/laneko-allservice:16299835","street":"G. Riksv. 54, ","postalCode":"428 30","city":"KÅLLERED"}
{"name":"Dr. Fries Pizzeria","legalLink":"/f/dr-fries-pizzeria:98905981","street":"Doktor fries torg, ","postalCode":"413 23","city":"GÖTEBORG"}
{"name":"Gambero Pizzabutik","legalLink":"/f/gambero-pizzabutik:14986163","url":"http://www.pizzabutikgambero.se","street":"Övre Husarg. 5, ","postalCode":"411 22","city":"GÖTEBORG"}
{"name":"Marmaris Pizza Kebab och Sallad","legalLink":"/f/marmaris-pizza-kebab-och-sallad:124952530","street":"Krokslätts Torg 4, ","postalCode":"431 37","city":"MÖLNDAL"}
{"name":"Peoples Homes AB","legalLink":"/f/peoples-homes-ab:14946523","street":"Hängestensv. 60, ","postalCode":"421 67","city":"VÄSTRA FRÖLUNDA"}
{"name":"Sidad Pizzeria","legalLink":"/f/sidad-pizzeria:124928440","street":"Halvsekelsg. 21, ","postalCode":"415 08","city":"GÖTEBORG"}
{"name":"Pizzeria Class","legalLink":"/f/pizzeria-class:49968210","url":"http://www.pizzeriaclass.se","street":"Ångaren indias gata, ","postalCode":"417 60","city":"GÖTEBORG"}
{"name":"Vickies Restaurang och Bar","legalLink":"/f/vickies-restaurang-och-bar:7839528","street":"Aschebergsg. 40, ","postalCode":"411 33","city":"GÖTEBORG"}
{"name":"Gubbero PizzaBar","legalLink":"/f/gubbero-pizzabar:16691685","url":"http://www.pizzabar.se","street":"N. Gubberog. 16, ","postalCode":"416 63","city":"GÖTEBORG"}
{"name":"Kvarterskrog Florens","legalLink":"/f/kvarterskrog-florens:8808828","url":"http://www.kvarterskrogflorens.se","street":"Eketräg. 22, ","postalCode":"418 73","city":"GÖTEBORG"}
{"name":"Edas pizzeria","legalLink":"/f/edas-pizzeria:101813035","url":"http://edaspizzeria.se","street":"Katrinerovägen 2A, ","postalCode":"417 49","city":"GÖTEBORG"}
{"name":"Zagros Pizzeria & Gatukök","legalLink":"/f/zagros-pizzeria-gatukök:12558663","street":"Vaniljg. 1, ","postalCode":"424 45","city":"ANGERED"}
{"name":"Restaurang Alanya´s","legalLink":"/f/restaurang-alanya´s:124928393","url":"http://www.alanyas.se","street":"Braheg. 6, ","postalCode":"415 01","city":"GÖTEBORG"}
{"name":"Smörslotts Pizzeria","legalLink":"/f/smörslotts-pizzeria:109024252","url":"http://xn--smrslottspizzeria-0zb.se/","street":"Smörslottsg. 64, ","postalCode":"416 78","city":"GÖTEBORG"}
{"name":"Roma Pizza","legalLink":"/f/roma-pizza:10008606","street":"S:t Paulig. 18, ","postalCode":"416 60","city":"GÖTEBORG"}
{"name":"Yar Pizzeria","legalLink":"/f/yar-pizzeria:14513055","street":"Nordenskiöldsg. 25, ","postalCode":"413 09","city":"GÖTEBORG"}
{"name":"Pizzeria Victorias Palace","legalLink":"/f/pizzeria-victorias-palace:17465709","url":"http://thaisamila.se/","street":"Delsjöv. 7, ","postalCode":"412 66","city":"GÖTEBORG"}
{"name":"Pizzeria Panther Ljungsbro","legalLink":"/f/pizzeria-panther-ljungsbro:105329085","street":"Långavallsg. 4 A, ","postalCode":"424 57","city":"GUNNILSE"}
{"name":"Restaurang och Pizzeria Regementet","legalLink":"/f/restaurang-och-pizzeria-regementet:124952387","street":"L. Regementsv. 16, ","postalCode":"415 27","city":"GÖTEBORG"}
{"name":"Cemal's Pizzeria","legalLink":"/f/cemals-pizzeria:8046017","street":"Hammarkulletorget 23, ","postalCode":"424 37","city":"ANGERED"}
{"name":"Pizzeria Class","legalLink":"/f/pizzeria-class:49968210","url":"http://www.pizzeriaclass.se","street":"Ångaren indias gata, ","postalCode":"417 60","city":"GÖTEBORG"}
{"name":"Pizzeria Vallentin i Kungsbacka","legalLink":"/f/pizzeria-vallentin-i-kungsbacka:14303963","url":"http://www.pizzeriavalentin.se","street":"Grinnekulleg. 227, ","postalCode":"417 42","city":"GÖTEBORG"}
{"name":"Åby Krog","legalLink":"/f/åby-krog:124928145","street":"Katrinebergsg. 6, ","postalCode":"431 61","city":"MÖLNDAL"}
{"name":"Briljant Pizzeria","legalLink":"/f/briljant-pizzeria:112615512","street":"Safirg. 1, ","postalCode":"421 48","city":"VÄSTRA FRÖLUNDA"}
{"name":"Pizzeria Snipen","legalLink":"/f/pizzeria-snipen:14667411","street":"Atmosfärg. 33, ","postalCode":"415 21","city":"GÖTEBORG"}
{"name":"Toscana Ristorante Italiano","legalLink":"/f/toscana-ristorante-italiano:14923685","url":"http://www.spaghettibrothers.se","street":"Kungsg. 7, ","postalCode":"411 19","city":"GÖTEBORG"}
{"name":"Cemal's Pizzeria","legalLink":"/f/cemals-pizzeria:8046017","street":"Hammarkulletorget 23, ","postalCode":"424 37","city":"ANGERED"}
{"name":"Old Persian","legalLink":"/f/old-persian:113992823","url":"http://www.oldpersian.se/","street":"Torgg. 4, ","postalCode":"411 05","city":"GÖTEBORG"}
{"name":"Canaria Pizzeria","legalLink":"/f/canaria-pizzeria:129547664","street":"Hjällbogärdet 3, ","postalCode":"424 34","city":"ANGERED"}
{"name":"Göteborg Pizza 4 You HB","legalLink":"/f/göteborg-pizza-4-you-hb:134384755","street":"Krokslätts Parkg. 57, ","postalCode":"431 68","city":"MÖLNDAL"}
{"name":"Solsidan Restaurang & Bistro","legalLink":"/f/solsidan-restaurang-bistro:93574385","street":"Metodv. 2 A, ","postalCode":"435 33","city":"MÖLNLYCKE"}
{"name":"Vivaldi Restaurang & Bar","legalLink":"/f/vivaldi-restaurang-bar:14941001","url":"http://www.restaurangvivaldi.com","street":"Berzeliigatan 19, ","postalCode":"412 53","city":"GÖTEBORG"}
{"name":"Happy City AB","legalLink":"/f/happy-city-ab:128173771","street":"Angeredsvinkeln 5, ","postalCode":"424 67","city":"ANGERED"}
{"name":"La Beban Vedugnsköket","legalLink":"/f/la-beban-vedugnsköket:134914143","url":"http://www.labeban.com","street":"Bögatan 47, ","postalCode":"412 72","city":"GÖTEBORG"}
{"name":"La Vera Pizzeria","legalLink":"/f/la-vera-pizzeria:117943092","street":"Centralv. 13, ","postalCode":"435 30","city":"MÖLNLYCKE"}
{"name":"Kios Pizzeria AB","legalLink":"/f/kios-pizzeria-ab:133529311","street":"Byv. 6, ","postalCode":"438 36","city":"LANDVETTER"}
{"name":"Pizzeria Restaurang Lepanto AB","legalLink":"/f/pizzeria-restaurang-lepanto-ab:146493470","street":"Marklandsgatan 1, ","postalCode":"414 77","city":"GÖTEBORG"}
{"name":"Gibraltar Pizzeria KB","legalLink":"/f/gibraltar-pizzeria-kb:129471010","url":"http://pizzeriagibraltar.com/","street":"Gibraltarg. 36, ","postalCode":"412 58","city":"GÖTEBORG"}
{"name":"I Love Pizza - Utby","legalLink":"/f/i-love-pizza-utby:5191033","street":"Österlyckan 1, ","postalCode":"415 07","city":"GÖTEBORG"}
{"name":"Pizzeria Carola","legalLink":"/f/pizzeria-carola:137331701","url":"http://www.pizzeriacarola.se","street":"Arendals Allé 1, ","postalCode":"418 79","city":"GÖTEBORG"}
{"name":"Sannegården Pizzeria","legalLink":"/f/sannegården-pizzeria:126272817","street":"Skanstorget 2, ","postalCode":"411 22","city":"GÖTEBORG"}
{"name":"Vapiano","legalLink":"/f/vapiano:107151458","url":"https://www.facebook.com/vapiano.kungsport","street":"Ö. Hamng. 35, ","postalCode":"411 10","city":"GÖTEBORG"}
{"name":"Chopstix","legalLink":"/f/chopstix:4375366","url":"http://www.chopstixsushibar.se/","street":"Olivedalsg. 23, ","postalCode":"413 10","city":"GÖTEBORG"}
{"name":"Da Marco Pizzeria Ristorante","legalLink":"/f/da-marco-pizzeria-ristorante:13739012","url":"http://www.damarco.se","street":"Ärleg. 2, ","postalCode":"414 57","city":"GÖTEBORG"}
{"name":"I Love Pizza - Frigga","legalLink":"/f/i-love-pizza-frigga:14991382","street":"Friggag. 14 D, ","postalCode":"411 01","city":"GÖTEBORG"}
{"name":"Capricciosa Pizzeria HB","legalLink":"/f/capricciosa-pizzeria-hb:121904451","street":"Lars Kaggsg. 45 B, ","postalCode":"415 04","city":"GÖTEBORG"}
{"name":"Happy City AB","legalLink":"/f/happy-city-ab:128173771","street":"Angeredsvinkeln 5, ","postalCode":"424 67","city":"ANGERED"}
{"name":"Pizzeria Carola","legalLink":"/f/pizzeria-carola:137331701","url":"http://www.pizzeriacarola.se","street":"Arendals Allé 1, ","postalCode":"418 79","city":"GÖTEBORG"}
{"name":"Dannes Pizzeria och Grill","legalLink":"/f/dannes-pizzeria-och-grill:10178687","url":"http://www.dannespizzeria.se/","street":"Jörlandav. 2 B, ","postalCode":"442 60","city":"KODE"}
{"name":"Canaria Pizzeria","legalLink":"/f/canaria-pizzeria:129547664","street":"Hjällbogärdet 3, ","postalCode":"424 34","city":"ANGERED"}
{"name":"Grand Pizzeria I Göteborg","legalLink":"/f/grand-pizzeria-i-göteborg:146392108","street":"Södra vårvindsgatan 6, ","postalCode":"418 77","city":"GÖTEBORG"}
